{
"type": "FeatureCollection",
"name": "poi",
"crs": { "type": "name", "properties": { "name": "urn:ogc:def:crs:OGC:1.3:CRS84" } },
"features": [
{ "type": "Feature", "properties": { "properties.name": "Sabe Creek Rapid", "properties.waterway": "rapids", "properties.rapids_class": "II", "properties.description": null }, "geometry": { "type": "Point", "coordinates": [ -115.024851358898815, 45.507310452873504 ] } },
{ "type": "Feature", "properties": { "properties.name": "Oakies Campsite", "properties.waterway": "campsite", "properties.rapids_class": null, "properties.description": null }, "geometry": { "type": "Point", "coordinates": [ -115.279223052054363, 45.532719713398457 ] } },
{ "type": "Feature", "properties": { "properties.name": "Ludwig Rapid", "properties.waterway": "rapids", "properties.rapids_class": "III", "properties.description": null }, "geometry": { "type": "Point", "coordinates": [ -115.491693929175156, 45.393891477387172 ] } },
{ "type": "Feature", "properties": { "properties.name": "Rainier Rapid", "properties.waterway": "rapids", "properties.rapids_class": "III-", "properties.description": null }, "geometry": { "type": "Point", "coordinates": [ -114.820752, 45.3966256 ] } },
{ "type": "Feature", "properties": { "properties.name": "Bull Creek Rapid", "properties.waterway": "rapids", "properties.rapids_class": "II", "properties.description": null }, "geometry": { "type": "Point", "coordinates": [ -115.729599203284963, 45.442569592281053 ] } },
{ "type": "Feature", "properties": { "properties.name": "Little Growler Rapid", "properties.waterway": "rapids", "properties.rapids_class": null, "properties.description": null }, "geometry": { "type": "Point", "coordinates": [ -115.7716401, 45.4544886 ] } },
{ "type": "Feature", "properties": { "properties.name": "Otter Beach Campsite", "properties.waterway": "campsite", "properties.rapids_class": null, "properties.description": null }, "geometry": { "type": "Point", "coordinates": [ -114.851434901948039, 45.414525042788021 ] } },
{ "type": "Feature", "properties": { "properties.name": "Devils Teeth Rapid", "properties.waterway": "rapids", "properties.rapids_class": "III", "properties.description": null }, "geometry": { "type": "Point", "coordinates": [ -114.8931925, 45.4359022 ] } },
{ "type": "Feature", "properties": { "properties.name": "Little Devils Teeth Rapid", "properties.waterway": "rapids", "properties.rapids_class": "II", "properties.description": null }, "geometry": { "type": "Point", "coordinates": [ -114.9446286, 45.4635194 ] } },
{ "type": "Feature", "properties": { "properties.name": "Bailey Rapid", "properties.waterway": "rapids", "properties.rapids_class": "III", "properties.description": null }, "geometry": { "type": "Point", "coordinates": [ -115.2009437, 45.5673749 ] } },
{ "type": "Feature", "properties": { "properties.name": "Fivemile Rapid", "properties.waterway": "rapids", "properties.rapids_class": "III", "properties.description": null }, "geometry": { "type": "Point", "coordinates": [ -115.2287291, 45.5576713 ] } },
{ "type": "Feature", "properties": { "properties.name": "Upper Allison Ranch", "properties.waterway": "campsite", "properties.rapids_class": null, "properties.description": null }, "geometry": { "type": "Point", "coordinates": [ -115.217625268131656, 45.569103936222909 ] } },
{ "type": "Feature", "properties": { "properties.name": "Big Mallard Rapid", "properties.waterway": "rapids", "properties.rapids_class": "III+ to IV", "properties.description": null }, "geometry": { "type": "Point", "coordinates": [ -115.2684713, 45.5383284 ] } },
{ "type": "Feature", "properties": { "properties.name": "Elkhorn Stage 1 Rapid", "properties.waterway": "rapids", "properties.rapids_class": "III-IV", "properties.description": null }, "geometry": { "type": "Point", "coordinates": [ -115.3221282, 45.5166512 ] } },
{ "type": "Feature", "properties": { "properties.name": "Whiplash Rapid", "properties.waterway": "rapids", "properties.rapids_class": "III", "properties.description": null }, "geometry": { "type": "Point", "coordinates": [ -115.3527156, 45.4769763 ] } },
{ "type": "Feature", "properties": { "properties.name": "Deadman Rapid", "properties.waterway": "rapids", "properties.rapids_class": null, "properties.description": null }, "geometry": { "type": "Point", "coordinates": [ -115.5036957, 45.3839597 ] } },
{ "type": "Feature", "properties": { "properties.name": "T-Bone Creek Rapid", "properties.waterway": "rapids", "properties.rapids_class": null, "properties.description": null }, "geometry": { "type": "Point", "coordinates": [ -115.7680301, 45.452209 ] } },
{ "type": "Feature", "properties": { "properties.name": "Cottontail Rapid", "properties.waterway": "rapids", "properties.rapids_class": "II", "properties.description": null }, "geometry": { "type": "Point", "coordinates": [ -115.739667296633016, 45.44489715855503 ] } },
{ "type": "Feature", "properties": { "properties.name": "Can Opener Rapid", "properties.waterway": "rapids", "properties.rapids_class": "II", "properties.description": null }, "geometry": { "type": "Point", "coordinates": [ -115.764269871517968, 45.450911308933712 ] } },
{ "type": "Feature", "properties": { "properties.name": "Chittam Rapid", "properties.waterway": "rapids", "properties.rapids_class": "III-IV", "properties.description": null }, "geometry": { "type": "Point", "coordinates": [ -115.8885797, 45.4590109 ] } },
{ "type": "Feature", "properties": { "properties.name": "Vinegar Creek Rapid", "properties.waterway": "rapids", "properties.rapids_class": "III", "properties.description": null }, "geometry": { "type": "Point", "coordinates": [ -115.9028399, 45.4592659 ] } },
{ "type": "Feature", "properties": { "properties.name": "Carey Falls Rapid", "properties.waterway": "rapids", "properties.rapids_class": "II-III", "properties.description": null }, "geometry": { "type": "Point", "coordinates": [ -115.9376661, 45.457661 ] } },
{ "type": "Feature", "properties": { "properties.name": "Alder Creek Rapid", "properties.waterway": "rapids", "properties.rapids_class": "II-III", "properties.description": null }, "geometry": { "type": "Point", "coordinates": [ -114.8340282, 45.4042712 ] } },
{ "type": "Feature", "properties": { "properties.name": "Horse Creek Rapid", "properties.waterway": "rapids", "properties.rapids_class": "II", "properties.description": null }, "geometry": { "type": "Point", "coordinates": [ -114.7344757, 45.3953782 ] } },
{ "type": "Feature", "properties": { "properties.name": "Gunbarrel Rapid", "properties.waterway": "rapids", "properties.rapids_class": "II", "properties.description": null }, "geometry": { "type": "Point", "coordinates": [ -114.7101066, 45.387727 ] } },
{ "type": "Feature", "properties": { "properties.name": "Growler Rapid", "properties.waterway": "rapids", "properties.rapids_class": "II-III-", "properties.description": null }, "geometry": { "type": "Point", "coordinates": [ -115.3274467, 45.4981034 ] } },
{ "type": "Feature", "properties": { "properties.name": null, "properties.waterway": "parking", "properties.rapids_class": null, "properties.description": null }, "geometry": { "type": "Point", "coordinates": [ -115.8929831, 45.4596266 ] } },
{ "type": "Feature", "properties": { "properties.name": "Corn Creek Boat Ramp", "properties.waterway": "slipway", "properties.rapids_class": null, "properties.description": null }, "geometry": { "type": "Point", "coordinates": [ -114.6877464, 45.3699522 ] } },
{ "type": "Feature", "properties": { "properties.name": "Carey Creek Boat Ramp", "properties.waterway": "slipway", "properties.rapids_class": null, "properties.description": null }, "geometry": { "type": "Point", "coordinates": [ -115.945542, 45.4534033 ] } },
{ "type": "Feature", "properties": { "properties.name": "Bargamin Creek Campsite", "properties.waterway": "campsite", "properties.rapids_class": null, "properties.description": null }, "geometry": { "type": "Point", "coordinates": [ -115.1931569, 45.5674321 ] } },
{ "type": "Feature", "properties": { "properties.name": "Vinegar Creek Boat Ramp", "properties.waterway": "slipway", "properties.rapids_class": null, "properties.description": null }, "geometry": { "type": "Point", "coordinates": [ -115.8937453, 45.4597443 ] } },
{ "type": "Feature", "properties": { "properties.name": "Vinegar Creek Boat Ramp", "properties.waterway": "slipway", "properties.rapids_class": null, "properties.description": null }, "geometry": { "type": "Point", "coordinates": [ -115.8916202, 45.4594212 ] } },
{ "type": "Feature", "properties": { "properties.name": "James Ranch Rapid", "properties.waterway": "rapids", "properties.rapids_class": "II", "properties.description": null }, "geometry": { "type": "Point", "coordinates": [ -115.621798751483439, 45.403907239733257 ] } },
{ "type": "Feature", "properties": { "properties.name": "Pete's Rock Rapid", "properties.waterway": "rapids", "properties.rapids_class": "II", "properties.description": null }, "geometry": { "type": "Point", "coordinates": [ -115.627899001990286, 45.407372169734657 ] } },
{ "type": "Feature", "properties": { "properties.name": "Fivemile Creek Campsite", "properties.waterway": "campsite", "properties.rapids_class": null, "properties.description": null }, "geometry": { "type": "Point", "coordinates": [ -115.4705894, 45.4112517 ] } },
{ "type": "Feature", "properties": { "properties.name": "Pebble Beach Campsite", "properties.waterway": "campsite", "properties.rapids_class": null, "properties.description": null }, "geometry": { "type": "Point", "coordinates": [ -115.4762864, 45.410073 ] } },
{ "type": "Feature", "properties": { "properties.name": "Haynie Bar Campsite", "properties.waterway": "campsite", "properties.rapids_class": null, "properties.description": "Reservable" }, "geometry": { "type": "Point", "coordinates": [ -115.4777777, 45.405708 ] } },
{ "type": "Feature", "properties": { "properties.name": "Bluebird Hole Campsite", "properties.waterway": "campsite", "properties.rapids_class": null, "properties.description": null }, "geometry": { "type": "Point", "coordinates": [ -115.4776114, 45.4006083 ] } },
{ "type": "Feature", "properties": { "properties.name": "Dead Man Campsite", "properties.waterway": "campsite", "properties.rapids_class": null, "properties.description": null }, "geometry": { "type": "Point", "coordinates": [ -115.50475, 45.3834865 ] } },
{ "type": "Feature", "properties": { "properties.name": "South Fork Campsite", "properties.waterway": "campsite", "properties.rapids_class": null, "properties.description": null }, "geometry": { "type": "Point", "coordinates": [ -115.5131024, 45.3750047 ] } },
{ "type": "Feature", "properties": { "properties.name": "South Fork Island Campsite", "properties.waterway": "campsite", "properties.rapids_class": null, "properties.description": null }, "geometry": { "type": "Point", "coordinates": [ -115.5130139, 45.3777442 ] } },
{ "type": "Feature", "properties": { "properties.name": "Cove Creek Campsite", "properties.waterway": "campsite", "properties.rapids_class": null, "properties.description": null }, "geometry": { "type": "Point", "coordinates": [ -115.5336535, 45.3850011 ] } },
{ "type": "Feature", "properties": { "properties.name": "Red Harlan Campsite", "properties.waterway": "campsite", "properties.rapids_class": null, "properties.description": null }, "geometry": { "type": "Point", "coordinates": [ -115.5438995, 45.3854306 ] } },
{ "type": "Feature", "properties": { "properties.name": "Upper Pine Tree Hole Campsite", "properties.waterway": "campsite", "properties.rapids_class": null, "properties.description": null }, "geometry": { "type": "Point", "coordinates": [ -115.5573535, 45.3847223 ] } },
{ "type": "Feature", "properties": { "properties.name": "Lower Pine Tree Hole Campsite", "properties.waterway": "campsite", "properties.rapids_class": null, "properties.description": null }, "geometry": { "type": "Point", "coordinates": [ -115.5678463, 45.3891717 ] } },
{ "type": "Feature", "properties": { "properties.name": "Hungry Bar Campsite", "properties.waterway": "campsite", "properties.rapids_class": null, "properties.description": "Reservable" }, "geometry": { "type": "Point", "coordinates": [ -115.5820432, 45.3940201 ] } },
{ "type": "Feature", "properties": { "properties.name": "Mann Creek Campsite", "properties.waterway": "campsite", "properties.rapids_class": null, "properties.description": "Reservable" }, "geometry": { "type": "Point", "coordinates": [ -115.5875123, 45.3946906 ] } },
{ "type": "Feature", "properties": { "properties.name": "Warren Creek Campsite", "properties.waterway": "campsite", "properties.rapids_class": null, "properties.description": "Reservable" }, "geometry": { "type": "Point", "coordinates": [ -115.5968195, 45.3970073 ] } },
{ "type": "Feature", "properties": { "properties.name": "Swimming Hole Campsite", "properties.waterway": "campsite", "properties.rapids_class": null, "properties.description": "Reservable" }, "geometry": { "type": "Point", "coordinates": [ -115.6014758, 45.3958471 ] } },
{ "type": "Feature", "properties": { "properties.name": "James Creek Campsite", "properties.waterway": "campsite", "properties.rapids_class": null, "properties.description": null }, "geometry": { "type": "Point", "coordinates": [ -115.6163728, 45.3983445 ] } },
{ "type": "Feature", "properties": { "properties.name": "Mann Creek Rapid", "properties.waterway": "rapids", "properties.rapids_class": "II", "properties.description": null }, "geometry": { "type": "Point", "coordinates": [ -115.585862821664605, 45.395040525780992 ] } },
{ "type": "Feature", "properties": { "properties.name": "Rabbit Creek Campsite", "properties.waterway": "campsite", "properties.rapids_class": null, "properties.description": "Reservable" }, "geometry": { "type": "Point", "coordinates": [ -115.6536448, 45.4256469 ] } },
{ "type": "Feature", "properties": { "properties.name": "Alex Meadow Campsite", "properties.waterway": "campsite", "properties.rapids_class": null, "properties.description": null }, "geometry": { "type": "Point", "coordinates": [ -115.6866521, 45.438465 ] } },
{ "type": "Feature", "properties": { "properties.name": "Basin Creek Campsite", "properties.waterway": "campsite", "properties.rapids_class": null, "properties.description": null }, "geometry": { "type": "Point", "coordinates": [ -115.6994999, 45.4434334 ] } },
{ "type": "Feature", "properties": { "properties.name": "Campbell's Rock Rapid", "properties.waterway": "rapids", "properties.rapids_class": "II", "properties.description": null }, "geometry": { "type": "Point", "coordinates": [ -115.644725242101742, 45.420120768389438 ] } },
{ "type": "Feature", "properties": { "properties.name": "Upper Bull Creek Campsite", "properties.waterway": "campsite", "properties.rapids_class": null, "properties.description": null }, "geometry": { "type": "Point", "coordinates": [ -115.72519, 45.4445173 ] } },
{ "type": "Feature", "properties": { "properties.name": "Lower Bull Creek Campsite", "properties.waterway": "campsite", "properties.rapids_class": null, "properties.description": null }, "geometry": { "type": "Point", "coordinates": [ -115.7270891, 45.4433506 ] } },
{ "type": "Feature", "properties": { "properties.name": "Gold Rush Bar Campsite", "properties.waterway": "campsite", "properties.rapids_class": null, "properties.description": null }, "geometry": { "type": "Point", "coordinates": [ -115.75912, 45.4478104 ] } },
{ "type": "Feature", "properties": { "properties.name": "California Creek Campsite", "properties.waterway": "campsite", "properties.rapids_class": null, "properties.description": "Reservable" }, "geometry": { "type": "Point", "coordinates": [ -115.7612872, 45.4491916 ] } },
{ "type": "Feature", "properties": { "properties.name": "Maxwell Bar Campsite", "properties.waterway": "campsite", "properties.rapids_class": null, "properties.description": "Reservable" }, "geometry": { "type": "Point", "coordinates": [ -115.7874709, 45.4631444 ] } },
{ "type": "Feature", "properties": { "properties.name": "Upper Sheep Creek Campsite", "properties.waterway": "campsite", "properties.rapids_class": null, "properties.description": null }, "geometry": { "type": "Point", "coordinates": [ -115.8068097, 45.4681558 ] } },
{ "type": "Feature", "properties": { "properties.name": "Middle Sheep Creek Campsite", "properties.waterway": "campsite", "properties.rapids_class": null, "properties.description": null }, "geometry": { "type": "Point", "coordinates": [ -115.8100712, 45.4687013 ] } },
{ "type": "Feature", "properties": { "properties.name": "Lower Sheep Creek Campsite", "properties.waterway": "campsite", "properties.rapids_class": null, "properties.description": null }, "geometry": { "type": "Point", "coordinates": [ -115.813086, 45.4676178 ] } },
{ "type": "Feature", "properties": { "properties.name": "Brush Creek Campsite", "properties.waterway": "campsite", "properties.rapids_class": null, "properties.description": null }, "geometry": { "type": "Point", "coordinates": [ -115.813762, 45.4664289 ] } },
{ "type": "Feature", "properties": { "properties.name": "Slide Beach Campsite", "properties.waterway": "campsite", "properties.rapids_class": null, "properties.description": null }, "geometry": { "type": "Point", "coordinates": [ -115.8387521, 45.4648206 ] } },
{ "type": "Feature", "properties": { "properties.name": "Johnson Creek Bar Campsite", "properties.waterway": "campsite", "properties.rapids_class": null, "properties.description": "Reservable" }, "geometry": { "type": "Point", "coordinates": [ -115.845589, 45.4632949 ] } },
{ "type": "Feature", "properties": { "properties.name": "T-Bone Creek Campsite", "properties.waterway": "campsite", "properties.rapids_class": null, "properties.description": "Reservable" }, "geometry": { "type": "Point", "coordinates": [ -115.767829774953839, 45.452543193256886 ] } },
{ "type": "Feature", "properties": { "properties.name": "Dried Meat Rapid", "properties.waterway": "rapids", "properties.rapids_class": "III", "properties.description": null }, "geometry": { "type": "Point", "coordinates": [ -115.832259703777183, 45.466590955290549 ] } },
{ "type": "Feature", "properties": { "properties.name": "Boulders Rapid", "properties.waterway": "rapids", "properties.rapids_class": "II", "properties.description": null }, "geometry": { "type": "Point", "coordinates": [ -115.910075288223268, 45.458567819596681 ] } },
{ "type": "Feature", "properties": { "properties.name": "Elkhorn Creek Campsite", "properties.waterway": "campsite", "properties.rapids_class": null, "properties.description": null }, "geometry": { "type": "Point", "coordinates": [ -114.9223137, 45.4484803 ] } },
{ "type": "Feature", "properties": { "properties.name": "Chamberlain Creek Campsite", "properties.waterway": "campsite", "properties.rapids_class": null, "properties.description": "Only available at low water" }, "geometry": { "type": "Point", "coordinates": [ -114.9328065, 45.4542682 ] } },
{ "type": "Feature", "properties": { "properties.name": "Chukar Beach Campsite", "properties.waterway": "campsite", "properties.rapids_class": null, "properties.description": null }, "geometry": { "type": "Point", "coordinates": [ -114.9339438, 45.4593781 ] } },
{ "type": "Feature", "properties": { "properties.name": "Blackadar Campsite", "properties.waterway": "campsite", "properties.rapids_class": null, "properties.description": "Reservable" }, "geometry": { "type": "Point", "coordinates": [ -114.95435, 45.4670685 ] } },
{ "type": "Feature", "properties": { "properties.name": "Motor Campsite", "properties.waterway": "campsite", "properties.rapids_class": null, "properties.description": "Reservable" }, "geometry": { "type": "Point", "coordinates": [ -114.9593711, 45.4673394 ] } },
{ "type": "Feature", "properties": { "properties.name": "Pia Natesu’u Naokwaide Campsite", "properties.waterway": "campsite", "properties.rapids_class": null, "properties.description": "Reservable" }, "geometry": { "type": "Point", "coordinates": [ -114.9669725, 45.475623 ] } },
{ "type": "Feature", "properties": { "properties.name": "Corey Bar Campsite", "properties.waterway": "campsite", "properties.rapids_class": null, "properties.description": null }, "geometry": { "type": "Point", "coordinates": [ -114.9859786, 45.4941496 ] } },
{ "type": "Feature", "properties": { "properties.name": "Pebble Creek Campsite", "properties.waterway": "campsite", "properties.rapids_class": null, "properties.description": null }, "geometry": { "type": "Point", "coordinates": [ -114.992137, 45.4945445 ] } },
{ "type": "Feature", "properties": { "properties.name": "Black Canyon Beach Campsite", "properties.waterway": "campsite", "properties.rapids_class": null, "properties.description": null }, "geometry": { "type": "Point", "coordinates": [ -115.0163359, 45.5080124 ] } },
{ "type": "Feature", "properties": { "properties.name": "Sunny Bar Campsite", "properties.waterway": "campsite", "properties.rapids_class": null, "properties.description": null }, "geometry": { "type": "Point", "coordinates": [ -115.040178, 45.5105499 ] } },
{ "type": "Feature", "properties": { "properties.name": "Barth Campsite", "properties.waterway": "campsite", "properties.rapids_class": null, "properties.description": "Reservable" }, "geometry": { "type": "Point", "coordinates": [ -115.0485545, 45.5114521 ] } },
{ "type": "Feature", "properties": { "properties.name": "Sandy Hole Campsite", "properties.waterway": "campsite", "properties.rapids_class": null, "properties.description": null }, "geometry": { "type": "Point", "coordinates": [ -115.0564456, 45.5089485 ] } },
{ "type": "Feature", "properties": { "properties.name": "Poor Bar Campsite", "properties.waterway": "campsite", "properties.rapids_class": null, "properties.description": null }, "geometry": { "type": "Point", "coordinates": [ -115.0661552, 45.5111288 ] } },
{ "type": "Feature", "properties": { "properties.name": "Nixon Bar Campsite", "properties.waterway": "campsite", "properties.rapids_class": null, "properties.description": null }, "geometry": { "type": "Point", "coordinates": [ -115.0667024, 45.5160006 ] } },
{ "type": "Feature", "properties": { "properties.name": "Bruin Creek Campsite", "properties.waterway": "campsite", "properties.rapids_class": null, "properties.description": "Reservable" }, "geometry": { "type": "Point", "coordinates": [ -115.0732899, 45.5171658 ] } },
{ "type": "Feature", "properties": { "properties.name": "Hancock Campsite", "properties.waterway": "campsite", "properties.rapids_class": null, "properties.description": "Reservable" }, "geometry": { "type": "Point", "coordinates": [ -115.0937176, 45.5227211 ] } },
{ "type": "Feature", "properties": { "properties.name": "Magpie Creek Campsite", "properties.waterway": "campsite", "properties.rapids_class": null, "properties.description": "Reservable" }, "geometry": { "type": "Point", "coordinates": [ -115.1540297, 45.5486222 ] } },
{ "type": "Feature", "properties": { "properties.name": "Hida Creek Campsite", "properties.waterway": "campsite", "properties.rapids_class": null, "properties.description": "Reservable" }, "geometry": { "type": "Point", "coordinates": [ -115.1715982, 45.5603419 ] } },
{ "type": "Feature", "properties": { "properties.name": "Bailey Bar Campsite", "properties.waterway": "campsite", "properties.rapids_class": null, "properties.description": "Reservable" }, "geometry": { "type": "Point", "coordinates": [ -115.2109301, 45.5697648 ] } },
{ "type": "Feature", "properties": { "properties.name": "Richardson Bar Campsite", "properties.waterway": "campsite", "properties.rapids_class": null, "properties.description": null }, "geometry": { "type": "Point", "coordinates": [ -115.2607387, 45.5382226 ] } },
{ "type": "Feature", "properties": { "properties.name": "Upper Yellow Pine Bar Campsite", "properties.waterway": "campsite", "properties.rapids_class": null, "properties.description": null }, "geometry": { "type": "Point", "coordinates": [ -115.2629167, 45.5398946 ] } },
{ "type": "Feature", "properties": { "properties.name": "Lower Yellow Pine Bar Campsite", "properties.waterway": "campsite", "properties.rapids_class": null, "properties.description": "Reservable" }, "geometry": { "type": "Point", "coordinates": [ -115.2650142, 45.5400712 ] } },
{ "type": "Feature", "properties": { "properties.name": "Big Mallard Campsite", "properties.waterway": "campsite", "properties.rapids_class": null, "properties.description": "Reservable" }, "geometry": { "type": "Point", "coordinates": [ -115.2708292, 45.5366369 ] } },
{ "type": "Feature", "properties": { "properties.name": "Boiler Hole Campsite", "properties.waterway": "campsite", "properties.rapids_class": null, "properties.description": null }, "geometry": { "type": "Point", "coordinates": [ -115.2892774, 45.5352015 ] } },
{ "type": "Feature", "properties": { "properties.name": "Hermit Hanks Campsite", "properties.waterway": "campsite", "properties.rapids_class": null, "properties.description": null }, "geometry": { "type": "Point", "coordinates": [ -115.293880684065172, 45.535030553699428 ] } },
{ "type": "Feature", "properties": { "properties.name": "Little Trout Creek Campsite", "properties.waterway": "campsite", "properties.rapids_class": null, "properties.description": null }, "geometry": { "type": "Point", "coordinates": [ -115.3250313, 45.4998914 ] } },
{ "type": "Feature", "properties": { "properties.name": "Groundhog Bar Campsite", "properties.waterway": "campsite", "properties.rapids_class": null, "properties.description": "Reservable" }, "geometry": { "type": "Point", "coordinates": [ -115.3525293, 45.4776129 ] } },
{ "type": "Feature", "properties": { "properties.name": "Reed Creek Campsite", "properties.waterway": "campsite", "properties.rapids_class": null, "properties.description": "Reservable" }, "geometry": { "type": "Point", "coordinates": [ -115.3747541, 45.4718312 ] } },
{ "type": "Feature", "properties": { "properties.name": "Gaines Bar Campsite", "properties.waterway": "campsite", "properties.rapids_class": null, "properties.description": null }, "geometry": { "type": "Point", "coordinates": [ -115.3904933, 45.4754312 ] } },
{ "type": "Feature", "properties": { "properties.name": "Rhett Creek Campsite", "properties.waterway": "campsite", "properties.rapids_class": null, "properties.description": null }, "geometry": { "type": "Point", "coordinates": [ -115.3942859, 45.4724557 ] } },
{ "type": "Feature", "properties": { "properties.name": "Paine Creek Campsite", "properties.waterway": "campsite", "properties.rapids_class": null, "properties.description": null }, "geometry": { "type": "Point", "coordinates": [ -115.4330063, 45.4541477 ] } },
{ "type": "Feature", "properties": { "properties.name": "Unnamed Rapid", "properties.waterway": "rapids", "properties.rapids_class": "II", "properties.description": null }, "geometry": { "type": "Point", "coordinates": [ -115.412107243486076, 45.464094951110283 ] } },
{ "type": "Feature", "properties": { "properties.name": "No Man's Creek Campsite", "properties.waterway": "campsite", "properties.rapids_class": null, "properties.description": null }, "geometry": { "type": "Point", "coordinates": [ -115.4585838, 45.4326981 ] } },
{ "type": "Feature", "properties": { "properties.name": "Teepee Creek Campsite", "properties.waterway": "campsite", "properties.rapids_class": null, "properties.description": "Reservable" }, "geometry": { "type": "Point", "coordinates": [ -115.4612821, 45.4284441 ] } },
{ "type": "Feature", "properties": { "properties.name": "Small Beach Campsite", "properties.waterway": "campsite", "properties.rapids_class": null, "properties.description": "Several campistes in the area share the same name" }, "geometry": { "type": "Point", "coordinates": [ -114.7221297, 45.3966419 ] } },
{ "type": "Feature", "properties": { "properties.name": "Horse Creek Campsite", "properties.waterway": "campsite", "properties.rapids_class": null, "properties.description": null }, "geometry": { "type": "Point", "coordinates": [ -114.732187158648415, 45.395992581268843 ] } },
{ "type": "Feature", "properties": { "properties.name": "Bridge Pilings Camp", "properties.waterway": "campsite", "properties.rapids_class": null, "properties.description": null }, "geometry": { "type": "Point", "coordinates": [ -114.7352484, 45.3948489 ] } },
{ "type": "Feature", "properties": { "properties.name": "Pictographs", "properties.waterway": "note", "properties.rapids_class": null, "properties.description": null }, "geometry": { "type": "Point", "coordinates": [ -114.749882152036037, 45.396180399318965 ] } },
{ "type": "Feature", "properties": { "properties.name": "Legend Creek Campsite", "properties.waterway": "campsite", "properties.rapids_class": null, "properties.description": null }, "geometry": { "type": "Point", "coordinates": [ -114.7571003, 45.3937187 ] } },
{ "type": "Feature", "properties": { "properties.name": "Spindle Creek Campsite", "properties.waterway": "campsite", "properties.rapids_class": null, "properties.description": null }, "geometry": { "type": "Point", "coordinates": [ -114.7843355, 45.3911157 ] } },
{ "type": "Feature", "properties": { "properties.name": "Phantom Campsite", "properties.waterway": "campsite", "properties.rapids_class": null, "properties.description": null }, "geometry": { "type": "Point", "coordinates": [ -114.8177826, 45.3962125 ] } },
{ "type": "Feature", "properties": { "properties.name": "Alder Creek Campsite", "properties.waterway": "campsite", "properties.rapids_class": null, "properties.description": "Reservable" }, "geometry": { "type": "Point", "coordinates": [ -114.833495, 45.4026912 ] } },
{ "type": "Feature", "properties": { "properties.name": "Fawn Creek Campsite", "properties.waterway": "campsite", "properties.rapids_class": null, "properties.description": null }, "geometry": { "type": "Point", "coordinates": [ -114.8567417, 45.415829 ] } },
{ "type": "Feature", "properties": { "properties.name": "Upper Lantz Bar Campsite", "properties.waterway": "campsite", "properties.rapids_class": null, "properties.description": "Reservable" }, "geometry": { "type": "Point", "coordinates": [ -114.8636726, 45.4196019 ] } },
{ "type": "Feature", "properties": { "properties.name": "Lower Lantz Bar Campsite", "properties.waterway": "campsite", "properties.rapids_class": null, "properties.description": null }, "geometry": { "type": "Point", "coordinates": [ -114.8708501, 45.4182464 ] } },
{ "type": "Feature", "properties": { "properties.name": "Tag Creek Campsite", "properties.waterway": "campsite", "properties.rapids_class": null, "properties.description": null }, "geometry": { "type": "Point", "coordinates": [ -114.8743504, 45.4183123 ] } },
{ "type": "Feature", "properties": { "properties.name": "Upper Devils Teeth Campsite", "properties.waterway": "campsite", "properties.rapids_class": null, "properties.description": "Reservable" }, "geometry": { "type": "Point", "coordinates": [ -114.8913986, 45.4357021 ] } },
{ "type": "Feature", "properties": { "properties.name": "Lower Devils Teeth Campsite", "properties.waterway": "campsite", "properties.rapids_class": null, "properties.description": "Reservable" }, "geometry": { "type": "Point", "coordinates": [ -114.8953682, 45.4358564 ] } },
{ "type": "Feature", "properties": { "properties.name": "Killum Rapid", "properties.waterway": "rapids", "properties.rapids_class": "II-III", "properties.description": null }, "geometry": { "type": "Point", "coordinates": [ -114.707205570815361, 45.380253827110153 ] } },
{ "type": "Feature", "properties": { "properties.name": "Small Beach Campsite", "properties.waterway": "campsite", "properties.rapids_class": null, "properties.description": "Several sites in the area share the same name" }, "geometry": { "type": "Point", "coordinates": [ -114.724080859492048, 45.397631368520727 ] } },
{ "type": "Feature", "properties": { "properties.name": "Small Beach Campsite", "properties.waterway": "campsite", "properties.rapids_class": null, "properties.description": "Several campsites in the area share the same name" }, "geometry": { "type": "Point", "coordinates": [ -114.725363987042442, 45.396929182858123 ] } },
{ "type": "Feature", "properties": { "properties.name": "Small Beach Campsite", "properties.waterway": "campsite", "properties.rapids_class": null, "properties.description": "Several campsites in the area share the same name" }, "geometry": { "type": "Point", "coordinates": [ -114.720096978352885, 45.396308155767471 ] } },
{ "type": "Feature", "properties": { "properties.name": "Small Beach Campsite", "properties.waterway": "campsite", "properties.rapids_class": null, "properties.description": "Several campsites in the area share the same name" }, "geometry": { "type": "Point", "coordinates": [ -114.716831909484043, 45.395246861577817 ] } },
{ "type": "Feature", "properties": { "properties.name": "Small Beach Campsite", "properties.waterway": "campsite", "properties.rapids_class": null, "properties.description": "Several campsites in the area share the same name" }, "geometry": { "type": "Point", "coordinates": [ -114.720096978352885, 45.396308155767471 ] } },
{ "type": "Feature", "properties": { "properties.name": "Stub Creek Rapid", "properties.waterway": "rapids", "properties.rapids_class": "II", "properties.description": null }, "geometry": { "type": "Point", "coordinates": [ -114.744331699236412, 45.394533807565409 ] } },
{ "type": "Feature", "properties": { "properties.name": "Little Squaw Creek Campsite", "properties.waterway": "campsite", "properties.rapids_class": null, "properties.description": null }, "geometry": { "type": "Point", "coordinates": [ -114.865936329339405, 45.42031364945602 ] } },
{ "type": "Feature", "properties": { "properties.name": "Lantz Rapid", "properties.waterway": "rapids", "properties.rapids_class": "II-III", "properties.description": null }, "geometry": { "type": "Point", "coordinates": [ -114.872932846997784, 45.418085730249764 ] } },
{ "type": "Feature", "properties": { "properties.name": "Disappointment Creek Campsite", "properties.waterway": "campsite", "properties.rapids_class": null, "properties.description": null }, "geometry": { "type": "Point", "coordinates": [ -114.88009521080383, 45.422132277918031 ] } },
{ "type": "Feature", "properties": { "properties.name": "Pictographs", "properties.waterway": "note", "properties.rapids_class": null, "properties.description": null }, "geometry": { "type": "Point", "coordinates": [ -114.897003490256068, 45.436338751802559 ] } },
{ "type": "Feature", "properties": { "properties.name": "Overhang Campsite", "properties.waterway": "campsite", "properties.rapids_class": null, "properties.description": null }, "geometry": { "type": "Point", "coordinates": [ -114.915493599229677, 45.448946756629546 ] } },
{ "type": "Feature", "properties": { "properties.name": "River of No Return Lodge", "properties.waterway": "note", "properties.rapids_class": null, "properties.description": "Fully serviced reservable cabins" }, "geometry": { "type": "Point", "coordinates": [ -114.97601217212565, 45.485897897827684 ] } },
{ "type": "Feature", "properties": { "properties.name": "Lower Corey Bar Campsite", "properties.waterway": "campsite", "properties.rapids_class": null, "properties.description": null }, "geometry": { "type": "Point", "coordinates": [ -114.989240985289754, 45.494731538657575 ] } },
{ "type": "Feature", "properties": { "properties.name": "Artic Creek Lodge", "properties.waterway": "note", "properties.rapids_class": null, "properties.description": "Fully serviced reservable cabins" }, "geometry": { "type": "Point", "coordinates": [ -114.998271046902289, 45.497861605155649 ] } },
{ "type": "Feature", "properties": { "properties.name": "Black Creek Rapid", "properties.waterway": "rapids", "properties.rapids_class": "III-IV", "properties.description": null }, "geometry": { "type": "Point", "coordinates": [ -115.007751315345871, 45.50249387426625 ] } },
{ "type": "Feature", "properties": { "properties.name": "Hot Springs Campsite", "properties.waterway": "campsite", "properties.rapids_class": null, "properties.description": "Barth Hot Springs is here" }, "geometry": { "type": "Point", "coordinates": [ -115.044009612761229, 45.512365034544629 ] } },
{ "type": "Feature", "properties": { "properties.name": "Barth Rapid", "properties.waterway": "rapids", "properties.rapids_class": "II-III", "properties.description": null }, "geometry": { "type": "Point", "coordinates": [ -115.04720268247317, 45.512908223124207 ] } },
{ "type": "Feature", "properties": { "properties.name": "Hancock Rapid", "properties.waterway": "rapids", "properties.rapids_class": "II", "properties.description": null }, "geometry": { "type": "Point", "coordinates": [ -115.091536555503396, 45.520717636944042 ] } },
{ "type": "Feature", "properties": { "properties.name": "Masies Rapid", "properties.waterway": "rapids", "properties.rapids_class": "II", "properties.description": null }, "geometry": { "type": "Point", "coordinates": [ -115.098309826981662, 45.525585088484284 ] } },
{ "type": "Feature", "properties": { "properties.name": "Allison Ranch Rapid", "properties.waterway": "rapids", "properties.rapids_class": "II", "properties.description": null }, "geometry": { "type": "Point", "coordinates": [ -115.216531543230175, 45.569068350816345 ] } },
{ "type": "Feature", "properties": { "properties.name": "Allison Ranch", "properties.waterway": "campsite", "properties.rapids_class": null, "properties.description": null }, "geometry": { "type": "Point", "coordinates": [ -115.219354461652671, 45.568491273146314 ] } },
{ "type": "Feature", "properties": { "properties.name": "Sapp Creek Rapid", "properties.waterway": "rapids", "properties.rapids_class": "III", "properties.description": null }, "geometry": { "type": "Point", "coordinates": [ -115.224484621504303, 45.560446933075752 ] } },
{ "type": "Feature", "properties": { "properties.name": "Stinker Rapid", "properties.waterway": "rapids", "properties.rapids_class": "II", "properties.description": null }, "geometry": { "type": "Point", "coordinates": [ -115.238355636766855, 45.55601574869705 ] } },
{ "type": "Feature", "properties": { "properties.name": "Split Rock Rapid", "properties.waterway": "rapids", "properties.rapids_class": "III", "properties.description": null }, "geometry": { "type": "Point", "coordinates": [ -115.23385807177732, 45.558164045732383 ] } },
{ "type": "Feature", "properties": { "properties.name": "Little Mallard Rapid", "properties.waterway": "rapids", "properties.rapids_class": "II-III-", "properties.description": null }, "geometry": { "type": "Point", "coordinates": [ -115.300253631129436, 45.531404058433743 ] } },
{ "type": "Feature", "properties": { "properties.name": "Elkhorn Stage 2 (Big Rock)", "properties.waterway": "rapids", "properties.rapids_class": "II-IV", "properties.description": null }, "geometry": { "type": "Point", "coordinates": [ -115.322459823168472, 45.511280698906916 ] } },
{ "type": "Feature", "properties": { "properties.name": "Easter Egg", "properties.waterway": "campsite", "properties.rapids_class": null, "properties.description": null }, "geometry": { "type": "Point", "coordinates": [ -115.33782463325835, 45.484510801463649 ] } },
{ "type": "Feature", "properties": { "properties.name": "Jim Moore", "properties.waterway": "campsite", "properties.rapids_class": null, "properties.description": "Reservable" }, "geometry": { "type": "Point", "coordinates": [ -115.342587265968035, 45.484887486631429 ] } },
{ "type": "Feature", "properties": { "properties.name": "Ruff Creek Campsite", "properties.waterway": "campsite", "properties.rapids_class": null, "properties.description": "Reservable" }, "geometry": { "type": "Point", "coordinates": [ -115.346733451767292, 45.483603819347522 ] } },
{ "type": "Feature", "properties": { "properties.name": "Reed Creek Rapid", "properties.waterway": "rapids", "properties.rapids_class": "II", "properties.description": null }, "geometry": { "type": "Point", "coordinates": [ -115.373539017815304, 45.471755218994751 ] } },
{ "type": "Feature", "properties": { "properties.name": "China Bar Rapid", "properties.waterway": "rapids", "properties.rapids_class": "II", "properties.description": null }, "geometry": { "type": "Point", "coordinates": [ -115.386667445307651, 45.476799012898688 ] } },
{ "type": "Feature", "properties": { "properties.name": "Big Blowout Creek Rapid", "properties.waterway": "rapids", "properties.rapids_class": "II", "properties.description": "Reservable" }, "geometry": { "type": "Point", "coordinates": [ -115.425937516988029, 45.458658268795709 ] } },
{ "type": "Feature", "properties": { "properties.name": "Boise Bar Campsite", "properties.waterway": "campsite", "properties.rapids_class": null, "properties.description": null }, "geometry": { "type": "Point", "coordinates": [ -115.441616119543568, 45.445393677031959 ] } },
{ "type": "Feature", "properties": { "properties.name": "Boise Bar Rapid", "properties.waterway": "rapids", "properties.rapids_class": "II", "properties.description": null }, "geometry": { "type": "Point", "coordinates": [ -115.444582833648795, 45.439574471023896 ] } },
{ "type": "Feature", "properties": { "properties.name": "Jackson Bar Rapid", "properties.waterway": "rapids", "properties.rapids_class": "II", "properties.description": null }, "geometry": { "type": "Point", "coordinates": [ -115.481791324518028, 45.396750621318056 ] } },
{ "type": "Feature", "properties": { "properties.name": "Mackay Bar", "properties.waterway": "note", "properties.rapids_class": null, "properties.description": "Fully serviced lodge" }, "geometry": { "type": "Point", "coordinates": [ -115.506748558876893, 45.376095563717847 ] } },
{ "type": "Feature", "properties": { "properties.name": "Warren Creek Rapid", "properties.waterway": "rapids", "properties.rapids_class": "II", "properties.description": null }, "geometry": { "type": "Point", "coordinates": [ -115.59455029628603, 45.397716454931199 ] } },
{ "type": "Feature", "properties": { "properties.name": "Indian Creek Bar", "properties.waterway": "campsite", "properties.rapids_class": null, "properties.description": null }, "geometry": { "type": "Point", "coordinates": [ -115.612373269852029, 45.397454409638868 ] } },
{ "type": "Feature", "properties": { "properties.name": "Whiskey Bob Creek Campsite", "properties.waterway": "campsite", "properties.rapids_class": null, "properties.description": null }, "geometry": { "type": "Point", "coordinates": [ -115.716505173781911, 45.444976068893403 ] } },
{ "type": "Feature", "properties": { "properties.name": "Wind River", "properties.waterway": "campsite", "properties.rapids_class": null, "properties.description": null }, "geometry": { "type": "Point", "coordinates": [ -115.943689316672078, 45.454512874159313 ] } },
{ "type": "Feature", "properties": { "properties.name": null, "properties.waterway": "parking", "properties.rapids_class": null, "properties.description": null }, "geometry": { "type": "Point", "coordinates": [ -114.687321393699719, 45.370193941294524 ] } },
{ "type": "Feature", "properties": { "properties.name": "Corn Creek Campground", "properties.waterway": "campsite", "properties.rapids_class": null, "properties.description": null }, "geometry": { "type": "Point", "coordinates": [ -114.685185336758394, 45.369385066790997 ] } },
{ "type": "Feature", "properties": { "properties.name": null, "properties.waterway": "parking", "properties.rapids_class": null, "properties.description": null }, "geometry": { "type": "Point", "coordinates": [ -114.685185336758394, 45.3702253538966 ] } },
{ "type": "Feature", "properties": { "properties.name": null, "properties.waterway": "parking", "properties.rapids_class": null, "properties.description": null }, "geometry": { "type": "Point", "coordinates": [ -114.687800435881428, 45.370390270057513 ] } }
]
}
