{
"type": "FeatureCollection",
"name": "polyline",
"crs": { "type": "name", "properties": { "name": "urn:ogc:def:crs:OGC:1.3:CRS84" } },
"features": [
{ "type": "Feature", "properties": { "fid": 6592, "id3dhp": "5JE1C", "featuredate": "2023-09-14T00:00:00Z", "mainstemid": "https://geoconnex.us/ref/mainstems/1424874", "gnisid": 400069, "gnisidlabel": "Salmon River", "featuretype": 5, "featuretypelabel": "Waterbody Connector", "lengthkm": 0.154, "waterbodyid3dhp": "OJ3KD", "flowdirection": 1, "flowdirectionlabel": "Flow direction is in digitized direction, and z-values on vertices flow downslope", "onsurface": 1, "onsurfacelabel": "Feature is on the land surface", "catchmentid3dhp": null, "flowpathid3dhp": null, "streamlevel": null, "startflag": null, "terminalflag": null, "streamorder": null, "streamcalculator": null, "hydrosequence": null, "dnhydrosequence": null, "uphydrosequence": null, "dnlevelpath": null, "uplevelpath": null, "pathlength": null, "arbolatesum": null, "divergence": null, "divergencelabel": null, "rtrndivergence": null, "levelpath": null, "terminalpath": null, "workunitid": "NHD", "shape_Length": 153.89453871489772 }, "geometry": { "type": "MultiLineString", "coordinates": [ [ [ -114.687744559489616, 45.369543214734946, 0.0 ], [ -114.687993746933898, 45.369721279956195, 0.0 ], [ -114.688642147165069, 45.369884746275623, 0.0 ], [ -114.68908941343939, 45.369906880616341, 0.0 ], [ -114.689685013839735, 45.369756746389939, 0.0 ], [ -114.690099947112415, 45.369652745880522, 0.0 ], [ -114.691720546913672, 45.369001079935906, 0.0 ], [ -114.692661747104253, 45.368784145868453, 0.0 ], [ -114.693433546911237, 45.368675880134852, 0.0 ], [ -114.694228346353896, 45.368649080025754, 0.0 ], [ -114.694945412983245, 45.368773146174753, 0.0 ], [ -114.695677613078701, 45.369094546068673, 0.0 ], [ -114.697185546670454, 45.370425946290368, 0.0 ], [ -114.697365946994836, 45.370666546176921, 0.0 ], [ -114.697539147005116, 45.370887545866871, 0.0 ], [ -114.698121413985646, 45.371633545913944, 0.0 ], [ -114.698483147124819, 45.372486146388631, 0.0 ], [ -114.698936812919456, 45.373807345958049, 0.0 ], [ -114.699113746995877, 45.375139945740415, 0.0 ], [ -114.699127546681339, 45.376183545877304, 0.0 ], [ -114.699135147225533, 45.376774080369266, 0.0 ], [ -114.699252947073376, 45.376989146092512, 0.0 ], [ -114.699382013558591, 45.377220946009459, 0.0 ], [ -114.699975546705744, 45.377758945843446, 0.0 ], [ -114.700044014263469, 45.377811280483655, 0.0 ], [ -114.700692347116913, 45.378307280219374, 0.0 ], [ -114.701602213132574, 45.378548680184998, 0.0 ], [ -114.702898213590984, 45.378733546216196, 0.0 ], [ -114.704626013278798, 45.378885279995721, 0.0 ], [ -114.705660813445789, 45.379136680294259, 0.0 ], [ -114.706401146613942, 45.379342279941163, 0.0 ], [ -114.706786413517122, 45.379570145861031, 0.0 ], [ -114.707045746810351, 45.379790546124497, 0.0 ], [ -114.707157813825134, 45.379887146204922, 0.0 ], [ -114.707265213668407, 45.380266479969464, 0.0 ], [ -114.707394813728641, 45.380664746308881, 0.0 ], [ -114.707402946172138, 45.380689679905338, 0.0 ], [ -114.707895813891156, 45.382211746196241, 0.0 ], [ -114.708260813892238, 45.383098346103715, 0.0 ], [ -114.708261746065702, 45.383171346441628, 0.0 ], [ -114.708265547009432, 45.383517280316177, 0.0 ], [ -114.708834814161222, 45.385952745937765, 0.0 ], [ -114.709135013126783, 45.386869080722256, 0.0 ], [ -114.709412146255517, 45.387284145968657, 0.0 ], [ -114.709708812978889, 45.387499680264945, 0.0 ], [ -114.709867213131261, 45.387614680352833, 0.0 ], [ -114.710275613496847, 45.387924146235534, 0.0 ], [ -114.710543213056582, 45.388092946126825, 0.0 ], [ -114.711740746752128, 45.388848880441856, 0.0 ], [ -114.712613546648313, 45.389659546638313, 0.0 ], [ -114.713126413127014, 45.39040874650744, 0.0 ], [ -114.71316061324363, 45.390458680318531, 0.0 ], [ -114.713553146987806, 45.391137279749351, 0.0 ], [ -114.713800347028638, 45.391783745771022, 0.0 ], [ -114.713861013763676, 45.391942480368307, 0.0 ], [ -114.714268813650335, 45.392818480599374, 0.0 ], [ -114.714477613779067, 45.393268345972054, 0.0 ], [ -114.715117746779555, 45.394251679771301, 0.0 ], [ -114.715680413953777, 45.394789480492776, 0.0 ], [ -114.715943946179806, 45.395041346743852, 0.0 ], [ -114.717176946851197, 45.395996280624324, 0.0 ], [ -114.718597414099563, 45.396475480035484, 0.0 ], [ -114.720680146951864, 45.396889079847575, 0.0 ], [ -114.722694545965396, 45.397199945932591, 0.0 ], [ -114.723212813763936, 45.397184345898587, 0.0 ], [ -114.723712947205982, 45.397253946441026, 0.0 ], [ -114.724270346838452, 45.397290280521396, 0.0 ], [ -114.72453121388132, 45.397308679841672, 0.0 ], [ -114.725642413480415, 45.39726487982896, 0.0 ], [ -114.727449813032223, 45.396983279878235, 0.0 ], [ -114.729054413772289, 45.39656047999754, 0.0 ], [ -114.730035014025532, 45.396337746169301, 0.0 ], [ -114.730937746798261, 45.395983746353423, 0.0 ], [ -114.731386613504185, 45.39572348010207, 0.0 ], [ -114.731903147097029, 45.395426080390415, 0.0 ], [ -114.732367013920197, 45.395218680585714, 0.0 ], [ -114.732713013506626, 45.395170080629669, 0.0 ], [ -114.732872813029388, 45.395147546255814, 0.0 ], [ -114.733060746883979, 45.395121146008513, 0.0 ], [ -114.73331241357198, 45.395147680641657, 0.0 ], [ -114.733763145890933, 45.395192079934418, 0.0 ], [ -114.734496146894386, 45.395371079893998, 0.0 ], [ -114.734745813278593, 45.39537994587765, 0.0 ], [ -114.734886013689376, 45.395384945879471, 0.0 ], [ -114.734982813900757, 45.395387480419039, 0.0 ], [ -114.735631413294158, 45.395268679889796, 0.0 ], [ -114.737097413209554, 45.394920280394402, 0.0 ], [ -114.738169413126315, 45.394881880013713, 0.0 ], [ -114.739251013133526, 45.394871880041642, 0.0 ], [ -114.741435013192415, 45.394649480572248, 0.0 ], [ -114.74275474673351, 45.394491346430804, 0.0 ], [ -114.743758147024693, 45.394492346327418, 0.0 ], [ -114.74466814651008, 45.394589080199751, 0.0 ], [ -114.745270346111667, 45.394788745932473, 0.0 ], [ -114.745687413855663, 45.394927146459509, 0.0 ], [ -114.746775546389145, 45.395507880264233, 0.0 ], [ -114.747673346518354, 45.395636080139766, 0.0 ], [ -114.748072613645633, 45.395694546422568, 0.0 ], [ -114.749747146302113, 45.395656080157913, 0.0 ], [ -114.75159834672499, 45.395253346603987, 0.0 ], [ -114.753660213257234, 45.394738280314904, 0.0 ], [ -114.754625013821595, 45.39446028048151, 0.0 ], [ -114.755333413343365, 45.394133480603259, 0.0 ], [ -114.755983213057291, 45.393732345989271, 0.0 ], [ -114.756931813089579, 45.393259479859147, 0.0 ], [ -114.757657013794272, 45.393129745995104, 0.0 ], [ -114.758853613361225, 45.392819079824498, 0.0 ], [ -114.759092545964506, 45.392714346242428, 0.0 ], [ -114.759409813060827, 45.3926558804365, 0.0 ], [ -114.760149412987616, 45.392439345897742, 0.0 ], [ -114.761399812853256, 45.392318279884627, 0.0 ], [ -114.763120213918626, 45.392160746559753, 0.0 ], [ -114.764888346305455, 45.391884279916454, 0.0 ], [ -114.766284613724849, 45.391715080658905, 0.0 ], [ -114.766918746655634, 45.391683080314415, 0.0 ], [ -114.767327346068555, 45.391568080153611, 0.0 ], [ -114.767997746308581, 45.391388746124697, 0.0 ], [ -114.769510814056588, 45.391063146380148, 0.0 ], [ -114.770414546051384, 45.390850945972311, 0.0 ], [ -114.770632746418372, 45.39084547992011, 0.0 ], [ -114.771170413063501, 45.390829346095877, 0.0 ], [ -114.771872813623801, 45.390900080031329, 0.0 ], [ -114.77285201291464, 45.390959280002726, 0.0 ], [ -114.774172213599783, 45.390802946009231, 0.0 ], [ -114.774919946709147, 45.39075268050221, 0.0 ], [ -114.775715946028598, 45.390585346059915, 0.0 ], [ -114.776526014190779, 45.390611080323914, 0.0 ], [ -114.777445147227425, 45.390596146345658, 0.0 ], [ -114.77824014703144, 45.390568946155291, 0.0 ], [ -114.779312013470346, 45.390530280096918, 0.0 ], [ -114.781056213515299, 45.39059388010277, 0.0 ], [ -114.782090214058996, 45.390702680003614, 0.0 ], [ -114.783148346415757, 45.390695680353303, 0.0 ], [ -114.783594546621956, 45.390632746321486, 0.0 ], [ -114.784106546327934, 45.390560546636735, 0.0 ], [ -114.784289746931563, 45.390534680427145, 0.0 ], [ -114.785330813662313, 45.390387879907124, 0.0 ], [ -114.785810213639493, 45.390235345774023, 0.0 ], [ -114.786364746762857, 45.39007234627185, 0.0 ], [ -114.787168146593913, 45.389931479954882, 0.0 ], [ -114.788409346432147, 45.389783879798514, 0.0 ], [ -114.789120146255712, 45.389740946128171, 0.0 ], [ -114.790131213371907, 45.389625880032007, 0.0 ], [ -114.790786946601784, 45.389675546670809, 0.0 ], [ -114.791021546491891, 45.389669945914854, 0.0 ], [ -114.791505213701754, 45.389659079822117, 0.0 ], [ -114.792052012871181, 45.389749345967743, 0.0 ], [ -114.792407747010472, 45.389728946007622, 0.0 ], [ -114.792610745990402, 45.389743880147179, 0.0 ], [ -114.793433613897662, 45.389808946319462, 0.0 ], [ -114.795317746092422, 45.390364146065735, 0.0 ], [ -114.796636413204652, 45.390911946027842, 0.0 ], [ -114.797332014082087, 45.391095880524603, 0.0 ], [ -114.798188346783832, 45.391426879802893, 0.0 ], [ -114.799508346011095, 45.392116680151091, 0.0 ], [ -114.800242213144486, 45.39251534608394, 0.0 ], [ -114.801694214113155, 45.393308080061601, 0.0 ], [ -114.802805545970813, 45.393687880158346, 0.0 ], [ -114.802966546819263, 45.393750080078689, 0.0 ], [ -114.803437946984317, 45.393935746354941, 0.0 ], [ -114.803816946993621, 45.393996946176408, 0.0 ], [ -114.804456146336634, 45.394131480541162, 0.0 ], [ -114.804919413391772, 45.394208280201717, 0.0 ], [ -114.805197746256908, 45.394196480585833, 0.0 ], [ -114.806128146062235, 45.394083479941607, 0.0 ], [ -114.806710546458334, 45.394012680459021, 0.0 ], [ -114.807113546208839, 45.393946680007609, 0.0 ], [ -114.807605745962661, 45.393913880335177, 0.0 ], [ -114.80827741329793, 45.393876280063182, 0.0 ], [ -114.808678546574001, 45.393734880365848, 0.0 ], [ -114.809240746444104, 45.393455880112903, 0.0 ], [ -114.810245146943743, 45.393174145983522, 0.0 ], [ -114.811749613705331, 45.392961680097983, 0.0 ], [ -114.812698146582449, 45.392912546124485, 0.0 ], [ -114.813523746567142, 45.393135346098184, 0.0 ], [ -114.815639813016105, 45.393937345847171, 0.0 ], [ -114.816712414255704, 45.394746880503561, 0.0 ], [ -114.817624147242938, 45.395551546410367, 0.0 ], [ -114.818496346427537, 45.39593747996868, 0.0 ], [ -114.818791746645687, 45.396046546197347, 0.0 ], [ -114.819215213717783, 45.396202879931352, 0.0 ], [ -114.819277746619505, 45.396222146007403, 0.0 ], [ -114.819654413220377, 45.39633808027601, 0.0 ], [ -114.819766213130166, 45.396355146604684, 0.0 ], [ -114.820325346631449, 45.396440546138571, 0.0 ], [ -114.820468414104127, 45.3964778806046, 0.0 ], [ -114.82089014618704, 45.39658788004698, 0.0 ], [ -114.820988213652896, 45.396637080131391, 0.0 ], [ -114.821032613888391, 45.396659480237815, 0.0 ], [ -114.821478813324418, 45.396883480435754, 0.0 ], [ -114.822294747154245, 45.397293080400637, 0.0 ], [ -114.823592614087133, 45.397761079888319, 0.0 ], [ -114.825244014087318, 45.398486346347127, 0.0 ], [ -114.82617121370339, 45.398921880027565, 0.0 ], [ -114.82674954617022, 45.399122279986848, 0.0 ], [ -114.826905146282527, 45.399382345985593, 0.0 ], [ -114.827175613462472, 45.399628546055659, 0.0 ], [ -114.829491813181534, 45.40071407997754, 0.0 ], [ -114.830287413854236, 45.401110746454606, 0.0 ], [ -114.830688346842237, 45.401391280534632, 0.0 ], [ -114.831001413474013, 45.401603946180288, 0.0 ], [ -114.831137146442941, 45.401697146107942, 0.0 ], [ -114.832210213088658, 45.402364279897192, 0.0 ], [ -114.832974346852751, 45.402792946432854, 0.0 ], [ -114.833330746825098, 45.403054545844398, 0.0 ], [ -114.833515746660396, 45.403280680571136, 0.0 ], [ -114.833716946166518, 45.403706346445723, 0.0 ], [ -114.833841013133863, 45.40399848040235, 0.0 ], [ -114.834090213766572, 45.404215546443069, 0.0 ], [ -114.83482014705875, 45.404855545759922, 0.0 ], [ -114.834946213460128, 45.405057880341609, 0.0 ], [ -114.836051546340329, 45.406117346512048, 0.0 ], [ -114.837325213185196, 45.407350146538896, 0.0 ], [ -114.838276613987716, 45.408006946152, 0.0 ], [ -114.838801614214745, 45.408299746482363, 0.0 ], [ -114.840029613525047, 45.409229346136073, 0.0 ], [ -114.840724613155487, 45.40969534603807, 0.0 ], [ -114.841196946263665, 45.409940480524455, 0.0 ], [ -114.841846146856852, 45.410279946540406, 0.0 ], [ -114.842669813910817, 45.410711680078535, 0.0 ], [ -114.842896146131892, 45.410831079974905, 0.0 ], [ -114.845120546464301, 45.411872080401047, 0.0 ], [ -114.845900546428609, 45.412213545987321, 0.0 ], [ -114.846191413499213, 45.412376546278786, 0.0 ], [ -114.848240613842748, 45.413522546435793, 0.0 ], [ -114.849491746531271, 45.413967145956043, 0.0 ], [ -114.851269413963806, 45.414846546356976, 0.0 ], [ -114.852898214061398, 45.415210146016015, 0.0 ], [ -114.854682346882001, 45.415267346228006, 0.0 ], [ -114.856457213539485, 45.415298280455907, 0.0 ], [ -114.857552946945162, 45.415432280368599, 0.0 ], [ -114.858496946535425, 45.415548680504827, 0.0 ], [ -114.859314813971892, 45.415742545924573, 0.0 ], [ -114.860165614014505, 45.416188680550945, 0.0 ], [ -114.861819013635142, 45.417590146577055, 0.0 ], [ -114.861943347115997, 45.417774480353664, 0.0 ], [ -114.862854414040498, 45.418436880530145, 0.0 ], [ -114.863679946043007, 45.418856746584261, 0.0 ], [ -114.863983146702836, 45.419011146468137, 0.0 ], [ -114.864592546187367, 45.41931934608801, 0.0 ], [ -114.86502601298038, 45.419427746296584, 0.0 ], [ -114.865503747111873, 45.419417479378033, 0.0 ], [ -114.865828146036634, 45.419286679587621, 0.0 ], [ -114.866037545963394, 45.419181279386741, 0.0 ], [ -114.866916146472661, 45.418738080147563, 0.0 ], [ -114.8680344133288, 45.418295146010678, 0.0 ], [ -114.869239146542839, 45.418012146099223, 0.0 ], [ -114.87021961314764, 45.41778834604866, 0.0 ], [ -114.871044946964361, 45.417728880034737, 0.0 ], [ -114.871894546207997, 45.41774847998375, 0.0 ], [ -114.872534813411463, 45.417884880406419, 0.0 ], [ -114.872897546769934, 45.418030745979287, 0.0 ], [ -114.87310681342754, 45.418192080319237, 0.0 ], [ -114.87320681337988, 45.41826908010394, 0.0 ], [ -114.873400546159729, 45.418431946009171, 0.0 ], [ -114.873524213860975, 45.41853608009464, 0.0 ], [ -114.873697946285546, 45.418582545866322, 0.0 ], [ -114.873871813400854, 45.418629080462168, 0.0 ], [ -114.874358013073291, 45.418785080687627, 0.0 ], [ -114.875556746493146, 45.419746146136696, 0.0 ], [ -114.87740414611045, 45.421009879734711, 0.0 ], [ -114.878725546528756, 45.421698946216353, 0.0 ], [ -114.879689413368851, 45.422351545853097, 0.0 ], [ -114.879970146014855, 45.422541146096499, 0.0 ], [ -114.881987746093444, 45.423555946224063, 0.0 ], [ -114.884228813153868, 45.424793746430012, 0.0 ], [ -114.885210347140614, 45.425416279427807, 0.0 ], [ -114.885774813441884, 45.425845545779062, 0.0 ], [ -114.886123346052202, 45.426220546737099, 0.0 ], [ -114.886471746717746, 45.426595546220938, 0.0 ], [ -114.886967813194829, 45.427486479332728, 0.0 ], [ -114.887277414148599, 45.428289146564723, 0.0 ], [ -114.88732914657966, 45.428976945858658, 0.0 ], [ -114.88748094676977, 45.430999478940862, 0.0 ], [ -114.887406613214324, 45.431127079176193, 0.0 ], [ -114.888205547002514, 45.433218478757858, 0.0 ], [ -114.888972745911687, 45.434070946218007, 0.0 ], [ -114.889815146521698, 45.434770546594336, 0.0 ], [ -114.890209546673447, 45.434884478977963, 0.0 ], [ -114.891043547164969, 45.435133279432726, 0.0 ], [ -114.891793813321456, 45.435226478835197, 0.0 ], [ -114.892813813997108, 45.435703545777471, 0.0 ], [ -114.893144946491816, 45.435835546264904, 0.0 ], [ -114.893192813347937, 45.435854746108973, 0.0 ], [ -114.89422001338194, 45.43626587913873, 0.0 ], [ -114.895618413369959, 45.436521879594068, 0.0 ], [ -114.896197346491363, 45.436579678796221, 0.0 ], [ -114.896784413934824, 45.436666146114376, 0.0 ], [ -114.898099413708636, 45.437046345848366, 0.0 ], [ -114.899605813816692, 45.437679279240314, 0.0 ], [ -114.90008454617832, 45.437950946416393, 0.0 ], [ -114.900619147085109, 45.4385541461168, 0.0 ], [ -114.900695947055368, 45.438674079351955, 0.0 ], [ -114.901199814033092, 45.439460679560121, 0.0 ], [ -114.902005545973978, 45.440025479010608, 0.0 ], [ -114.902343414076498, 45.440374479357942, 0.0 ], [ -114.903088414051396, 45.441142879024312, 0.0 ], [ -114.903969213550425, 45.441697079570659, 0.0 ], [ -114.904310346511068, 45.441903345839243, 0.0 ], [ -114.905229746719883, 45.442591945929372, 0.0 ], [ -114.905715812963521, 45.44287174610362, 0.0 ], [ -114.906530013340358, 45.443341279222892, 0.0 ], [ -114.908418546553548, 45.44432827899152, 0.0 ], [ -114.909730146761689, 45.445014078798714, 0.0 ], [ -114.909925213004044, 45.445234146697608, 0.0 ], [ -114.910466614049625, 45.445581746067269, 0.0 ], [ -114.91093881328068, 45.446108945822772, 0.0 ], [ -114.912802546230992, 45.447145346673771, 0.0 ], [ -114.915176013478543, 45.448419146667085, 0.0 ], [ -114.915613013556268, 45.448561346051605, 0.0 ], [ -114.91681521337064, 45.448950546485868, 0.0 ], [ -114.918128946382694, 45.449046278928677, 0.0 ], [ -114.919233213161178, 45.44897434610197, 0.0 ], [ -114.919827146723904, 45.448805146429955, 0.0 ], [ -114.920969546803676, 45.448303346585533, 0.0 ], [ -114.921494146865939, 45.448148678795164, 0.0 ], [ -114.921895346672585, 45.448029679243206, 0.0 ], [ -114.922736746079764, 45.447882679067348, 0.0 ], [ -114.923463213316552, 45.447891946353685, 0.0 ], [ -114.924363747042534, 45.44805314601745, 0.0 ], [ -114.924521813002286, 45.448081146186247, 0.0 ], [ -114.925255947168594, 45.448401479440541, 0.0 ], [ -114.926246413044197, 45.449194546520545, 0.0 ], [ -114.930884346960823, 45.453312945978631, 0.0 ], [ -114.931340946646188, 45.45378494594506, 0.0 ], [ -114.931697413245061, 45.454328546565925, 0.0 ], [ -114.931749746099825, 45.454681346359216, 0.0 ], [ -114.931784546674891, 45.454910478800407, 0.0 ], [ -114.931841146431395, 45.455948746623498, 0.0 ], [ -114.932082745998784, 45.456648678905864, 0.0 ], [ -114.932431013502878, 45.457163679258102, 0.0 ], [ -114.932933546017267, 45.457516746306815, 0.0 ], [ -114.933616013991113, 45.458071479609778, 0.0 ], [ -114.933881346734609, 45.458455946448147, 0.0 ], [ -114.933895213132189, 45.458623746437638, 0.0 ], [ -114.934483746679092, 45.459276746207458, 0.0 ], [ -114.935358413324238, 45.459801746547093, 0.0 ], [ -114.93649401352728, 45.460122346598496, 0.0 ], [ -114.937747013307359, 45.460283878905436, 0.0 ], [ -114.938543746329643, 45.460218879338377, 0.0 ], [ -114.938649013303774, 45.460210746100913, 0.0 ], [ -114.939638146950045, 45.460015145936069, 0.0 ], [ -114.94039474716925, 45.459992546521015, 0.0 ], [ -114.941291746841273, 45.460174879422489, 0.0 ], [ -114.941996146062678, 45.460526746497308, 0.0 ], [ -114.943389214085116, 45.461459946337307, 0.0 ], [ -114.943993146774062, 45.4621657464441, 0.0 ], [ -114.944389013205111, 45.462846078922901, 0.0 ], [ -114.944531413053625, 45.463082746069148, 0.0 ], [ -114.944685347207766, 45.463338546573638, 0.0 ], [ -114.944854146725632, 45.463619745830677, 0.0 ], [ -114.945390814105423, 45.464511879247461, 0.0 ], [ -114.946489613804346, 45.465402078904788, 0.0 ], [ -114.947317746989171, 45.465906145839547, 0.0 ], [ -114.948253014076769, 45.46608527918108, 0.0 ], [ -114.949544813430506, 45.466381145958309, 0.0 ], [ -114.951808547153718, 45.46656874628615, 0.0 ], [ -114.955810946088079, 45.46679127932137, 0.0 ], [ -114.956584546389394, 45.466963479062912, 0.0 ], [ -114.957226414082953, 45.467239346388375, 0.0 ], [ -114.957485212877302, 45.467367745861303, 0.0 ], [ -114.959052813977422, 45.468140678871748, 0.0 ], [ -114.959718212936238, 45.468498079215522, 0.0 ], [ -114.959872946916519, 45.46875834614174, 0.0 ], [ -114.960185746777185, 45.469562879275827, 0.0 ], [ -114.960217546427373, 45.470235346206806, 0.0 ], [ -114.960350546472, 45.470698279247742, 0.0 ], [ -114.960630546677379, 45.471110546191575, 0.0 ], [ -114.960991213421806, 45.471378146271554, 0.0 ], [ -114.961172546963454, 45.471600279147509, 0.0 ], [ -114.962023747158185, 45.472325879384229, 0.0 ], [ -114.962588746124666, 45.472640279267267, 0.0 ], [ -114.963078013734503, 45.472912546379803, 0.0 ], [ -114.963765413473936, 45.473170479484033, 0.0 ], [ -114.96438381303922, 45.473403746591707, 0.0 ], [ -114.966552545854995, 45.47493327898642, 0.0 ], [ -114.967791613333318, 45.475748279233791, 0.0 ], [ -114.968062346819934, 45.475992078978827, 0.0 ], [ -114.968358212909052, 45.476459345953536, 0.0 ], [ -114.968660012952412, 45.47681114591164, 0.0 ], [ -114.969893414112448, 45.478161679217187, 0.0 ], [ -114.970226946269364, 45.478623679536661, 0.0 ], [ -114.97052414660989, 45.479515346558927, 0.0 ], [ -114.970659146459383, 45.479757746239663, 0.0 ], [ -114.971595747065521, 45.481425946244507, 0.0 ], [ -114.972745013517937, 45.483045479380564, 0.0 ], [ -114.972984613557003, 45.483231679305277, 0.0 ], [ -114.974248613658389, 45.48421754610257, 0.0 ], [ -114.975254213410039, 45.484781279239058, 0.0 ], [ -114.976005213989737, 45.485055346429029, 0.0 ], [ -114.976198613844133, 45.485126479545379, 0.0 ], [ -114.976534814037279, 45.485331079564759, 0.0 ], [ -114.977027213703025, 45.485630478971544, 0.0 ], [ -114.978288412970855, 45.486384946680936, 0.0 ], [ -114.979149813426602, 45.487138946557415, 0.0 ], [ -114.979677413188469, 45.487855679668002, 0.0 ], [ -114.980253413771337, 45.48915974597692, 0.0 ], [ -114.981190013288966, 45.492136079057659, 0.0 ], [ -114.981702346934938, 45.49265754652555, 0.0 ], [ -114.981882213788907, 45.492721478811859, 0.0 ], [ -114.982328746703416, 45.492878146365982, 0.0 ], [ -114.984093613410764, 45.493278679138513, 0.0 ], [ -114.985314013517652, 45.493329746135259, 0.0 ], [ -114.987463213229006, 45.493393279287091, 0.0 ], [ -114.988677346604263, 45.493699945777557, 0.0 ], [ -114.990147746799906, 45.494273146319273, 0.0 ], [ -114.990217414002259, 45.494299946333058, 0.0 ], [ -114.991107814020623, 45.494739945898949, 0.0 ], [ -114.991218346039673, 45.494783879570342, 0.0 ], [ -114.99225314612201, 45.495187279552148, 0.0 ], [ -114.993600813195627, 45.495713679282353, 0.0 ], [ -114.995822746162673, 45.496725946441828, 0.0 ], [ -114.996565612959117, 45.497214546317714, 0.0 ], [ -114.997294346237993, 45.49779007950297, 0.0 ], [ -114.998162413963925, 45.498288345851584, 0.0 ], [ -115.000453413329467, 45.499120878843215, 0.0 ], [ -115.001017345865321, 45.499265478900178, 0.0 ], [ -115.001489146150078, 45.499368079590035, 0.0 ], [ -115.001876413293772, 45.499455146373435, 0.0 ], [ -115.002047146385252, 45.499628146559651, 0.0 ], [ -115.002496746513884, 45.499931345818979, 0.0 ], [ -115.003085013418456, 45.500155079621955, 0.0 ], [ -115.003208346403994, 45.500169546072762, 0.0 ], [ -115.004067013634554, 45.500499346640957, 0.0 ], [ -115.005167413517782, 45.501106746145695, 0.0 ], [ -115.005757014037371, 45.501334879268036, 0.0 ], [ -115.00601201331493, 45.501523479148666, 0.0 ], [ -115.006345746804129, 45.501843079147747, 0.0 ], [ -115.007385013013973, 45.502312346669378, 0.0 ], [ -115.007777546530491, 45.502489879588751, 0.0 ], [ -115.007871146150123, 45.502532279229527, 0.0 ], [ -115.008701946322773, 45.50289947949684, 0.0 ], [ -115.009806813636004, 45.503387745822764, 0.0 ], [ -115.010310013540888, 45.503740679268596, 0.0 ], [ -115.011062013068056, 45.50411314583522, 0.0 ], [ -115.013572813898165, 45.505706078994947, 0.0 ], [ -115.013944146758007, 45.506020346122924, 0.0 ], [ -115.014193413099377, 45.506324478911694, 0.0 ], [ -115.014480346734587, 45.506623278993537, 0.0 ], [ -115.015565013292672, 45.507175479628494, 0.0 ], [ -115.016360414005661, 45.507404079160644, 0.0 ], [ -115.016880545906162, 45.50755474623098, 0.0 ], [ -115.017047213414855, 45.507590679033143, 0.0 ], [ -115.017725413730915, 45.507736479510811, 0.0 ], [ -115.018382146713805, 45.507877746266615, 0.0 ], [ -115.020531147108954, 45.507938479410036, 0.0 ], [ -115.023235413714559, 45.50769494642195, 0.0 ], [ -115.024448746405398, 45.507436946568802, 0.0 ], [ -115.024598545990997, 45.507401746106524, 0.0 ], [ -115.024868346792346, 45.507336146183384, 0.0 ], [ -115.025876545823692, 45.50709087888179, 0.0 ], [ -115.026635213548843, 45.507056079411932, 0.0 ], [ -115.026751213458297, 45.507051079516764, 0.0 ], [ -115.0275160133138, 45.50705434622099, 0.0 ], [ -115.027953346341917, 45.50695647959639, 0.0 ], [ -115.028195145914239, 45.506902346282445, 0.0 ], [ -115.029014746414958, 45.506812946531632, 0.0 ], [ -115.029333746380061, 45.50680414645015, 0.0 ], [ -115.029563213084771, 45.506762146162401, 0.0 ], [ -115.030003946474352, 45.506756679112854, 0.0 ], [ -115.031295412862463, 45.506769746229082, 0.0 ], [ -115.0323157467583, 45.506821546214361, 0.0 ], [ -115.032879413170321, 45.506970546339808, 0.0 ], [ -115.033012213534576, 45.507006746289498, 0.0 ], [ -115.03407354693843, 45.507477278969972, 0.0 ], [ -115.035969946505674, 45.508053479105619, 0.0 ], [ -115.03799101351882, 45.508784079522236, 0.0 ], [ -115.040259213301383, 45.50981674629994, 0.0 ], [ -115.041204946031584, 45.510446079706476, 0.0 ], [ -115.041582546770158, 45.510809878961112, 0.0 ], [ -115.041944413772498, 45.51115907873146, 0.0 ], [ -115.042098546119448, 45.511307746386322, 0.0 ], [ -115.042501013022786, 45.511839346120432, 0.0 ], [ -115.042813746911918, 45.512252346591445, 0.0 ], [ -115.04333301305391, 45.512660146582483, 0.0 ], [ -115.043928213938514, 45.512889678963418, 0.0 ], [ -115.044510546190793, 45.513114079439553, 0.0 ], [ -115.045446146451084, 45.513290346170798, 0.0 ], [ -115.046097213874631, 45.513312079606628, 0.0 ], [ -115.046730412996752, 45.513136746188962, 0.0 ], [ -115.047315213897406, 45.512825146131469, 0.0 ], [ -115.048450613926789, 45.512220346282731, 0.0 ], [ -115.048473213721508, 45.512208346626018, 0.0 ], [ -115.050005613123403, 45.510970279391195, 0.0 ], [ -115.050860146613147, 45.510171078746154, 0.0 ], [ -115.051662613752725, 45.509604146208154, 0.0 ], [ -115.05240234589283, 45.509243679233691, 0.0 ], [ -115.053406746471865, 45.508957879390088, 0.0 ], [ -115.053733546297494, 45.508874479545781, 0.0 ], [ -115.054061613178121, 45.508721946155454, 0.0 ], [ -115.055035213540506, 45.508470345887481, 0.0 ], [ -115.056052147093993, 45.508380079428058, 0.0 ], [ -115.056604347007067, 45.50833107955701, 0.0 ], [ -115.057717413980313, 45.508426746488446, 0.0 ], [ -115.059536013953164, 45.508873746165307, 0.0 ], [ -115.061356546542456, 45.509462879449288, 0.0 ], [ -115.061771546747195, 45.509656078997025, 0.0 ], [ -115.061960146569177, 45.509743878812856, 0.0 ], [ -115.062471213461208, 45.509840678763744, 0.0 ], [ -115.06335974603293, 45.509853678914624, 0.0 ], [ -115.064274346948181, 45.510092478880679, 0.0 ], [ -115.064769547020077, 45.510416479226485, 0.0 ], [ -115.065087146219113, 45.510848478948255, 0.0 ], [ -115.065286613405092, 45.511120678985591, 0.0 ], [ -115.065765812922876, 45.511772946203557, 0.0 ], [ -115.066878545829354, 45.513537479119776, 0.0 ], [ -115.067287212234831, 45.514950479404213, 0.0 ], [ -115.06777401217299, 45.516492279291391, 0.0 ], [ -115.06832074583032, 45.517405746300078, 0.0 ], [ -115.068784547161073, 45.517761879552708, 0.0 ], [ -115.069622412186902, 45.518002878827019, 0.0 ], [ -115.069680146088373, 45.518019479692555, 0.0 ], [ -115.069971812698014, 45.518102878757766, 0.0 ], [ -115.070365345994773, 45.518215278950485, 0.0 ], [ -115.071346612730835, 45.518272346095486, 0.0 ], [ -115.072520746725218, 45.518019478892704, 0.0 ], [ -115.073934746960774, 45.517619879223687, 0.0 ], [ -115.075058212455957, 45.51727087916202, 0.0 ], [ -115.075447212342581, 45.517148679554232, 0.0 ], [ -115.07617934583179, 45.516970478876395, 0.0 ], [ -115.076574412255511, 45.516874946358492, 0.0 ], [ -115.077447346952582, 45.516692679472527, 0.0 ], [ -115.07804334610843, 45.516664746105768, 0.0 ], [ -115.078902945791171, 45.51685394603534, 0.0 ], [ -115.079909146315657, 45.517132479125493, 0.0 ], [ -115.080668412820316, 45.517533346445461, 0.0 ], [ -115.080843946931012, 45.517620746477327, 0.0 ], [ -115.081071345930212, 45.517673146373539, 0.0 ], [ -115.081536012984685, 45.517891346323744, 0.0 ], [ -115.082538546103507, 45.51862474637668, 0.0 ], [ -115.083118546521618, 45.519049146661288, 0.0 ], [ -115.084033412382439, 45.519570146188862, 0.0 ], [ -115.084886745890756, 45.519872746022791, 0.0 ], [ -115.085562011736044, 45.520090546088603, 0.0 ], [ -115.086218212929154, 45.520304278967799, 0.0 ], [ -115.086869146932543, 45.520465945938064, 0.0 ], [ -115.087402012281956, 45.520502146038886, 0.0 ], [ -115.088235746456633, 45.52032534612529, 0.0 ], [ -115.088875212218355, 45.520210879537004, 0.0 ], [ -115.08972694695693, 45.52005687901714, 0.0 ], [ -115.090277346828287, 45.520147946129875, 0.0 ], [ -115.091012745908586, 45.520324946434606, 0.0 ], [ -115.091355811927684, 45.520607479643658, 0.0 ], [ -115.091540146659725, 45.520759146524036, 0.0 ], [ -115.092060946505455, 45.52144674593896, 0.0 ], [ -115.092249412330247, 45.521772679679906, 0.0 ], [ -115.092786946247728, 45.522701879486874, 0.0 ], [ -115.093245746457811, 45.523276679262466, 0.0 ], [ -115.093355212400596, 45.523412478955599, 0.0 ], [ -115.093945146712485, 45.523780279525951, 0.0 ], [ -115.09471854625599, 45.524094278853823, 0.0 ], [ -115.095695746404857, 45.524688946596299, 0.0 ], [ -115.096215146412348, 45.524954346145641, 0.0 ], [ -115.097044945808804, 45.52517527891294, 0.0 ], [ -115.097973012637453, 45.525526746447412, 0.0 ], [ -115.098228546394793, 45.525623479108781, 0.0 ], [ -115.098658412369673, 45.525786079489635, 0.0 ], [ -115.099214412888983, 45.525996345726739, 0.0 ], [ -115.1022812121615, 45.527141146050504, 0.0 ], [ -115.10532781291711, 45.528486278813304, 0.0 ], [ -115.105797012573532, 45.528747346454438, 0.0 ], [ -115.106909812160595, 45.529363879367565, 0.0 ], [ -115.108454211791852, 45.530010479075976, 0.0 ], [ -115.109264345837971, 45.530348946492687, 0.0 ], [ -115.10966154623388, 45.530383878996702, 0.0 ], [ -115.110573812143414, 45.53047807924645, 0.0 ], [ -115.111776746079826, 45.530498546369131, 0.0 ], [ -115.111988612730258, 45.530502679381016, 0.0 ], [ -115.112411346354492, 45.530515479155717, 0.0 ], [ -115.113125346783917, 45.530537146331724, 0.0 ], [ -115.114201412380936, 45.53077327957417, 0.0 ], [ -115.11437234654403, 45.530810745918252, 0.0 ], [ -115.116378946469609, 45.531485079291933, 0.0 ], [ -115.118417346414788, 45.532409679482598, 0.0 ], [ -115.120286146827283, 45.533301146088284, 0.0 ], [ -115.122653411798979, 45.534660746248669, 0.0 ], [ -115.124231411990934, 45.535669679193965, 0.0 ], [ -115.124678346524163, 45.535954546198134, 0.0 ], [ -115.126035946681839, 45.536749478984618, 0.0 ], [ -115.12657101293027, 45.536927546548192, 0.0 ], [ -115.127035412556737, 45.537143346140404, 0.0 ], [ -115.127781212139936, 45.537631079287067, 0.0 ], [ -115.129766412661354, 45.538505746150705, 0.0 ], [ -115.130558346544873, 45.538702145770365, 0.0 ], [ -115.130850612724913, 45.538775078962431, 0.0 ], [ -115.131826546207932, 45.539087346320031, 0.0 ], [ -115.132517346751058, 45.539385479300137, 0.0 ], [ -115.134353211790923, 45.540026746366635, 0.0 ], [ -115.135793747041305, 45.540414679579044, 0.0 ], [ -115.13659014570662, 45.540614946041089, 0.0 ], [ -115.136669145825508, 45.540656478990094, 0.0 ], [ -115.137304812668503, 45.540905079547152, 0.0 ], [ -115.139029746680777, 45.541557545935277, 0.0 ], [ -115.139475346432732, 45.541725545784203, 0.0 ], [ -115.140616211862536, 45.542324146087047, 0.0 ], [ -115.141901746360716, 45.542594278841804, 0.0 ], [ -115.142552346429042, 45.542753479180291, 0.0 ], [ -115.142836813065841, 45.542951346560365, 0.0 ], [ -115.143157013095234, 45.543176346455347, 0.0 ], [ -115.143670546143369, 45.543554946533042, 0.0 ], [ -115.144290812488123, 45.54375067910059, 0.0 ], [ -115.144995145833235, 45.543959546050246, 0.0 ], [ -115.146042211776788, 45.544516479075114, 0.0 ], [ -115.146601146518108, 45.544776078900782, 0.0 ], [ -115.147331212477283, 45.545208478804994, 0.0 ], [ -115.148059811860392, 45.545501146408171, 0.0 ], [ -115.148819812475139, 45.545901746015396, 0.0 ], [ -115.150203146451716, 45.546917746037259, 0.0 ], [ -115.151600946459283, 45.547849079113433, 0.0 ], [ -115.152283612442403, 45.548118479216846, 0.0 ], [ -115.152635546282383, 45.548345746329417, 0.0 ], [ -115.152927612406558, 45.548535679437769, 0.0 ], [ -115.15391414638205, 45.549158678986814, 0.0 ], [ -115.154835012588634, 45.549421346153771, 0.0 ], [ -115.15527601289088, 45.549415478777334, 0.0 ], [ -115.155872212015169, 45.549387279095306, 0.0 ], [ -115.156784946547006, 45.549481145914228, 0.0 ], [ -115.158043612585828, 45.549798679475956, 0.0 ], [ -115.159000945993327, 45.550040079246116, 0.0 ], [ -115.160766411858972, 45.550381146667291, 0.0 ], [ -115.16160261307968, 45.550543479421478, 0.0 ], [ -115.162309212078426, 45.55075427894208, 0.0 ], [ -115.162736213095812, 45.550975279439768, 0.0 ], [ -115.164058013014198, 45.552059746524371, 0.0 ], [ -115.1643120128318, 45.552275878788585, 0.0 ], [ -115.164524612393123, 45.552557679224378, 0.0 ], [ -115.165302346945452, 45.553153145943398, 0.0 ], [ -115.165970212502614, 45.553651879295174, 0.0 ], [ -115.166172812591967, 45.55393274590206, 0.0 ], [ -115.166313746048559, 45.554282279302754, 0.0 ], [ -115.166312746372526, 45.555244478800496, 0.0 ], [ -115.16636981236077, 45.555716146299339, 0.0 ], [ -115.166744345865965, 45.556172146168194, 0.0 ], [ -115.16689941301965, 45.556328946362015, 0.0 ], [ -115.167825812323301, 45.557261346052819, 0.0 ], [ -115.168348346043459, 45.558090946364352, 0.0 ], [ -115.169160212876591, 45.559078879517671, 0.0 ], [ -115.170355811880313, 45.559869145957421, 0.0 ], [ -115.171662945851466, 45.560969546336558, 0.0 ], [ -115.171903746105258, 45.561173746330567, 0.0 ], [ -115.172657946420188, 45.561699146615958, 0.0 ], [ -115.173014946506555, 45.561948679085276, 0.0 ], [ -115.173629212400584, 45.562397679298286, 0.0 ], [ -115.173967145978168, 45.562716546473389, 0.0 ], [ -115.174516011764211, 45.563232346343128, 0.0 ], [ -115.174903946690051, 45.563459079241255, 0.0 ], [ -115.17534641261463, 45.563592946307615, 0.0 ], [ -115.176122811884156, 45.564188679333959, 0.0 ], [ -115.176605212342224, 45.564459146680484, 0.0 ], [ -115.177239745948299, 45.564567746063226, 0.0 ], [ -115.178062545922415, 45.564901879667751, 0.0 ], [ -115.179389945965312, 45.565588278834504, 0.0 ], [ -115.180258011983653, 45.565943346502387, 0.0 ], [ -115.180832746957151, 45.566115679601403, 0.0 ], [ -115.182041411935529, 45.566394279270732, 0.0 ], [ -115.183352812551917, 45.566733879024845, 0.0 ], [ -115.183482811850212, 45.566781746407166, 0.0 ], [ -115.18447481186746, 45.56700654670221, 0.0 ], [ -115.185535946480627, 45.56719374607065, 0.0 ], [ -115.186705412002098, 45.567337879079837, 0.0 ], [ -115.189336212948959, 45.567382079375726, 0.0 ], [ -115.190513545992744, 45.567412479055498, 0.0 ], [ -115.191587946526255, 45.567370479379335, 0.0 ], [ -115.192057012570473, 45.567275479480479, 0.0 ], [ -115.192577212630155, 45.567170745958869, 0.0 ], [ -115.193319012093468, 45.566951479517492, 0.0 ], [ -115.194115945722416, 45.566921745924176, 0.0 ], [ -115.194927346605937, 45.56707607947753, 0.0 ], [ -115.195563612533462, 45.567195746357832, 0.0 ], [ -115.197784746521634, 45.567213745762324, 0.0 ], [ -115.200710146883765, 45.567371479449044, 0.0 ], [ -115.201016212322216, 45.567388079109179, 0.0 ], [ -115.201508812313435, 45.567414946501984, 0.0 ], [ -115.202190346957138, 45.567562146035321, 0.0 ], [ -115.203786545737984, 45.567906945973895, 0.0 ], [ -115.205343545617154, 45.568135145902147, 0.0 ], [ -115.206994012192013, 45.568549745861432, 0.0 ], [ -115.20818101185634, 45.568753279390705, 0.0 ], [ -115.208318946766454, 45.568811479220166, 0.0 ], [ -115.209023611860545, 45.568879946287083, 0.0 ], [ -115.209546812444728, 45.568903345877942, 0.0 ], [ -115.209921212059314, 45.568920679712136, 0.0 ], [ -115.21144061211416, 45.569294346060509, 0.0 ], [ -115.212471012768589, 45.569515679320908, 0.0 ], [ -115.2137799469687, 45.569722146486271, 0.0 ], [ -115.214344745862476, 45.569725879444576, 0.0 ], [ -115.215041146497413, 45.569625545928169, 0.0 ], [ -115.215820412023987, 45.569400746069668, 0.0 ], [ -115.216567612662004, 45.569059146349908, 0.0 ], [ -115.216994212888878, 45.568864278923336, 0.0 ], [ -115.217674946238219, 45.568518346674935, 0.0 ], [ -115.217694411961389, 45.568508479163462, 0.0 ], [ -115.218467012008986, 45.568254745987211, 0.0 ], [ -115.218805212126242, 45.568036079281924, 0.0 ], [ -115.219182612896958, 45.567671678916149, 0.0 ], [ -115.219194746998284, 45.567601079274077, 0.0 ], [ -115.219398212935516, 45.566478546011041, 0.0 ], [ -115.219577546271125, 45.56543534642713, 0.0 ], [ -115.219919812008712, 45.564536279425326, 0.0 ], [ -115.220640212296502, 45.563555146670311, 0.0 ], [ -115.221508146476538, 45.562665346409105, 0.0 ], [ -115.223163546274051, 45.561579346666889, 0.0 ], [ -115.224187346765831, 45.560809479242245, 0.0 ], [ -115.224429212259324, 45.560551746158829, 0.0 ], [ -115.224598612585311, 45.560371279200041, 0.0 ], [ -115.224740745952104, 45.560219879113006, 0.0 ], [ -115.225569347056975, 45.559335679479659, 0.0 ], [ -115.225907746593947, 45.559112346288558, 0.0 ], [ -115.226986412442301, 45.558396546118772, 0.0 ], [ -115.228043946207947, 45.557876679408082, 0.0 ], [ -115.22846494601562, 45.557751679215428, 0.0 ], [ -115.228682545815332, 45.557584746533848, 0.0 ], [ -115.228991412502566, 45.557540279564797, 0.0 ], [ -115.229594546439472, 45.557490079353926, 0.0 ], [ -115.230407746124627, 45.557421078904554, 0.0 ], [ -115.230684413050454, 45.557469679417167, 0.0 ], [ -115.231298145829498, 45.557577479340274, 0.0 ], [ -115.232228813023269, 45.557865879354061, 0.0 ], [ -115.233034746728407, 45.558146946095754, 0.0 ], [ -115.23357801242463, 45.558210946492544, 0.0 ], [ -115.234040612547943, 45.55814427873856, 0.0 ], [ -115.234842146479679, 45.55771634588644, 0.0 ], [ -115.235860345984165, 45.557202079097067, 0.0 ], [ -115.237464012384379, 45.556488479175812, 0.0 ], [ -115.238348346948811, 45.556001746505189, 0.0 ], [ -115.238504345831217, 45.555915879365202, 0.0 ], [ -115.239221345860059, 45.55547254612852, 0.0 ], [ -115.240016346179502, 45.554675879533015, 0.0 ], [ -115.240310946254468, 45.554380679239479, 0.0 ], [ -115.241170946783853, 45.553498678828952, 0.0 ], [ -115.242016612609063, 45.552634879398951, 0.0 ], [ -115.242512946083465, 45.55185594661247, 0.0 ], [ -115.243181412000723, 45.551107278937195, 0.0 ], [ -115.243464812775088, 45.550841279293387, 0.0 ], [ -115.243556346956652, 45.550600746302806, 0.0 ], [ -115.243801412580282, 45.550197945769234, 0.0 ], [ -115.245118146021369, 45.548762479663104, 0.0 ], [ -115.245236412803834, 45.548633546138113, 0.0 ], [ -115.245934812611736, 45.547852946506829, 0.0 ], [ -115.246599211997065, 45.546682279371026, 0.0 ], [ -115.24694841246054, 45.546200146645454, 0.0 ], [ -115.247057811718037, 45.546048879282552, 0.0 ], [ -115.247604945996187, 45.545515546528257, 0.0 ], [ -115.248070146178222, 45.545062146286476, 0.0 ], [ -115.248249346787432, 45.544887078735584, 0.0 ], [ -115.249185945867822, 45.543658679570875, 0.0 ], [ -115.249205611835919, 45.543474479475066, 0.0 ], [ -115.249419811782644, 45.543105879159512, 0.0 ], [ -115.249656412850896, 45.542674478915494, 0.0 ], [ -115.249931411833529, 45.542379879546644, 0.0 ], [ -115.250345346834095, 45.541867678764312, 0.0 ], [ -115.250527611872897, 45.541741679485149, 0.0 ], [ -115.250576412173245, 45.541707946688433, 0.0 ], [ -115.250903012008365, 45.541483546123018, 0.0 ], [ -115.25138461266117, 45.541152679130732, 0.0 ], [ -115.251560612550492, 45.541036479557945, 0.0 ], [ -115.252430945924687, 45.540461879536572, 0.0 ], [ -115.252696412415489, 45.54023307959833, 0.0 ], [ -115.253052146140803, 45.539926679213352, 0.0 ], [ -115.253139745890962, 45.539852078904303, 0.0 ], [ -115.25386261170668, 45.539435345857953, 0.0 ], [ -115.254540812575996, 45.539139879371746, 0.0 ], [ -115.255800745712506, 45.53890054620107, 0.0 ], [ -115.255934146618571, 45.538881279010944, 0.0 ], [ -115.257388612267476, 45.538671278923353, 0.0 ], [ -115.257460746269061, 45.53866087910307, 0.0 ], [ -115.25845014616489, 45.538602879021717, 0.0 ], [ -115.259890412727245, 45.538707279303978, 0.0 ], [ -115.260559612573914, 45.538883879576048, 0.0 ], [ -115.260719412635623, 45.53892734572166, 0.0 ], [ -115.260982546218258, 45.539012278998392, 0.0 ], [ -115.261565346851071, 45.539200146018523, 0.0 ], [ -115.262185812149625, 45.539362946185882, 0.0 ], [ -115.262959746418801, 45.539566079585057, 0.0 ], [ -115.265087812473197, 45.539681146644043, 0.0 ], [ -115.265814412006193, 45.53969107917731, 0.0 ], [ -115.266433612186873, 45.539601545843965, 0.0 ], [ -115.267288546169652, 45.539363279387764, 0.0 ], [ -115.267976012245427, 45.539093946035045, 0.0 ], [ -115.268380611620856, 45.53878027902546, 0.0 ], [ -115.268467411910606, 45.538712879416103, 0.0 ], [ -115.268670411625749, 45.538463078852153, 0.0 ], [ -115.269088611918605, 45.537943345823159, 0.0 ], [ -115.269252812775093, 45.537768078946748, 0.0 ], [ -115.269763546823256, 45.537223345794743, 0.0 ], [ -115.270200546263837, 45.536673345867761, 0.0 ], [ -115.270322346222372, 45.536520278871862, 0.0 ], [ -115.2708205458393, 45.535883278828024, 0.0 ], [ -115.271091946674204, 45.535621278781321, 0.0 ], [ -115.271305146304371, 45.535473346642704, 0.0 ], [ -115.271789612770831, 45.535063346225968, 0.0 ], [ -115.273150412388347, 45.534214479327311, 0.0 ], [ -115.27398354573107, 45.533756479377452, 0.0 ], [ -115.275159812817563, 45.533503879114321, 0.0 ], [ -115.275194746752618, 45.533496345861003, 0.0 ], [ -115.277536812776589, 45.533382879063247, 0.0 ], [ -115.27896481173272, 45.533302079161174, 0.0 ], [ -115.282052545681864, 45.533127279031767, 0.0 ], [ -115.284657745741114, 45.533147746413441, 0.0 ], [ -115.285199612292075, 45.533152079197436, 0.0 ], [ -115.285335612598928, 45.533164546339449, 0.0 ], [ -115.286152145554354, 45.533241679364153, 0.0 ], [ -115.286928144767728, 45.533554279079347, 0.0 ], [ -115.288882945437777, 45.534316546503547, 0.0 ], [ -115.289069745338551, 45.534406545779973, 0.0 ], [ -115.290147812505595, 45.534925945795059, 0.0 ], [ -115.290985145741089, 45.535174545718952, 0.0 ], [ -115.292364212389032, 45.535342479496904, 0.0 ], [ -115.293330612565896, 45.535485145758265, 0.0 ], [ -115.294406945596947, 45.535584345866276, 0.0 ], [ -115.295247011785321, 45.535462746261956, 0.0 ], [ -115.295541345355062, 45.535335279107706, 0.0 ], [ -115.29599374559406, 45.534978078904381, 0.0 ], [ -115.296687345075739, 45.534434345846876, 0.0 ], [ -115.296703212215846, 45.534416146635174, 0.0 ], [ -115.297622011748729, 45.533364346425515, 0.0 ], [ -115.298272745435654, 45.532562746343011, 0.0 ], [ -115.298807345458911, 45.532267479503524, 0.0 ], [ -115.29896594519488, 45.532179945900467, 0.0 ], [ -115.29995094529211, 45.531555079154863, 0.0 ], [ -115.300479345409073, 45.53134534590798, 0.0 ], [ -115.301068945697793, 45.531110679601802, 0.0 ], [ -115.301429612131244, 45.530917479198443, 0.0 ], [ -115.301716144715868, 45.530764078961973, 0.0 ], [ -115.301938745740614, 45.530644879282129, 0.0 ], [ -115.303014012685765, 45.529781745968748, 0.0 ], [ -115.303955212514197, 45.528873746530721, 0.0 ], [ -115.304049211953043, 45.528782078968874, 0.0 ], [ -115.304365344865602, 45.528483679158633, 0.0 ], [ -115.305097945203556, 45.528235146333756, 0.0 ], [ -115.30553094545543, 45.528046145775647, 0.0 ], [ -115.306168145198768, 45.527767879301123, 0.0 ], [ -115.306594611636314, 45.527506278975487, 0.0 ], [ -115.308215344897633, 45.526508946641378, 0.0 ], [ -115.311752811672378, 45.52497914599811, 0.0 ], [ -115.313284145474739, 45.524162479522339, 0.0 ], [ -115.313977211937228, 45.523779545820958, 0.0 ], [ -115.314660145918253, 45.52322814628225, 0.0 ], [ -115.315834212439469, 45.522435546517528, 0.0 ], [ -115.316021412198452, 45.522238479582711, 0.0 ], [ -115.316495744900266, 45.521799946334951, 0.0 ], [ -115.317840412342264, 45.520965079092946, 0.0 ], [ -115.318811745835248, 45.520361879267377, 0.0 ], [ -115.319269612167247, 45.520048946001545, 0.0 ], [ -115.320018745537666, 45.519536946144626, 0.0 ], [ -115.32103474524601, 45.518879879290544, 0.0 ], [ -115.321603412370592, 45.5184850788037, 0.0 ], [ -115.32190941188658, 45.518158146015566, 0.0 ], [ -115.322193012986943, 45.517749546491594, 0.0 ], [ -115.322186812605025, 45.517132679058136, 0.0 ], [ -115.322183412237507, 45.51675874615664, 0.0 ], [ -115.322188612161241, 45.516546079503904, 0.0 ], [ -115.322203745692207, 45.515924346570216, 0.0 ], [ -115.322223545215152, 45.515113079347621, 0.0 ], [ -115.322250745896852, 45.514470546215875, 0.0 ], [ -115.32231381179146, 45.512947879147106, 0.0 ], [ -115.322737212201176, 45.510821679593533, 0.0 ], [ -115.323115545309264, 45.509917078887142, 0.0 ], [ -115.32320121180895, 45.509112279598746, 0.0 ], [ -115.323822745723035, 45.507522345776941, 0.0 ], [ -115.324369745554151, 45.506508279414064, 0.0 ], [ -115.324811012343247, 45.505612879435347, 0.0 ], [ -115.325134012345941, 45.505115879571363, 0.0 ], [ -115.325240412118902, 45.504905278760369, 0.0 ], [ -115.325318345047606, 45.504508079202004, 0.0 ], [ -115.325363612364697, 45.5041225461352, 0.0 ], [ -115.325414411762537, 45.50389474624707, 0.0 ], [ -115.325367812753043, 45.502911546329216, 0.0 ], [ -115.32523421219733, 45.501771079211558, 0.0 ], [ -115.325366212246095, 45.50116854585449, 0.0 ], [ -115.325406012849882, 45.500981345985714, 0.0 ], [ -115.325568545493297, 45.500165478748407, 0.0 ], [ -115.325736145185587, 45.499874746525556, 0.0 ], [ -115.325835945809686, 45.499701746154663, 0.0 ], [ -115.326693812731463, 45.498785079334581, 0.0 ], [ -115.327386212111108, 45.498204546025271, 0.0 ], [ -115.328081811873901, 45.497621346632762, 0.0 ], [ -115.330812945398719, 45.496092946082221, 0.0 ], [ -115.331393412009731, 45.495767679448711, 0.0 ], [ -115.332782745178065, 45.494987279185288, 0.0 ], [ -115.33407274518035, 45.49403534592583, 0.0 ], [ -115.334309545524206, 45.493746079288186, 0.0 ], [ -115.334298144676509, 45.493295278846098, 0.0 ], [ -115.33422814549175, 45.492455678822992, 0.0 ], [ -115.334203612069032, 45.492149146229089, 0.0 ], [ -115.334198345581555, 45.490622546053594, 0.0 ], [ -115.334055945734278, 45.489313479379526, 0.0 ], [ -115.333959412407296, 45.488845145829274, 0.0 ], [ -115.33404594584006, 45.488182679247551, 0.0 ], [ -115.33414401172152, 45.487683546408647, 0.0 ], [ -115.334223411646789, 45.487279546158625, 0.0 ], [ -115.334326612067457, 45.487090746325812, 0.0 ], [ -115.334643012726303, 45.486511279259119, 0.0 ], [ -115.335068745012222, 45.485769678786397, 0.0 ], [ -115.335474211895615, 45.485370946296612, 0.0 ], [ -115.335939545625862, 45.485209278703493, 0.0 ], [ -115.336314344595976, 45.485079078845359, 0.0 ], [ -115.337489345232257, 45.484965946456178, 0.0 ], [ -115.337997744921111, 45.485007079376018, 0.0 ], [ -115.338478145533514, 45.485047545765248, 0.0 ], [ -115.339675545523917, 45.485016146063181, 0.0 ], [ -115.339699545831465, 45.485012679042583, 0.0 ], [ -115.339907212069932, 45.484982546043291, 0.0 ], [ -115.340494411927807, 45.484924879578408, 0.0 ], [ -115.340529945203741, 45.484916079263307, 0.0 ], [ -115.340649612097394, 45.484886279480108, 0.0 ], [ -115.342259945452142, 45.484498678723725, 0.0 ], [ -115.344096945596789, 45.484176879591487, 0.0 ], [ -115.344868945686571, 45.48406474626826, 0.0 ], [ -115.345172812267677, 45.4840711466084, 0.0 ], [ -115.345556745514543, 45.484077345932334, 0.0 ], [ -115.346629745702188, 45.484034146035157, 0.0 ], [ -115.348105412623624, 45.483849745695764, 0.0 ], [ -115.349377612096049, 45.483522546373408, 0.0 ], [ -115.350162344712032, 45.483181278944798, 0.0 ], [ -115.350399011734751, 45.482891946203871, 0.0 ], [ -115.350510812228691, 45.482310679209739, 0.0 ], [ -115.350219745439347, 45.481730546368425, 0.0 ], [ -115.350029545467606, 45.481360878880245, 0.0 ], [ -115.349958345437202, 45.48130207894625, 0.0 ], [ -115.349932545628008, 45.481280745719893, 0.0 ], [ -115.349817012463973, 45.481185679136594, 0.0 ], [ -115.349446145736735, 45.480880545791962, 0.0 ], [ -115.349202945240492, 45.48046347894612, 0.0 ], [ -115.349089812827657, 45.479800079162672, 0.0 ], [ -115.349211545476592, 45.47870754582501, 0.0 ], [ -115.349592012858622, 45.478084946310062, 0.0 ], [ -115.350121612082305, 45.477697946471601, 0.0 ], [ -115.35116941260523, 45.47729087956084, 0.0 ], [ -115.352087012269806, 45.477130079513444, 0.0 ], [ -115.35246134561504, 45.477059545983366, 0.0 ], [ -115.352663945451297, 45.477021279502544, 0.0 ], [ -115.352773745778933, 45.47700047911205, 0.0 ], [ -115.352903744726888, 45.476947679192278, 0.0 ], [ -115.353205545338852, 45.476825145742701, 0.0 ], [ -115.353458345825075, 45.476590946500657, 0.0 ], [ -115.353746811531664, 45.476066678930486, 0.0 ], [ -115.353944145136794, 45.475643079104749, 0.0 ], [ -115.354489212229424, 45.475308879634596, 0.0 ], [ -115.355213211882756, 45.475033746123017, 0.0 ], [ -115.356356612875373, 45.474952679437571, 0.0 ], [ -115.357761611636292, 45.474883945967768, 0.0 ], [ -115.35841781229675, 45.474850678855056, 0.0 ], [ -115.359653145662989, 45.474671146339432, 0.0 ], [ -115.360345211847729, 45.474570546465138, 0.0 ], [ -115.361127012046296, 45.47448674639579, 0.0 ], [ -115.361590412436016, 45.474419479134312, 0.0 ], [ -115.363517411614481, 45.473854546007104, 0.0 ], [ -115.366330012307216, 45.473020879406505, 0.0 ], [ -115.36709414516244, 45.472882145837495, 0.0 ], [ -115.368327811942734, 45.472702879678039, 0.0 ], [ -115.369564012438715, 45.472665479139117, 0.0 ], [ -115.370638412041671, 45.472621746309464, 0.0 ], [ -115.371540745479919, 45.472548079510794, 0.0 ], [ -115.371927412046873, 45.472491746284824, 0.0 ], [ -115.372227412314643, 45.472418278967837, 0.0 ], [ -115.373461945573254, 45.471812279127306, 0.0 ], [ -115.374463011998031, 45.471423746254821, 0.0 ], [ -115.374487212138476, 45.471414479127411, 0.0 ], [ -115.374612811769268, 45.47136394668096, 0.0 ], [ -115.375329945566136, 45.471204546225401, 0.0 ], [ -115.377490345027226, 45.470890345900067, 0.0 ], [ -115.378456612297796, 45.470889879381772, 0.0 ], [ -115.379616411534442, 45.47100367889233, 0.0 ], [ -115.380669812757944, 45.471305146431163, 0.0 ], [ -115.381477345293803, 45.471725146208961, 0.0 ], [ -115.381860545060945, 45.472206879304906, 0.0 ], [ -115.381984411684385, 45.472678079042311, 0.0 ], [ -115.38207834565074, 45.473037146515118, 0.0 ], [ -115.382181745358992, 45.473432545703965, 0.0 ], [ -115.38253501199712, 45.474162879551585, 0.0 ], [ -115.382897945071647, 45.474913146227735, 0.0 ], [ -115.383973812744429, 45.475973945931685, 0.0 ], [ -115.38505641253407, 45.476562946537669, 0.0 ], [ -115.385132545364513, 45.476627678748315, 0.0 ], [ -115.385567612370991, 45.476874346148989, 0.0 ], [ -115.385899945738714, 45.476911078947701, 0.0 ], [ -115.386516811838632, 45.476821279483104, 0.0 ], [ -115.387272145504298, 45.476513878949262, 0.0 ], [ -115.388401145593562, 45.475839546255486, 0.0 ], [ -115.389003412022262, 45.475506146352537, 0.0 ], [ -115.390961345618393, 45.474419546114326, 0.0 ], [ -115.391873744700774, 45.473691879539501, 0.0 ], [ -115.39307794509763, 45.472724146013363, 0.0 ], [ -115.393585012469458, 45.472278278848719, 0.0 ], [ -115.393652212728028, 45.472217946514867, 0.0 ], [ -115.393811944705405, 45.471939679491655, 0.0 ], [ -115.393890944889904, 45.471675546439585, 0.0 ], [ -115.394096145169513, 45.470991079132382, 0.0 ], [ -115.394489345578577, 45.470141345731832, 0.0 ], [ -115.395845412345338, 45.468868946564207, 0.0 ], [ -115.39697381242101, 45.468054679095552, 0.0 ], [ -115.399550144640813, 45.466829679252406, 0.0 ], [ -115.401543412660146, 45.466086879538679, 0.0 ], [ -115.401809945241951, 45.466015879080246, 0.0 ], [ -115.403178745085867, 45.465763679103553, 0.0 ], [ -115.403999945627874, 45.465586546050694, 0.0 ], [ -115.40476701250833, 45.465419746043935, 0.0 ], [ -115.406605145173828, 45.465236879318191, 0.0 ], [ -115.407538012220741, 45.465128546265092, 0.0 ], [ -115.409397144832624, 45.464745079245482, 0.0 ], [ -115.410382611805773, 45.46454407936848, 0.0 ], [ -115.411282412232183, 45.46438994589748, 0.0 ], [ -115.411417345311705, 45.464365679068798, 0.0 ], [ -115.41183881168746, 45.464161879339422, 0.0 ], [ -115.412214212115089, 45.464017545939065, 0.0 ], [ -115.413970745366726, 45.463341279077454, 0.0 ], [ -115.415402412539862, 45.462737479538347, 0.0 ], [ -115.416597144932922, 45.462420879392567, 0.0 ], [ -115.417206012034754, 45.462304546103624, 0.0 ], [ -115.417806545638811, 45.462159546042628, 0.0 ], [ -115.419054544682709, 45.461752546207656, 0.0 ], [ -115.420732345634079, 45.461025546225692, 0.0 ], [ -115.422532745554719, 45.460310479423001, 0.0 ], [ -115.423286145032748, 45.460003078951047, 0.0 ], [ -115.424125544952801, 45.459710678862884, 0.0 ], [ -115.425455745229669, 45.459034346301657, 0.0 ], [ -115.425884545006596, 45.458716878811259, 0.0 ], [ -115.426010212104927, 45.458622679261836, 0.0 ], [ -115.426215212485701, 45.458471078757306, 0.0 ], [ -115.4268308122235, 45.458238878786752, 0.0 ], [ -115.427707211922936, 45.457800879213991, 0.0 ], [ -115.428274745630375, 45.457405746559367, 0.0 ], [ -115.428663945092836, 45.456953879164296, 0.0 ], [ -115.429515745425491, 45.456432279024924, 0.0 ], [ -115.430682611929882, 45.45561194588317, 0.0 ], [ -115.431600144966026, 45.454770546323616, 0.0 ], [ -115.4317834117372, 45.454617546495726, 0.0 ], [ -115.432403211683067, 45.454095279141413, 0.0 ], [ -115.433147611667479, 45.453469746151356, 0.0 ], [ -115.435219145351113, 45.451355146134688, 0.0 ], [ -115.436562412399411, 45.449771746440845, 0.0 ], [ -115.437197012128124, 45.449056678763348, 0.0 ], [ -115.437440612686558, 45.448653546027295, 0.0 ], [ -115.437667812738795, 45.448195479128906, 0.0 ], [ -115.438317144719718, 45.447535678789471, 0.0 ], [ -115.440034945374052, 45.446265078879499, 0.0 ], [ -115.440610612122498, 45.445682546621299, 0.0 ], [ -115.441180545229159, 45.445107745757348, 0.0 ], [ -115.442119412107061, 45.444063346562146, 0.0 ], [ -115.442474345645493, 45.443219145794963, 0.0 ], [ -115.442465212058778, 45.442230479550815, 0.0 ], [ -115.442425611701339, 45.44209614581407, 0.0 ], [ -115.442496812486965, 45.44151834590572, 0.0 ], [ -115.44274761229839, 45.441134946156509, 0.0 ], [ -115.442884612234479, 45.440924278702632, 0.0 ], [ -115.44338674521552, 45.440313479596426, 0.0 ], [ -115.443514611744547, 45.440193746328077, 0.0 ], [ -115.443922144882364, 45.439810345843121, 0.0 ], [ -115.444567812177468, 45.439581345900848, 0.0 ], [ -115.444869144595017, 45.439474546380232, 0.0 ], [ -115.446023744945265, 45.439023346461809, 0.0 ], [ -115.446316212300076, 45.43880447951453, 0.0 ], [ -115.447011745200001, 45.438284145847184, 0.0 ], [ -115.448325745398108, 45.437554746024361, 0.0 ], [ -115.451103945437879, 45.4366113465436, 0.0 ], [ -115.451939344716337, 45.43634494622458, 0.0 ], [ -115.453010745650857, 45.436003279420575, 0.0 ], [ -115.454227211551171, 45.435615278942926, 0.0 ], [ -115.455880611959245, 45.434808679379913, 0.0 ], [ -115.456800745197313, 45.434249278817369, 0.0 ], [ -115.457313145354021, 45.433806879222594, 0.0 ], [ -115.457633144732924, 45.433392546232255, 0.0 ], [ -115.457927945512736, 45.432754545822895, 0.0 ], [ -115.459161811719682, 45.431074278836846, 0.0 ], [ -115.460027612444549, 45.429645346399191, 0.0 ], [ -115.461052412181445, 45.428080546404871, 0.0 ], [ -115.461474611897984, 45.427465279088885, 0.0 ], [ -115.461609945306563, 45.427376546074314, 0.0 ], [ -115.461875744981981, 45.427055278945609, 0.0 ], [ -115.462262145385097, 45.426318879179668, 0.0 ], [ -115.462724744867415, 45.42475127907462, 0.0 ], [ -115.462915411666714, 45.423760946068832, 0.0 ], [ -115.462930544866012, 45.42299387918338, 0.0 ], [ -115.462595144887089, 45.421995479273399, 0.0 ], [ -115.462286611899714, 45.420540746480121, 0.0 ], [ -115.462423145353142, 45.419643346113119, 0.0 ], [ -115.462885611801852, 45.418755680353541, 0.0 ], [ -115.463457145638998, 45.41810474637375, 0.0 ], [ -115.46369194500835, 45.417925746586214, 0.0 ], [ -115.463900612117541, 45.417766679971251, 0.0 ], [ -115.464183745722849, 45.41754834602925, 0.0 ], [ -115.464296611867738, 45.417462146594076, 0.0 ], [ -115.465195544709459, 45.416775679941217, 0.0 ], [ -115.466140945064879, 45.416297480078875, 0.0 ], [ -115.467257012167664, 45.415994080365671, 0.0 ], [ -115.467986612251906, 45.415602545877661, 0.0 ], [ -115.468338944711235, 45.415298346462308, 0.0 ], [ -115.468503345788406, 45.414904546155071, 0.0 ], [ -115.468426145623582, 45.414095880235337, 0.0 ], [ -115.468435145448581, 45.413584546478639, 0.0 ], [ -115.468801212068584, 45.413050946345884, 0.0 ], [ -115.469465544722084, 45.412443880055378, 0.0 ], [ -115.469578945245587, 45.412385946366037, 0.0 ], [ -115.470794945230551, 45.411769346507178, 0.0 ], [ -115.472553812450968, 45.411057279980881, 0.0 ], [ -115.4735165457394, 45.410776280451579, 0.0 ], [ -115.474403212368912, 45.410646546407641, 0.0 ], [ -115.47532954528684, 45.410651146107696, 0.0 ], [ -115.476325212113224, 45.410620280227889, 0.0 ], [ -115.476825611956031, 45.410547080239709, 0.0 ], [ -115.47758481209884, 45.410123545989251, 0.0 ], [ -115.478447344841754, 45.409232479838252, 0.0 ], [ -115.478754612111942, 45.408709679827332, 0.0 ], [ -115.478902211750082, 45.408458346322206, 0.0 ], [ -115.479026944768023, 45.407819945846697, 0.0 ], [ -115.479026344722925, 45.407790145907001, 0.0 ], [ -115.479029544851485, 45.407392345972617, 0.0 ], [ -115.478938612147942, 45.40599074614591, 0.0 ], [ -115.478647811536703, 45.404873346120702, 0.0 ], [ -115.478004344772543, 45.403920146197386, 0.0 ], [ -115.477518344726576, 45.403086280163372, 0.0 ], [ -115.477175611753381, 45.402201679936226, 0.0 ], [ -115.477075412355404, 45.401453745714846, 0.0 ], [ -115.477027345334065, 45.400610946408626, 0.0 ], [ -115.477360811613522, 45.399967146204666, 0.0 ], [ -115.479029744813772, 45.398675546408214, 0.0 ], [ -115.480731012131045, 45.397493946129266, 0.0 ], [ -115.481587345690826, 45.396858679913173, 0.0 ], [ -115.481628812043994, 45.396839279857531, 0.0 ], [ -115.482824011459883, 45.39628027979569, 0.0 ], [ -115.48300921272039, 45.396209545930688, 0.0 ], [ -115.484269344705368, 45.395728746480252, 0.0 ], [ -115.48519874455728, 45.395374480134805, 0.0 ], [ -115.485713011957372, 45.395177346131803, 0.0 ], [ -115.486744345532784, 45.3948586805326, 0.0 ], [ -115.487737944985867, 45.394683280374231, 0.0 ], [ -115.489566745542049, 45.394612945768152, 0.0 ], [ -115.490469411717982, 45.394538145922382, 0.0 ], [ -115.491014411778025, 45.394345879911086, 0.0 ], [ -115.491481544704129, 45.394022479806843, 0.0 ], [ -115.491551344820436, 45.393943280515636, 0.0 ], [ -115.492083812676057, 45.393339279758344, 0.0 ], [ -115.492324145501314, 45.392802546378881, 0.0 ], [ -115.492761811911606, 45.391825079976655, 0.0 ], [ -115.49309661287937, 45.391346480460768, 0.0 ], [ -115.493708012675825, 45.390473679954908, 0.0 ], [ -115.493866945019477, 45.390172479829296, 0.0 ], [ -115.49449214491041, 45.389164346371615, 0.0 ], [ -115.494937744934248, 45.388536345960652, 0.0 ], [ -115.495303745621371, 45.388069346385294, 0.0 ], [ -115.496564412812376, 45.386938280286202, 0.0 ], [ -115.499822144774313, 45.384745079913415, 0.0 ], [ -115.501137011736631, 45.384079145941996, 0.0 ], [ -115.502076611982588, 45.383704880272688, 0.0 ], [ -115.502585012217665, 45.383719945724394, 0.0 ], [ -115.503381545160124, 45.383805279778606, 0.0 ], [ -115.503625744430607, 45.383831479941726, 0.0 ], [ -115.504286612123437, 45.383794346295332, 0.0 ], [ -115.504471345643537, 45.383790280164781, 0.0 ], [ -115.504786545158126, 45.383780746262431, 0.0 ], [ -115.505284812541106, 45.383618145910262, 0.0 ], [ -115.505699745072803, 45.383173745954871, 0.0 ], [ -115.506078212465994, 45.382468146018141, 0.0 ], [ -115.506561211569277, 45.380268145854174, 0.0 ], [ -115.507319612048846, 45.378144880319574, 0.0 ], [ -115.50736921258499, 45.377457680245612, 0.0 ], [ -115.507449411907302, 45.376736146457752, 0.0 ], [ -115.507749212362782, 45.376189145853125, 0.0 ], [ -115.508093812014067, 45.375931945821293, 0.0 ], [ -115.508944612411753, 45.375687745824955, 0.0 ], [ -115.509790144748166, 45.375563745937278, 0.0 ], [ -115.51050841160918, 45.375577745806865, 0.0 ], [ -115.510735411498842, 45.375634080195532, 0.0 ], [ -115.511034744916117, 45.37579694605617, 0.0 ], [ -115.511286412011614, 45.375936880341996, 0.0 ], [ -115.511402545638461, 45.376186280305852, 0.0 ], [ -115.511379812373121, 45.376396346493991, 0.0 ], [ -115.511309612322094, 45.376583479776748, 0.0 ], [ -115.511264812253032, 45.376856480496684, 0.0 ], [ -115.511331812235838, 45.377083279969462, 0.0 ], [ -115.51149554522668, 45.377355545859103, 0.0 ], [ -115.511877145408178, 45.377653345780381, 0.0 ], [ -115.512252411545489, 45.377924479944689, 0.0 ], [ -115.51277974529863, 45.37829034619741, 0.0 ], [ -115.513486412255105, 45.378689745869224, 0.0 ], [ -115.514832011909746, 45.380118679964681, 0.0 ], [ -115.516089812468039, 45.380820746251395, 0.0 ], [ -115.517166145417178, 45.381195746046508, 0.0 ], [ -115.518261011775394, 45.381627746471274, 0.0 ], [ -115.520751945104124, 45.382385480214261, 0.0 ], [ -115.522395345450974, 45.382973546187401, 0.0 ], [ -115.524928544747681, 45.383725079892884, 0.0 ], [ -115.527485611883037, 45.384562546192697, 0.0 ], [ -115.531039211736342, 45.385074680613819, 0.0 ], [ -115.532526344457381, 45.385272080018929, 0.0 ], [ -115.533403612426014, 45.385260480122405, 0.0 ], [ -115.534798212194247, 45.385145280369933, 0.0 ], [ -115.535080212478732, 45.385161279703667, 0.0 ], [ -115.537145612361456, 45.385273746545451, 0.0 ], [ -115.540113145175809, 45.385221546468784, 0.0 ], [ -115.541152012291107, 45.385188345830571, 0.0 ], [ -115.541752545493978, 45.385079546368999, 0.0 ], [ -115.543230544698375, 45.38497034664973, 0.0 ], [ -115.546205544631874, 45.384949080406727, 0.0 ], [ -115.547914745689368, 45.384904746495621, 0.0 ], [ -115.549566212299865, 45.384809080476217, 0.0 ], [ -115.550694212558, 45.384790280005447, 0.0 ], [ -115.55184914440936, 45.384857145778682, 0.0 ], [ -115.552171344587549, 45.384876480488607, 0.0 ], [ -115.552574544891598, 45.384899880586268, 0.0 ], [ -115.553630144754152, 45.384774545808973, 0.0 ], [ -115.55481574459985, 45.384807079851498, 0.0 ], [ -115.556114344856368, 45.384940079711079, 0.0 ], [ -115.558448145539998, 45.385159879757254, 0.0 ], [ -115.560978012167638, 45.385617145682552, 0.0 ], [ -115.561788545652021, 45.385941345919441, 0.0 ], [ -115.562787745827322, 45.386621480403832, 0.0 ], [ -115.565006544573592, 45.387448346558628, 0.0 ], [ -115.566710745469436, 45.388233746057999, 0.0 ], [ -115.568045145298569, 45.388630279978315, 0.0 ], [ -115.568226545060384, 45.388713745702191, 0.0 ], [ -115.568628611798218, 45.388898146610359, 0.0 ], [ -115.569156012211025, 45.389367346260656, 0.0 ], [ -115.56924094515783, 45.389400745663231, 0.0 ], [ -115.569993945487852, 45.389673680350484, 0.0 ], [ -115.571664545598438, 45.390493880182163, 0.0 ], [ -115.573607745226354, 45.391094745902016, 0.0 ], [ -115.575232944964995, 45.39147594580178, 0.0 ], [ -115.578246411874346, 45.392571746513404, 0.0 ], [ -115.581529744845398, 45.393301546453976, 0.0 ], [ -115.581770211987703, 45.393397080370875, 0.0 ], [ -115.583102012479927, 45.393927079959262, 0.0 ], [ -115.584100412796062, 45.394460080353475, 0.0 ], [ -115.5848553448497, 45.394881946016852, 0.0 ], [ -115.585195545084602, 45.395038680483736, 0.0 ], [ -115.585760944563589, 45.39510247992721, 0.0 ], [ -115.585849945231701, 45.395102079955123, 0.0 ], [ -115.586340944839023, 45.395099746134548, 0.0 ], [ -115.587196545670537, 45.395097480403841, 0.0 ], [ -115.589664544734518, 45.395090679737443, 0.0 ], [ -115.590740212196593, 45.395318146233897, 0.0 ], [ -115.591720545007988, 45.395647145945276, 0.0 ], [ -115.592134744730117, 45.395910079916632, 0.0 ], [ -115.59261801156326, 45.396548745992988, 0.0 ], [ -115.593059544477654, 45.39704667977017, 0.0 ], [ -115.593394011488314, 45.397321346230555, 0.0 ], [ -115.593427345208823, 45.3973508798422, 0.0 ], [ -115.593702544980474, 45.397420680523403, 0.0 ], [ -115.593827612159686, 45.397457345952006, 0.0 ], [ -115.59444794469735, 45.397638346512913, 0.0 ], [ -115.594570744447367, 45.397674146048644, 0.0 ], [ -115.595431012524728, 45.397901280077107, 0.0 ], [ -115.595963344665819, 45.397919345980966, 0.0 ], [ -115.596399812607288, 45.39793314599892, 0.0 ], [ -115.596421345303256, 45.397930080184132, 0.0 ], [ -115.596798345603617, 45.39787448044197, 0.0 ], [ -115.597285545565342, 45.397685546347226, 0.0 ], [ -115.598635212339289, 45.396753880027653, 0.0 ], [ -115.600064011681042, 45.39580814604448, 0.0 ], [ -115.601009012166315, 45.39520028032922, 0.0 ], [ -115.601748812025718, 45.394884480089395, 0.0 ], [ -115.602108345725753, 45.394831546474848, 0.0 ], [ -115.602605144955518, 45.394818080306642, 0.0 ], [ -115.603286212608964, 45.394864746418769, 0.0 ], [ -115.60384701170689, 45.394929146561914, 0.0 ], [ -115.604881945309728, 45.395040880415294, 0.0 ], [ -115.605764945189179, 45.395349546391309, 0.0 ], [ -115.606628011531001, 45.395723280479231, 0.0 ], [ -115.6077857456049, 45.396110945974684, 0.0 ], [ -115.609816812288287, 45.396631746432234, 0.0 ], [ -115.610690744497134, 45.396767146336188, 0.0 ], [ -115.611539812477233, 45.396818946520661, 0.0 ], [ -115.612326011591435, 45.396928279797976, 0.0 ], [ -115.612976145411722, 45.397018480313967, 0.0 ], [ -115.614038411529734, 45.397507480231063, 0.0 ], [ -115.615249412561809, 45.398211280489761, 0.0 ], [ -115.617106945291781, 45.399552546235121, 0.0 ], [ -115.618025812159104, 45.400678479815667, 0.0 ], [ -115.618409811690157, 45.401267480111144, 0.0 ], [ -115.618932545284764, 45.402042745788926, 0.0 ], [ -115.619701612587392, 45.402664546202416, 0.0 ], [ -115.62151694530472, 45.403676679737622, 0.0 ], [ -115.621578612407021, 45.403752545665881, 0.0 ], [ -115.622192744400024, 45.404034279944888, 0.0 ], [ -115.623521145368102, 45.404424280369561, 0.0 ], [ -115.625195545195993, 45.404710345669571, 0.0 ], [ -115.625924812329217, 45.404869280379948, 0.0 ], [ -115.626568212647783, 45.405254546144548, 0.0 ], [ -115.627258945741303, 45.40579374623767, 0.0 ], [ -115.627777612782836, 45.406516880424313, 0.0 ], [ -115.627837944955957, 45.406719346182705, 0.0 ], [ -115.627916411516722, 45.407240880040547, 0.0 ], [ -115.628096612053099, 45.407588746515543, 0.0 ], [ -115.628429545297763, 45.407777279994228, 0.0 ], [ -115.628820811590629, 45.407998880588138, 0.0 ], [ -115.628860145628082, 45.408021279949445, 0.0 ], [ -115.629736012148271, 45.408518745877529, 0.0 ], [ -115.630030212516246, 45.408668345965147, 0.0 ], [ -115.630716011792856, 45.40901527990048, 0.0 ], [ -115.631803144504801, 45.409865880092873, 0.0 ], [ -115.633690411402426, 45.411880480043983, 0.0 ], [ -115.63477661195985, 45.412733546026644, 0.0 ], [ -115.636030011834137, 45.414147880566041, 0.0 ], [ -115.636223612082134, 45.414266346164588, 0.0 ], [ -115.636364144544103, 45.414376546312482, 0.0 ], [ -115.636598745696759, 45.414539546272756, 0.0 ], [ -115.636804411442625, 45.41464934594071, 0.0 ], [ -115.637065011854418, 45.414762545929008, 0.0 ], [ -115.637434412415132, 45.414884945837244, 0.0 ], [ -115.637934944590199, 45.415091480494851, 0.0 ], [ -115.638302145505051, 45.415338279998551, 0.0 ], [ -115.638676411599619, 45.415526546597853, 0.0 ], [ -115.638801344529156, 45.4155839458302, 0.0 ], [ -115.640145745680357, 45.416525280143652, 0.0 ], [ -115.641485211796706, 45.417713146545722, 0.0 ], [ -115.64185461240811, 45.418191679750073, 0.0 ], [ -115.642543412257169, 45.418728880500574, 0.0 ], [ -115.643410012143974, 45.419347679549738, 0.0 ], [ -115.644869945449287, 45.420099146403928, 0.0 ], [ -115.645019745081271, 45.42017627944243, 0.0 ], [ -115.645313811454457, 45.420341146258188, 0.0 ], [ -115.647202745585645, 45.421400479279249, 0.0 ], [ -115.648656211914968, 45.422465745845891, 0.0 ], [ -115.649579011519222, 45.423021145840522, 0.0 ], [ -115.649918345577916, 45.423398478807293, 0.0 ], [ -115.650200811821179, 45.423837078724446, 0.0 ], [ -115.650437411463329, 45.424121546298302, 0.0 ], [ -115.651005012072787, 45.424251478954616, 0.0 ], [ -115.651482212226597, 45.424674945992109, 0.0 ], [ -115.65198821174215, 45.425124145874925, 0.0 ], [ -115.652241212303409, 45.42534874601391, 0.0 ], [ -115.653603012046645, 45.426105945848001, 0.0 ], [ -115.654644145581287, 45.426641546456509, 0.0 ], [ -115.65478921173704, 45.426783279340505, 0.0 ], [ -115.655771345236744, 45.427279346451868, 0.0 ], [ -115.656649012041854, 45.42768287925071, 0.0 ], [ -115.657174811572929, 45.42792467877225, 0.0 ], [ -115.657659611632965, 45.428280478989706, 0.0 ], [ -115.659529745320015, 45.428962479160198, 0.0 ], [ -115.66050761173527, 45.429192545929112, 0.0 ], [ -115.661048611512243, 45.4294849460113, 0.0 ], [ -115.661430611887567, 45.429747879421157, 0.0 ], [ -115.664059812321554, 45.430692279366987, 0.0 ], [ -115.665139812269445, 45.431012946172089, 0.0 ], [ -115.665785211608082, 45.431397945988884, 0.0 ], [ -115.666026144820549, 45.431948345803143, 0.0 ], [ -115.666442944682458, 45.433148346487094, 0.0 ], [ -115.666555011970885, 45.43346954634432, 0.0 ], [ -115.667116145384099, 45.434080679374873, 0.0 ], [ -115.668009012158322, 45.43453474636803, 0.0 ], [ -115.668634544619437, 45.434600879250205, 0.0 ], [ -115.669562212505966, 45.434410946436081, 0.0 ], [ -115.670316012019939, 45.434140946497486, 0.0 ], [ -115.670649012308218, 45.434091745742414, 0.0 ], [ -115.670968011483268, 45.434044546332885, 0.0 ], [ -115.671972945689603, 45.43410747938151, 0.0 ], [ -115.674858744413328, 45.434641546209868, 0.0 ], [ -115.678308945485099, 45.435036879091939, 0.0 ], [ -115.680673145634287, 45.43559507902556, 0.0 ], [ -115.681374744715725, 45.43591647874338, 0.0 ], [ -115.682179811935399, 45.43614674608898, 0.0 ], [ -115.685186345038531, 45.437007478822935, 0.0 ], [ -115.686620611664168, 45.437753679551193, 0.0 ], [ -115.687853411318557, 45.438584745810445, 0.0 ], [ -115.688837945297124, 45.439344678637582, 0.0 ], [ -115.689533944488062, 45.440149479389191, 0.0 ], [ -115.690193011916961, 45.440585146241773, 0.0 ], [ -115.692109812545482, 45.441420746060672, 0.0 ], [ -115.694583612681399, 45.442601479133828, 0.0 ], [ -115.695622345125471, 45.443033878877543, 0.0 ], [ -115.697004411668445, 45.443095879476161, 0.0 ], [ -115.69821234528257, 45.443078078900207, 0.0 ], [ -115.699083344590846, 45.442949146418613, 0.0 ], [ -115.699352812698422, 45.442971279436925, 0.0 ], [ -115.700712944679282, 45.443080278941743, 0.0 ], [ -115.701923744668534, 45.443328546632607, 0.0 ], [ -115.703061812123948, 45.443585278706223, 0.0 ], [ -115.704718012003497, 45.44355374602825, 0.0 ], [ -115.705662544898374, 45.443413946451159, 0.0 ], [ -115.705759944716775, 45.443406479258861, 0.0 ], [ -115.706608345037054, 45.443540546196971, 0.0 ], [ -115.707349012399945, 45.44348374643004, 0.0 ], [ -115.70755561255514, 45.443666879416575, 0.0 ], [ -115.707979612510229, 45.443817879047998, 0.0 ], [ -115.708720345314347, 45.443761078860256, 0.0 ], [ -115.709984411293959, 45.44367954583317, 0.0 ], [ -115.711164811484025, 45.443826546002114, 0.0 ], [ -115.712027345432773, 45.444176879141324, 0.0 ], [ -115.7142530105384, 45.444274679415635, 0.0 ], [ -115.716349945503453, 45.444444478815768, 0.0 ], [ -115.717588145316554, 45.444527678979014, 0.0 ], [ -115.718529611557301, 45.444792678967822, 0.0 ], [ -115.71882921063272, 45.444876945742045, 0.0 ], [ -115.720268144327022, 45.444877545794121, 0.0 ], [ -115.722283544572122, 45.444523746065016, 0.0 ], [ -115.723559545469158, 45.444116346423399, 0.0 ], [ -115.724151345337603, 45.443927546047107, 0.0 ], [ -115.725942744823371, 45.443075946601795, 0.0 ], [ -115.726534544843148, 45.44293074639647, 0.0 ], [ -115.727565010882472, 45.442674679410146, 0.0 ], [ -115.728814544843772, 45.44254454650649, 0.0 ], [ -115.729575145277181, 45.442617478923594, 0.0 ], [ -115.729889410557831, 45.442647479071603, 0.0 ], [ -115.729907345646794, 45.442649279328862, 0.0 ], [ -115.731659545075416, 45.443189346376165, 0.0 ], [ -115.733194410941081, 45.443761546255054, 0.0 ], [ -115.735658010543744, 45.444141078866608, 0.0 ], [ -115.737318745436511, 45.444375146171062, 0.0 ], [ -115.738064011129154, 45.444584146333526, 0.0 ], [ -115.738808344613801, 45.444795545884816, 0.0 ], [ -115.739674010799803, 45.444863678812361, 0.0 ], [ -115.739739945270173, 45.44486887878714, 0.0 ], [ -115.739934610693496, 45.444853746273331, 0.0 ], [ -115.739989144648433, 45.444849278811454, 0.0 ], [ -115.740553145389796, 45.44480334572691, 0.0 ], [ -115.741324544626067, 45.444767078788558, 0.0 ], [ -115.742645010797929, 45.444704546008047, 0.0 ], [ -115.743924810463596, 45.444675546431007, 0.0 ], [ -115.746002144559185, 45.444528346313653, 0.0 ], [ -115.748354411154281, 45.444285078805024, 0.0 ], [ -115.75001221057201, 45.44425287949278, 0.0 ], [ -115.750961610770773, 45.444289346453175, 0.0 ], [ -115.752004745504365, 45.444329479044079, 0.0 ], [ -115.75246481048994, 45.444431345942832, 0.0 ], [ -115.752791611344946, 45.444426478892396, 0.0 ], [ -115.753723810736943, 45.444501879562843, 0.0 ], [ -115.754410810837797, 45.444772279490429, 0.0 ], [ -115.755237210396416, 45.445502346285117, 0.0 ], [ -115.756657945042505, 45.446199479242232, 0.0 ], [ -115.757971210255548, 45.446537745845824, 0.0 ], [ -115.759114211082533, 45.44705994643941, 0.0 ], [ -115.759804945290455, 45.447598746310121, 0.0 ], [ -115.760061811367265, 45.448199545636086, 0.0 ], [ -115.760087344682958, 45.44843714627585, 0.0 ], [ -115.760146010556028, 45.448986945910057, 0.0 ], [ -115.760738410286564, 45.449698945842172, 0.0 ], [ -115.762201810752344, 45.450281679316511, 0.0 ], [ -115.764245611171006, 45.450976678715463, 0.0 ], [ -115.7650253452085, 45.451241746332435, 0.0 ], [ -115.765914010666364, 45.451544079619424, 0.0 ], [ -115.766977811061849, 45.45183427898499, 0.0 ], [ -115.767538744521801, 45.451987746491717, 0.0 ], [ -115.768061544995646, 45.452130746215772, 0.0 ], [ -115.768163411214616, 45.452197345892472, 0.0 ], [ -115.769193211312967, 45.452870678875691, 0.0 ], [ -115.771982610922208, 45.454589546426121, 0.0 ], [ -115.772053345469942, 45.454652079066008, 0.0 ], [ -115.772442210397188, 45.454996279041715, 0.0 ], [ -115.773323811029215, 45.455776479453554, 0.0 ], [ -115.77512421058654, 45.457481279143259, 0.0 ], [ -115.776402611420366, 45.458371746189968, 0.0 ], [ -115.778093544453526, 45.459548079086545, 0.0 ], [ -115.779736211372736, 45.460476346342432, 0.0 ], [ -115.780481810485838, 45.460685079138081, 0.0 ], [ -115.781156944963115, 45.461170946407428, 0.0 ], [ -115.782758810564175, 45.462213279103068, 0.0 ], [ -115.783211345201124, 45.46238747868469, 0.0 ], [ -115.783358945564913, 45.462443679313246, 0.0 ], [ -115.784089345058035, 45.462601745964271, 0.0 ], [ -115.784200344804532, 45.462688745877742, 0.0 ], [ -115.784486344956093, 45.462917478901538, 0.0 ], [ -115.784899410688752, 45.463281346053243, 0.0 ], [ -115.785748011435757, 45.46358274625026, 0.0 ], [ -115.787917744374255, 45.463740745851709, 0.0 ], [ -115.789014010971144, 45.464111145666827, 0.0 ], [ -115.790199144667099, 45.46452114571521, 0.0 ], [ -115.791223610668311, 45.464902146456716, 0.0 ], [ -115.793866411312422, 45.465628746185139, 0.0 ], [ -115.794299345135343, 45.465808078777705, 0.0 ], [ -115.794512945468526, 45.466013146042933, 0.0 ], [ -115.795511745370561, 45.466558879470597, 0.0 ], [ -115.79596654527208, 45.466810746026468, 0.0 ], [ -115.79660821120325, 45.466929145878971, 0.0 ], [ -115.797364344395149, 45.466922479348881, 0.0 ], [ -115.797934144509014, 45.46705154624577, 0.0 ], [ -115.798314411165109, 45.467213346218699, 0.0 ], [ -115.799237544996856, 45.467604879027903, 0.0 ], [ -115.80046361089353, 45.467900678868155, 0.0 ], [ -115.801757545136539, 45.467921946300969, 0.0 ], [ -115.803546145304523, 45.467816878862521, 0.0 ], [ -115.807067544621006, 45.467932079383978, 0.0 ], [ -115.808249145645178, 45.468128679454182, 0.0 ], [ -115.808424544997465, 45.468157746315569, 0.0 ], [ -115.809310811129365, 45.468078746450722, 0.0 ], [ -115.810816545289484, 45.467728279011098, 0.0 ], [ -115.811224144965664, 45.46763307882302, 0.0 ], [ -115.812484411021117, 45.46728687922861, 0.0 ], [ -115.812766611311886, 45.467231079339612, 0.0 ], [ -115.813557610785338, 45.467074278965228, 0.0 ], [ -115.81487394485687, 45.466664546216478, 0.0 ], [ -115.816497810992431, 45.466261878770432, 0.0 ], [ -115.817980210316037, 45.466149279035847, 0.0 ], [ -115.820847811084178, 45.466361479060836, 0.0 ], [ -115.822753944743255, 45.466397146600706, 0.0 ], [ -115.823698544978981, 45.466256478684457, 0.0 ], [ -115.825119344786032, 45.465939146443716, 0.0 ], [ -115.826179944730612, 45.465939878749033, 0.0 ], [ -115.826298411160778, 45.465958946329749, 0.0 ], [ -115.829287345291164, 45.466437946275548, 0.0 ], [ -115.831513945146838, 45.466533946372415, 0.0 ], [ -115.831925545097661, 45.466555346232752, 0.0 ], [ -115.832284010702949, 45.466574346578739, 0.0 ], [ -115.833097810548082, 45.466617478902563, 0.0 ], [ -115.833363345085061, 45.466630878654442, 0.0 ], [ -115.833397344866952, 45.466625745758847, 0.0 ], [ -115.83503194447654, 45.466382146126527, 0.0 ], [ -115.837021610756238, 45.466000679297331, 0.0 ], [ -115.837509944323187, 45.465799145776153, 0.0 ], [ -115.840156211288317, 45.464765545888888, 0.0 ], [ -115.841801210443919, 45.46393407926098, 0.0 ], [ -115.843928411405003, 45.463320346505917, 0.0 ], [ -115.844102545416078, 45.463269145593742, 0.0 ], [ -115.845129945089155, 45.462904479363374, 0.0 ], [ -115.84616001098243, 45.46280374565648, 0.0 ], [ -115.848004345335582, 45.462634546111794, 0.0 ], [ -115.849674411373613, 45.462385479080645, 0.0 ], [ -115.850295944368639, 45.462187078857369, 0.0 ], [ -115.850577611046631, 45.462127145870092, 0.0 ], [ -115.851271944843063, 45.461979546324663, 0.0 ], [ -115.851745544511829, 45.46187887903244, 0.0 ], [ -115.852006745097611, 45.461823879519294, 0.0 ], [ -115.855722210331734, 45.461324746240358, 0.0 ], [ -115.85718854529307, 45.461158946453601, 0.0 ], [ -115.858033345416942, 45.461191545857105, 0.0 ], [ -115.85874701115813, 45.461298879275091, 0.0 ], [ -115.859924010820023, 45.461176146522803, 0.0 ], [ -115.860150611437206, 45.461114746085116, 0.0 ], [ -115.86125581109971, 45.460818746104842, 0.0 ], [ -115.862583410465874, 45.460192945750627, 0.0 ], [ -115.862966545408383, 45.460135878692469, 0.0 ], [ -115.863671744613811, 45.46003054627004, 0.0 ], [ -115.864532411504086, 45.460115946473358, 0.0 ], [ -115.866330810594121, 45.459794679149965, 0.0 ], [ -115.867925745320079, 45.459556545884055, 0.0 ], [ -115.871760210637461, 45.459197945907405, 0.0 ], [ -115.874940544416475, 45.458934679384605, 0.0 ], [ -115.876723811169953, 45.459077545703806, 0.0 ], [ -115.877018945210409, 45.459162279084552, 0.0 ], [ -115.877630545437, 45.45936987887778, 0.0 ], [ -115.878181545227804, 45.459549679421201, 0.0 ], [ -115.878646544785255, 45.459742345992289, 0.0 ], [ -115.878988011395663, 45.459877545788189, 0.0 ], [ -115.879374410652318, 45.459983078694535, 0.0 ], [ -115.87983734523624, 45.460049678694602, 0.0 ], [ -115.880096010494469, 45.460056946501318, 0.0 ], [ -115.880535211450777, 45.460071878955901, 0.0 ], [ -115.880659545136382, 45.460067078846819, 0.0 ], [ -115.88083254507282, 45.460082546343195, 0.0 ], [ -115.881329745083775, 45.460008345983731, 0.0 ], [ -115.88189454489158, 45.459871079074247, 0.0 ], [ -115.883173944512706, 45.459838545967052, 0.0 ], [ -115.884510745158124, 45.45974694586986, 0.0 ], [ -115.886438544895768, 45.459350878911977, 0.0 ], [ -115.88807621102282, 45.459000345970459, 0.0 ], [ -115.888290410769457, 45.45898367869156, 0.0 ], [ -115.888816944233199, 45.458942545857973, 0.0 ], [ -115.889308810938317, 45.459073946254207, 0.0 ], [ -115.889865545280514, 45.459222746336827, 0.0 ], [ -115.889972010669851, 45.459250545799961, 0.0 ], [ -115.891436745434845, 45.459831746240589, 0.0 ], [ -115.892865811310259, 45.46004587920762, 0.0 ], [ -115.894490811343786, 45.460005346374963, 0.0 ], [ -115.895425345361161, 45.459982879230054, 0.0 ], [ -115.896544011266272, 45.459921478613509, 0.0 ], [ -115.898238345404977, 45.459509479163003, 0.0 ], [ -115.899455945101309, 45.459272279302439, 0.0 ], [ -115.900204145191566, 45.459358146335447, 0.0 ], [ -115.900869745487171, 45.459435679077671, 0.0 ], [ -115.901801010770114, 45.459397546521224, 0.0 ], [ -115.902424945098929, 45.45925594564148, 0.0 ], [ -115.90291721026594, 45.45915474602446, 0.0 ], [ -115.903094544563359, 45.459117078843612, 0.0 ], [ -115.903353344382595, 45.45906194614841, 0.0 ], [ -115.903623744850805, 45.459037546388174, 0.0 ], [ -115.904274410632937, 45.458979345752738, 0.0 ], [ -115.904476811150275, 45.458982146133913, 0.0 ], [ -115.9048799448599, 45.458987678963645, 0.0 ], [ -115.905151745175772, 45.459043679129522, 0.0 ], [ -115.905429945104046, 45.459066346043016, 0.0 ], [ -115.905692611250913, 45.459086879511496, 0.0 ], [ -115.908334744953834, 45.458799746218581, 0.0 ], [ -115.909961544247395, 45.458662146058316, 0.0 ], [ -115.911532410328192, 45.458588146355453, 0.0 ], [ -115.911996744416484, 45.458518679440367, 0.0 ], [ -115.91260641097081, 45.458427478807735, 0.0 ], [ -115.912837810280621, 45.458392745766361, 0.0 ], [ -115.913665745026847, 45.45837467897821, 0.0 ], [ -115.91526714443377, 45.458401746471921, 0.0 ], [ -115.917136144479912, 45.458816546424529, 0.0 ], [ -115.918824745374408, 45.458883479158125, 0.0 ], [ -115.921999345532996, 45.459422346373664, 0.0 ], [ -115.922660810399734, 45.459534878829281, 0.0 ], [ -115.92540074530848, 45.459819145711698, 0.0 ], [ -115.926476410647084, 45.459809878713941, 0.0 ], [ -115.926753343879255, 45.459779879458054, 0.0 ], [ -115.927010343251993, 45.459775878835956, 0.0 ], [ -115.927605744039354, 45.459799479462824, 0.0 ], [ -115.927746811025784, 45.459817346436452, 0.0 ], [ -115.928029611560987, 45.459855546438533, 0.0 ], [ -115.928294143606024, 45.45987114616802, 0.0 ], [ -115.930778211335507, 45.459547479391595, 0.0 ], [ -115.933079143625505, 45.458883146453367, 0.0 ], [ -115.935057943542319, 45.458159079454461, 0.0 ], [ -115.936348011008178, 45.457912879441196, 0.0 ], [ -115.937408610461688, 45.457705079162011, 0.0 ], [ -115.937494210831829, 45.457688279396621, 0.0 ], [ -115.937795743481502, 45.457599479119473, 0.0 ], [ -115.938235610809301, 45.457469946329745, 0.0 ], [ -115.938607543503238, 45.457360546442075, 0.0 ], [ -115.940743810721756, 45.456401145925376, 0.0 ], [ -115.941299411327236, 45.455731545757367, 0.0 ], [ -115.942017210355431, 45.454842079277817, 0.0 ], [ -115.942180944301626, 45.454638145881255, 0.0 ], [ -115.94255514341873, 45.45436827947281, 0.0 ], [ -115.943959811367122, 45.453999078841015, 0.0 ], [ -115.945249144448439, 45.453750679185958, 0.0 ], [ -115.945650586015972, 45.453747448546714, 0.0 ] ] ] } }
]
}
