{
  "type": "FeatureCollection",
  "features": [
    {
      "type": "Feature",
      "properties": {
        "name": "Sand Wash Boat Ramp",
        "kind": "boat_ramp",
        "category": "access",
        "distance_from_putin_mi": 0.0,
        "river_mi": 0.0,
        "source": "curated"
      },
      "geometry": {
        "type": "Point",
        "coordinates": [
          -109.913538,
          39.840531
        ]
      }
    },
    {
      "type": "Feature",
      "properties": {
        "name": "Sand Wash Recreation Area",
        "kind": "camp",
        "category": "camp",
        "distance_from_putin_mi": 0.0,
        "river_mi": 0.0,
        "source": "curated"
      },
      "geometry": {
        "type": "Point",
        "coordinates": [
          -109.915088,
          39.839755
        ]
      }
    },
    {
      "type": "Feature",
      "properties": {
        "name": "Parking",
        "kind": "parking",
        "category": "parking",
        "distance_from_putin_mi": 0.0,
        "river_mi": 0.0,
        "source": "curated"
      },
      "geometry": {
        "type": "Point",
        "coordinates": [
          -109.914351,
          39.839435
        ]
      }
    },
    {
      "type": "Feature",
      "properties": {
        "name": "Unnamed Camp",
        "kind": "camp",
        "category": "camp",
        "distance_from_putin_mi": 8.22,
        "river_mi": 8.22,
        "source": "curated"
      },
      "geometry": {
        "type": "Point",
        "coordinates": [
          -109.897008,
          39.790534
        ]
      }
    },
    {
      "type": "Feature",
      "properties": {
        "name": "Tabyago Riffle",
        "kind": "rapid",
        "category": "rapid",
        "grade": "II",
        "distance_from_putin_mi": 8.96,
        "river_mi": 8.96,
        "source": "curated"
      },
      "geometry": {
        "type": "Point",
        "coordinates": [
          -109.909522,
          39.78511
        ]
      }
    },
    {
      "type": "Feature",
      "properties": {
        "name": "Gold Hole 1",
        "kind": "camp",
        "category": "camp",
        "distance_from_putin_mi": 13.61,
        "river_mi": 13.61,
        "source": "curated"
      },
      "geometry": {
        "type": "Point",
        "coordinates": [
          -109.927826,
          39.761497
        ]
      }
    },
    {
      "type": "Feature",
      "properties": {
        "name": "Gold Hole 2",
        "kind": "camp",
        "category": "camp",
        "distance_from_putin_mi": 13.87,
        "river_mi": 13.87,
        "source": "curated"
      },
      "geometry": {
        "type": "Point",
        "coordinates": [
          -109.928425,
          39.757936
        ]
      }
    },
    {
      "type": "Feature",
      "properties": {
        "name": "Lower Gold Hole",
        "kind": "camp",
        "category": "camp",
        "distance_from_putin_mi": 14.58,
        "river_mi": 14.58,
        "source": "curated"
      },
      "geometry": {
        "type": "Point",
        "coordinates": [
          -109.93162,
          39.74935
        ]
      }
    },
    {
      "type": "Feature",
      "properties": {
        "name": "Rock House",
        "kind": "camp",
        "category": "camp",
        "distance_from_putin_mi": 15.47,
        "river_mi": 15.47,
        "source": "curated"
      },
      "geometry": {
        "type": "Point",
        "coordinates": [
          -109.946497,
          39.749167
        ]
      }
    },
    {
      "type": "Feature",
      "properties": {
        "name": "Rock House Rapid",
        "kind": "rapid",
        "category": "rapid",
        "grade": "II",
        "distance_from_putin_mi": 15.51,
        "river_mi": 15.51,
        "source": "curated"
      },
      "geometry": {
        "type": "Point",
        "coordinates": [
          -109.945398,
          39.748102
        ]
      }
    },
    {
      "type": "Feature",
      "properties": {
        "name": "Little Rock House Riffle",
        "kind": "rapid",
        "category": "rapid",
        "grade": "II",
        "distance_from_putin_mi": 16.36,
        "river_mi": 16.36,
        "source": "curated"
      },
      "geometry": {
        "type": "Point",
        "coordinates": [
          -109.95094,
          39.737044
        ]
      }
    },
    {
      "type": "Feature",
      "properties": {
        "name": "Stampede Flat",
        "kind": "camp",
        "category": "camp",
        "distance_from_putin_mi": 17.56,
        "river_mi": 17.56,
        "source": "curated"
      },
      "geometry": {
        "type": "Point",
        "coordinates": [
          -109.949642,
          39.722242
        ]
      }
    },
    {
      "type": "Feature",
      "properties": {
        "name": "Fossil 1",
        "kind": "camp",
        "category": "camp",
        "distance_from_putin_mi": 18.69,
        "river_mi": 18.69,
        "source": "curated"
      },
      "geometry": {
        "type": "Point",
        "coordinates": [
          -109.960757,
          39.727967
        ]
      }
    },
    {
      "type": "Feature",
      "properties": {
        "name": "Fossil 2",
        "kind": "camp",
        "category": "camp",
        "distance_from_putin_mi": 18.95,
        "river_mi": 18.95,
        "source": "curated"
      },
      "geometry": {
        "type": "Point",
        "coordinates": [
          -109.960092,
          39.731361
        ]
      }
    },
    {
      "type": "Feature",
      "properties": {
        "name": "Fossil 3",
        "kind": "camp",
        "category": "camp",
        "distance_from_putin_mi": 19.18,
        "river_mi": 19.18,
        "source": "curated"
      },
      "geometry": {
        "type": "Point",
        "coordinates": [
          -109.959227,
          39.734956
        ]
      }
    },
    {
      "type": "Feature",
      "properties": {
        "name": "Jack Creek Rapid",
        "kind": "rapid",
        "category": "rapid",
        "grade": "II-III",
        "distance_from_putin_mi": 25.57,
        "river_mi": 25.57,
        "source": "curated"
      },
      "geometry": {
        "type": "Point",
        "coordinates": [
          -109.992926,
          39.698576
        ]
      }
    },
    {
      "type": "Feature",
      "properties": {
        "name": "Jack Creek 1",
        "kind": "camp",
        "category": "camp",
        "distance_from_putin_mi": 25.62,
        "river_mi": 25.62,
        "source": "curated"
      },
      "geometry": {
        "type": "Point",
        "coordinates": [
          -109.994271,
          39.697914
        ]
      }
    },
    {
      "type": "Feature",
      "properties": {
        "name": "Jack Creek 2",
        "kind": "camp",
        "category": "camp",
        "distance_from_putin_mi": 25.81,
        "river_mi": 25.81,
        "source": "curated"
      },
      "geometry": {
        "type": "Point",
        "coordinates": [
          -109.994937,
          39.695285
        ]
      }
    },
    {
      "type": "Feature",
      "properties": {
        "name": "Petroglyphs",
        "kind": "note",
        "category": "note",
        "distance_from_putin_mi": 26.57,
        "river_mi": 26.57,
        "source": "curated"
      },
      "geometry": {
        "type": "Point",
        "coordinates": [
          -110.008449,
          39.690335
        ]
      }
    },
    {
      "type": "Feature",
      "properties": {
        "name": "Mushroom Rock",
        "kind": "camp",
        "category": "camp",
        "distance_from_putin_mi": 26.64,
        "river_mi": 26.64,
        "source": "curated"
      },
      "geometry": {
        "type": "Point",
        "coordinates": [
          -110.005487,
          39.688163
        ]
      }
    },
    {
      "type": "Feature",
      "properties": {
        "name": "Big Canyon Rapid",
        "kind": "rapid",
        "category": "rapid",
        "grade": "II",
        "distance_from_putin_mi": 28.45,
        "river_mi": 28.45,
        "source": "curated"
      },
      "geometry": {
        "type": "Point",
        "coordinates": [
          -109.987093,
          39.676909
        ]
      }
    },
    {
      "type": "Feature",
      "properties": {
        "name": "Firewater Rapid",
        "kind": "rapid",
        "category": "rapid",
        "grade": "II",
        "distance_from_putin_mi": 29.47,
        "river_mi": 29.47,
        "source": "curated"
      },
      "geometry": {
        "type": "Point",
        "coordinates": [
          -109.985385,
          39.66267
        ]
      }
    },
    {
      "type": "Feature",
      "properties": {
        "name": "Upper Cedar Ridge",
        "kind": "camp",
        "category": "camp",
        "distance_from_putin_mi": 29.72,
        "river_mi": 29.72,
        "source": "curated"
      },
      "geometry": {
        "type": "Point",
        "coordinates": [
          -109.988547,
          39.659292
        ]
      }
    },
    {
      "type": "Feature",
      "properties": {
        "name": "Cedar Ridge 1",
        "kind": "camp",
        "category": "camp",
        "distance_from_putin_mi": 29.86,
        "river_mi": 29.86,
        "source": "curated"
      },
      "geometry": {
        "type": "Point",
        "coordinates": [
          -109.988081,
          39.658077
        ]
      }
    },
    {
      "type": "Feature",
      "properties": {
        "name": "Cedar Ridge 2",
        "kind": "camp",
        "category": "camp",
        "distance_from_putin_mi": 30.03,
        "river_mi": 30.03,
        "source": "curated"
      },
      "geometry": {
        "type": "Point",
        "coordinates": [
          -109.988563,
          39.655881
        ]
      }
    },
    {
      "type": "Feature",
      "properties": {
        "name": "Cedar Ridge 3",
        "kind": "camp",
        "category": "camp",
        "distance_from_putin_mi": 30.15,
        "river_mi": 30.15,
        "source": "curated"
      },
      "geometry": {
        "type": "Point",
        "coordinates": [
          -109.989961,
          39.655065
        ]
      }
    },
    {
      "type": "Feature",
      "properties": {
        "name": "Cedar Ridge Rapid",
        "kind": "rapid",
        "category": "rapid",
        "grade": "II",
        "distance_from_putin_mi": 30.24,
        "river_mi": 30.24,
        "source": "curated"
      },
      "geometry": {
        "type": "Point",
        "coordinates": [
          -109.990704,
          39.653298
        ]
      }
    },
    {
      "type": "Feature",
      "properties": {
        "name": "Petroglyphs",
        "kind": "note",
        "category": "note",
        "distance_from_putin_mi": 32.19,
        "river_mi": 32.19,
        "source": "curated"
      },
      "geometry": {
        "type": "Point",
        "coordinates": [
          -110.013208,
          39.6382
        ]
      }
    },
    {
      "type": "Feature",
      "properties": {
        "name": "Flat Canyon Rapid",
        "kind": "rapid",
        "category": "rapid",
        "grade": "II",
        "distance_from_putin_mi": 32.52,
        "river_mi": 32.52,
        "source": "curated"
      },
      "geometry": {
        "type": "Point",
        "coordinates": [
          -110.007167,
          39.63533
        ]
      }
    },
    {
      "type": "Feature",
      "properties": {
        "name": "Flat Canyon",
        "kind": "camp",
        "category": "camp",
        "distance_from_putin_mi": 32.59,
        "river_mi": 32.59,
        "source": "curated"
      },
      "geometry": {
        "type": "Point",
        "coordinates": [
          -110.006735,
          39.633866
        ]
      }
    },
    {
      "type": "Feature",
      "properties": {
        "name": "Dripping Springs Rapid",
        "kind": "rapid",
        "category": "rapid",
        "grade": "II",
        "distance_from_putin_mi": 33.48,
        "river_mi": 33.48,
        "source": "curated"
      },
      "geometry": {
        "type": "Point",
        "coordinates": [
          -109.998531,
          39.625587
        ]
      }
    },
    {
      "type": "Feature",
      "properties": {
        "name": "Dripping Springs",
        "kind": "camp",
        "category": "camp",
        "distance_from_putin_mi": 33.71,
        "river_mi": 33.71,
        "source": "curated"
      },
      "geometry": {
        "type": "Point",
        "coordinates": [
          -110.002774,
          39.625887
        ]
      }
    },
    {
      "type": "Feature",
      "properties": {
        "name": "Unnamed Camp",
        "kind": "camp",
        "category": "camp",
        "distance_from_putin_mi": 34.43,
        "river_mi": 34.43,
        "source": "curated"
      },
      "geometry": {
        "type": "Point",
        "coordinates": [
          -110.013175,
          39.621311
        ]
      }
    },
    {
      "type": "Feature",
      "properties": {
        "name": "Unnamed Rapid",
        "kind": "rapid",
        "category": "rapid",
        "grade": "II",
        "distance_from_putin_mi": 35.58,
        "river_mi": 35.58,
        "source": "curated"
      },
      "geometry": {
        "type": "Point",
        "coordinates": [
          -110.020763,
          39.60774
        ]
      }
    },
    {
      "type": "Feature",
      "properties": {
        "name": "Fretwater Falls",
        "kind": "rapid",
        "category": "rapid",
        "grade": "II-III",
        "distance_from_putin_mi": 35.91,
        "river_mi": 35.91,
        "source": "curated"
      },
      "geometry": {
        "type": "Point",
        "coordinates": [
          -110.02469,
          39.604545
        ]
      }
    },
    {
      "type": "Feature",
      "properties": {
        "name": "Fretwater",
        "kind": "camp",
        "category": "camp",
        "distance_from_putin_mi": 36.11,
        "river_mi": 36.11,
        "source": "curated"
      },
      "geometry": {
        "type": "Point",
        "coordinates": [
          -110.027286,
          39.602815
        ]
      }
    },
    {
      "type": "Feature",
      "properties": {
        "name": "Unnamed Rapid",
        "kind": "rapid",
        "category": "rapid",
        "grade": "II",
        "distance_from_putin_mi": 36.28,
        "river_mi": 36.28,
        "source": "curated"
      },
      "geometry": {
        "type": "Point",
        "coordinates": [
          -110.029116,
          39.600452
        ]
      }
    },
    {
      "type": "Feature",
      "properties": {
        "name": "Wild Horse Rapid",
        "kind": "rapid",
        "category": "rapid",
        "grade": "II",
        "distance_from_putin_mi": 36.94,
        "river_mi": 36.94,
        "source": "curated"
      },
      "geometry": {
        "type": "Point",
        "coordinates": [
          -110.025982,
          39.591909
        ]
      }
    },
    {
      "type": "Feature",
      "properties": {
        "name": "Lower Wild Horse Rapid",
        "kind": "rapid",
        "category": "rapid",
        "grade": "II-III",
        "distance_from_putin_mi": 37.63,
        "river_mi": 37.63,
        "source": "curated"
      },
      "geometry": {
        "type": "Point",
        "coordinates": [
          -110.019182,
          39.584569
        ]
      }
    },
    {
      "type": "Feature",
      "properties": {
        "name": "Unnamed Rapid",
        "kind": "rapid",
        "category": "rapid",
        "grade": "II-III",
        "distance_from_putin_mi": 37.94,
        "river_mi": 37.94,
        "source": "curated"
      },
      "geometry": {
        "type": "Point",
        "coordinates": [
          -110.022177,
          39.580741
        ]
      }
    },
    {
      "type": "Feature",
      "properties": {
        "name": "Steer Ridge Rapid",
        "kind": "rapid",
        "category": "rapid",
        "grade": "III",
        "distance_from_putin_mi": 38.72,
        "river_mi": 38.72,
        "source": "curated"
      },
      "geometry": {
        "type": "Point",
        "coordinates": [
          -110.032694,
          39.576049
        ]
      }
    },
    {
      "type": "Feature",
      "properties": {
        "name": "Steer Ridge",
        "kind": "camp",
        "category": "camp",
        "distance_from_putin_mi": 38.94,
        "river_mi": 38.94,
        "source": "curated"
      },
      "geometry": {
        "type": "Point",
        "coordinates": [
          -110.036055,
          39.574218
        ]
      }
    },
    {
      "type": "Feature",
      "properties": {
        "name": "Surprise Rapid",
        "kind": "rapid",
        "category": "rapid",
        "grade": "II",
        "distance_from_putin_mi": 39.48,
        "river_mi": 39.48,
        "source": "curated"
      },
      "geometry": {
        "type": "Point",
        "coordinates": [
          -110.037985,
          39.566065
        ]
      }
    },
    {
      "type": "Feature",
      "properties": {
        "name": "Surprise",
        "kind": "camp",
        "category": "camp",
        "distance_from_putin_mi": 39.78,
        "river_mi": 39.78,
        "source": "curated"
      },
      "geometry": {
        "type": "Point",
        "coordinates": [
          -110.038717,
          39.562071
        ]
      }
    },
    {
      "type": "Feature",
      "properties": {
        "name": "Log Cabin Rapid",
        "kind": "rapid",
        "category": "rapid",
        "grade": "II",
        "distance_from_putin_mi": 40.74,
        "river_mi": 40.74,
        "source": "curated"
      },
      "geometry": {
        "type": "Point",
        "coordinates": [
          -110.02876,
          39.551354
        ]
      }
    },
    {
      "type": "Feature",
      "properties": {
        "name": "Unnamed Rapid",
        "kind": "rapid",
        "category": "rapid",
        "grade": "II",
        "distance_from_putin_mi": 41.05,
        "river_mi": 41.05,
        "source": "curated"
      },
      "geometry": {
        "type": "Point",
        "coordinates": [
          -110.028403,
          39.547034
        ]
      }
    },
    {
      "type": "Feature",
      "properties": {
        "name": "Rock Creek Rapid",
        "kind": "rapid",
        "category": "rapid",
        "grade": "II",
        "distance_from_putin_mi": 41.47,
        "river_mi": 41.47,
        "source": "curated"
      },
      "geometry": {
        "type": "Point",
        "coordinates": [
          -110.029593,
          39.541354
        ]
      }
    },
    {
      "type": "Feature",
      "properties": {
        "name": "Calf Canyon Rapid",
        "kind": "rapid",
        "category": "rapid",
        "grade": "II",
        "distance_from_putin_mi": 43.06,
        "river_mi": 43.06,
        "source": "curated"
      },
      "geometry": {
        "type": "Point",
        "coordinates": [
          -110.043515,
          39.529955
        ]
      }
    },
    {
      "type": "Feature",
      "properties": {
        "name": "Unnamed Rapid",
        "kind": "rapid",
        "category": "rapid",
        "grade": "II",
        "distance_from_putin_mi": 43.9,
        "river_mi": 43.9,
        "source": "curated"
      },
      "geometry": {
        "type": "Point",
        "coordinates": [
          -110.032291,
          39.523474
        ]
      }
    },
    {
      "type": "Feature",
      "properties": {
        "name": "Snap Canyon",
        "kind": "camp",
        "category": "camp",
        "distance_from_putin_mi": 44.11,
        "river_mi": 44.11,
        "source": "curated"
      },
      "geometry": {
        "type": "Point",
        "coordinates": [
          -110.02848,
          39.523474
        ]
      }
    },
    {
      "type": "Feature",
      "properties": {
        "name": "Snap Canyon Rapid",
        "kind": "rapid",
        "category": "rapid",
        "grade": "II-III",
        "distance_from_putin_mi": 44.35,
        "river_mi": 44.35,
        "source": "curated"
      },
      "geometry": {
        "type": "Point",
        "coordinates": [
          -110.025745,
          39.521943
        ]
      }
    },
    {
      "type": "Feature",
      "properties": {
        "name": "Three Canyon Rapid",
        "kind": "rapid",
        "category": "rapid",
        "grade": "II",
        "distance_from_putin_mi": 45.44,
        "river_mi": 45.44,
        "source": "curated"
      },
      "geometry": {
        "type": "Point",
        "coordinates": [
          -110.023204,
          39.506632
        ]
      }
    },
    {
      "type": "Feature",
      "properties": {
        "name": "Upper Three Canyon",
        "kind": "camp",
        "category": "camp",
        "distance_from_putin_mi": 45.63,
        "river_mi": 45.63,
        "source": "curated"
      },
      "geometry": {
        "type": "Point",
        "coordinates": [
          -110.024214,
          39.503934
        ]
      }
    },
    {
      "type": "Feature",
      "properties": {
        "name": "Lower Three Canyon",
        "kind": "camp",
        "category": "camp",
        "distance_from_putin_mi": 45.89,
        "river_mi": 45.89,
        "source": "curated"
      },
      "geometry": {
        "type": "Point",
        "coordinates": [
          -110.023139,
          39.500254
        ]
      }
    },
    {
      "type": "Feature",
      "properties": {
        "name": "Unnamed Rapid",
        "kind": "rapid",
        "category": "rapid",
        "grade": "II",
        "distance_from_putin_mi": 46.36,
        "river_mi": 46.36,
        "source": "curated"
      },
      "geometry": {
        "type": "Point",
        "coordinates": [
          -110.01744,
          39.495287
        ]
      }
    },
    {
      "type": "Feature",
      "properties": {
        "name": "Belknap Falls",
        "kind": "rapid",
        "category": "rapid",
        "grade": "III",
        "distance_from_putin_mi": 46.77,
        "river_mi": 46.77,
        "source": "curated"
      },
      "geometry": {
        "type": "Point",
        "coordinates": [
          -110.014933,
          39.489914
        ]
      }
    },
    {
      "type": "Feature",
      "properties": {
        "name": "Lion Hollow",
        "kind": "camp",
        "category": "camp",
        "distance_from_putin_mi": 47.43,
        "river_mi": 47.43,
        "source": "curated"
      },
      "geometry": {
        "type": "Point",
        "coordinates": [
          -110.020599,
          39.482407
        ]
      }
    },
    {
      "type": "Feature",
      "properties": {
        "name": "Chandler",
        "kind": "camp",
        "category": "camp",
        "distance_from_putin_mi": 48.21,
        "river_mi": 48.21,
        "source": "curated"
      },
      "geometry": {
        "type": "Point",
        "coordinates": [
          -110.022358,
          39.472149
        ]
      }
    },
    {
      "type": "Feature",
      "properties": {
        "name": "Chandler Falls",
        "kind": "rapid",
        "category": "rapid",
        "grade": "III",
        "distance_from_putin_mi": 48.35,
        "river_mi": 48.35,
        "source": "curated"
      },
      "geometry": {
        "type": "Point",
        "coordinates": [
          -110.021576,
          39.470781
        ]
      }
    },
    {
      "type": "Feature",
      "properties": {
        "name": "Unnamed Rapid",
        "kind": "rapid",
        "category": "rapid",
        "grade": "II",
        "distance_from_putin_mi": 48.99,
        "river_mi": 48.99,
        "source": "curated"
      },
      "geometry": {
        "type": "Point",
        "coordinates": [
          -110.024312,
          39.462672
        ]
      }
    },
    {
      "type": "Feature",
      "properties": {
        "name": "Trail Canyon",
        "kind": "camp",
        "category": "camp",
        "distance_from_putin_mi": 49.35,
        "river_mi": 49.35,
        "source": "curated"
      },
      "geometry": {
        "type": "Point",
        "coordinates": [
          -110.020892,
          39.457982
        ]
      }
    },
    {
      "type": "Feature",
      "properties": {
        "name": "Trail Canyon Rapid",
        "kind": "rapid",
        "category": "rapid",
        "grade": "II",
        "distance_from_putin_mi": 49.73,
        "river_mi": 49.73,
        "source": "curated"
      },
      "geometry": {
        "type": "Point",
        "coordinates": [
          -110.015425,
          39.454966
        ]
      }
    },
    {
      "type": "Feature",
      "properties": {
        "name": "Unnamed Rapid",
        "kind": "rapid",
        "category": "rapid",
        "grade": "II",
        "distance_from_putin_mi": 50.4,
        "river_mi": 50.4,
        "source": "curated"
      },
      "geometry": {
        "type": "Point",
        "coordinates": [
          -110.021967,
          39.447463
        ]
      }
    },
    {
      "type": "Feature",
      "properties": {
        "name": "Above Bull Canyon",
        "kind": "camp",
        "category": "camp",
        "grade": "II",
        "distance_from_putin_mi": 50.75,
        "river_mi": 50.75,
        "source": "curated"
      },
      "geometry": {
        "type": "Point",
        "coordinates": [
          -110.024051,
          39.442904
        ]
      }
    },
    {
      "type": "Feature",
      "properties": {
        "name": "Bull Canyon Rapid",
        "kind": "rapid",
        "category": "rapid",
        "grade": "II",
        "distance_from_putin_mi": 51.14,
        "river_mi": 51.14,
        "source": "curated"
      },
      "geometry": {
        "type": "Point",
        "coordinates": [
          -110.022325,
          39.437791
        ]
      }
    },
    {
      "type": "Feature",
      "properties": {
        "name": "Unnamed Camp",
        "kind": "camp",
        "category": "camp",
        "distance_from_putin_mi": 51.8,
        "river_mi": 51.8,
        "source": "curated"
      },
      "geometry": {
        "type": "Point",
        "coordinates": [
          -110.021804,
          39.428542
        ]
      }
    },
    {
      "type": "Feature",
      "properties": {
        "name": "Moonwater Rapid",
        "kind": "rapid",
        "category": "rapid",
        "grade": "II",
        "distance_from_putin_mi": 52.42,
        "river_mi": 52.42,
        "source": "curated"
      },
      "geometry": {
        "type": "Point",
        "coordinates": [
          -110.02098,
          39.42191
        ]
      }
    },
    {
      "type": "Feature",
      "properties": {
        "name": "Moonwater",
        "kind": "camp",
        "category": "camp",
        "distance_from_putin_mi": 52.55,
        "river_mi": 52.55,
        "source": "curated"
      },
      "geometry": {
        "type": "Point",
        "coordinates": [
          -110.018989,
          39.421067
        ]
      }
    },
    {
      "type": "Feature",
      "properties": {
        "name": "Red Point Rapid",
        "kind": "rapid",
        "category": "rapid",
        "grade": "II-III",
        "distance_from_putin_mi": 52.76,
        "river_mi": 52.76,
        "source": "curated"
      },
      "geometry": {
        "type": "Point",
        "coordinates": [
          -110.015146,
          39.420521
        ]
      }
    },
    {
      "type": "Feature",
      "properties": {
        "name": "Red Point",
        "kind": "camp",
        "category": "camp",
        "distance_from_putin_mi": 52.9,
        "river_mi": 52.9,
        "source": "curated"
      },
      "geometry": {
        "type": "Point",
        "coordinates": [
          -110.013597,
          39.418641
        ]
      }
    },
    {
      "type": "Feature",
      "properties": {
        "name": "Unnamed Camp",
        "kind": "camp",
        "category": "camp",
        "distance_from_putin_mi": 53.16,
        "river_mi": 53.16,
        "source": "curated"
      },
      "geometry": {
        "type": "Point",
        "coordinates": [
          -110.011904,
          39.416264
        ]
      }
    },
    {
      "type": "Feature",
      "properties": {
        "name": "Unnamed Rapid",
        "kind": "rapid",
        "category": "rapid",
        "grade": "II",
        "distance_from_putin_mi": 53.49,
        "river_mi": 53.49,
        "source": "curated"
      },
      "geometry": {
        "type": "Point",
        "coordinates": [
          -110.011172,
          39.411474
        ]
      }
    },
    {
      "type": "Feature",
      "properties": {
        "name": "Joe Hutch Creek Rapid",
        "kind": "rapid",
        "category": "rapid",
        "grade": "III-III+",
        "distance_from_putin_mi": 53.81,
        "river_mi": 53.81,
        "source": "curated"
      },
      "geometry": {
        "type": "Point",
        "coordinates": [
          -110.013016,
          39.407199
        ]
      }
    },
    {
      "type": "Feature",
      "properties": {
        "name": "Unnamed Rapid",
        "kind": "rapid",
        "category": "rapid",
        "grade": "II",
        "distance_from_putin_mi": 54.39,
        "river_mi": 54.39,
        "source": "curated"
      },
      "geometry": {
        "type": "Point",
        "coordinates": [
          -110.017849,
          39.399764
        ]
      }
    },
    {
      "type": "Feature",
      "properties": {
        "name": "Joe Hutch Canyon",
        "kind": "camp",
        "category": "camp",
        "distance_from_putin_mi": 54.8,
        "river_mi": 54.8,
        "source": "curated"
      },
      "geometry": {
        "type": "Point",
        "coordinates": [
          -110.019883,
          39.393728
        ]
      }
    },
    {
      "type": "Feature",
      "properties": {
        "name": "Joe Hutch Canyon Rapid",
        "kind": "rapid",
        "category": "rapid",
        "grade": "III",
        "distance_from_putin_mi": 54.82,
        "river_mi": 54.82,
        "source": "curated"
      },
      "geometry": {
        "type": "Point",
        "coordinates": [
          -110.019035,
          39.393855
        ]
      }
    },
    {
      "type": "Feature",
      "properties": {
        "name": "Unnamed Rapid",
        "kind": "rapid",
        "category": "rapid",
        "grade": "II",
        "distance_from_putin_mi": 55.66,
        "river_mi": 55.66,
        "source": "curated"
      },
      "geometry": {
        "type": "Point",
        "coordinates": [
          -110.017263,
          39.383331
        ]
      }
    },
    {
      "type": "Feature",
      "properties": {
        "name": "McPherson",
        "kind": "camp",
        "category": "camp",
        "distance_from_putin_mi": 55.79,
        "river_mi": 55.79,
        "source": "curated"
      },
      "geometry": {
        "type": "Point",
        "coordinates": [
          -110.019199,
          39.381808
        ]
      }
    },
    {
      "type": "Feature",
      "properties": {
        "name": "Florence Creek Rapid",
        "kind": "rapid",
        "category": "rapid",
        "grade": "II",
        "distance_from_putin_mi": 56.53,
        "river_mi": 56.53,
        "source": "curated"
      },
      "geometry": {
        "type": "Point",
        "coordinates": [
          -110.024931,
          39.374546
        ]
      }
    },
    {
      "type": "Feature",
      "properties": {
        "name": "Wire Fence 1",
        "kind": "camp",
        "category": "camp",
        "distance_from_putin_mi": 57.85,
        "river_mi": 57.85,
        "source": "curated"
      },
      "geometry": {
        "type": "Point",
        "coordinates": [
          -110.024035,
          39.356618
        ]
      }
    },
    {
      "type": "Feature",
      "properties": {
        "name": "Wire Fence 2",
        "kind": "camp",
        "category": "camp",
        "distance_from_putin_mi": 57.97,
        "river_mi": 57.97,
        "source": "curated"
      },
      "geometry": {
        "type": "Point",
        "coordinates": [
          -110.022651,
          39.355006
        ]
      }
    },
    {
      "type": "Feature",
      "properties": {
        "name": "Whire Fence Rapid",
        "kind": "rapid",
        "category": "rapid",
        "grade": "III",
        "distance_from_putin_mi": 58.24,
        "river_mi": 58.24,
        "source": "curated"
      },
      "geometry": {
        "type": "Point",
        "coordinates": [
          -110.022488,
          39.352058
        ]
      }
    },
    {
      "type": "Feature",
      "properties": {
        "name": "Wire Fence 3",
        "kind": "camp",
        "category": "camp",
        "distance_from_putin_mi": 58.33,
        "river_mi": 58.33,
        "source": "curated"
      },
      "geometry": {
        "type": "Point",
        "coordinates": [
          -110.024165,
          39.351602
        ]
      }
    },
    {
      "type": "Feature",
      "properties": {
        "name": "Three Fords Rapid",
        "kind": "rapid",
        "category": "rapid",
        "grade": "III",
        "distance_from_putin_mi": 58.53,
        "river_mi": 58.53,
        "source": "curated"
      },
      "geometry": {
        "type": "Point",
        "coordinates": [
          -110.027113,
          39.351345
        ]
      }
    },
    {
      "type": "Feature",
      "properties": {
        "name": "Unnamed Camp",
        "kind": "camp",
        "category": "camp",
        "distance_from_putin_mi": 61.02,
        "river_mi": 61.02,
        "source": "curated"
      },
      "geometry": {
        "type": "Point",
        "coordinates": [
          -110.049771,
          39.326182
        ]
      }
    },
    {
      "type": "Feature",
      "properties": {
        "name": "Last Chance Rapid",
        "kind": "rapid",
        "category": "rapid",
        "grade": "II",
        "distance_from_putin_mi": 62.8,
        "river_mi": 62.8,
        "source": "curated"
      },
      "geometry": {
        "type": "Point",
        "coordinates": [
          -110.058202,
          39.316077
        ]
      }
    },
    {
      "type": "Feature",
      "properties": {
        "name": "Range Creek 1",
        "kind": "camp",
        "category": "camp",
        "distance_from_putin_mi": 63.82,
        "river_mi": 63.82,
        "source": "curated"
      },
      "geometry": {
        "type": "Point",
        "coordinates": [
          -110.054029,
          39.306994
        ]
      }
    },
    {
      "type": "Feature",
      "properties": {
        "name": "Range Creek Rapid",
        "kind": "rapid",
        "category": "rapid",
        "grade": "II",
        "distance_from_putin_mi": 63.93,
        "river_mi": 63.93,
        "source": "curated"
      },
      "geometry": {
        "type": "Point",
        "coordinates": [
          -110.052091,
          39.307189
        ]
      }
    },
    {
      "type": "Feature",
      "properties": {
        "name": "Range Creek 2",
        "kind": "camp",
        "category": "camp",
        "distance_from_putin_mi": 64.01,
        "river_mi": 64.01,
        "source": "curated"
      },
      "geometry": {
        "type": "Point",
        "coordinates": [
          -110.051587,
          39.305561
        ]
      }
    },
    {
      "type": "Feature",
      "properties": {
        "name": "Rabbit Valley Rapid",
        "kind": "rapid",
        "category": "rapid",
        "grade": "II",
        "distance_from_putin_mi": 66.26,
        "river_mi": 66.26,
        "source": "curated"
      },
      "geometry": {
        "type": "Point",
        "coordinates": [
          -110.072647,
          39.284411
        ]
      }
    },
    {
      "type": "Feature",
      "properties": {
        "name": "Rabbit Valley",
        "kind": "camp",
        "category": "camp",
        "distance_from_putin_mi": 66.46,
        "river_mi": 66.46,
        "source": "curated"
      },
      "geometry": {
        "type": "Point",
        "coordinates": [
          -110.074676,
          39.28265
        ]
      }
    },
    {
      "type": "Feature",
      "properties": {
        "name": "Curry Rapid",
        "kind": "rapid",
        "category": "rapid",
        "grade": "II",
        "distance_from_putin_mi": 67.39,
        "river_mi": 67.39,
        "source": "curated"
      },
      "geometry": {
        "type": "Point",
        "coordinates": [
          -110.073202,
          39.2708
        ]
      }
    },
    {
      "type": "Feature",
      "properties": {
        "name": "Saleratus Rapid",
        "kind": "rapid",
        "category": "rapid",
        "grade": "II",
        "distance_from_putin_mi": 68.3,
        "river_mi": 68.3,
        "source": "curated"
      },
      "geometry": {
        "type": "Point",
        "coordinates": [
          -110.060701,
          39.2633
        ]
      }
    },
    {
      "type": "Feature",
      "properties": {
        "name": "Coal Creek Rapid",
        "kind": "rapid",
        "category": "rapid",
        "grade": "III",
        "distance_from_putin_mi": 69.1,
        "river_mi": 69.1,
        "source": "curated"
      },
      "geometry": {
        "type": "Point",
        "coordinates": [
          -110.062565,
          39.251905
        ]
      }
    },
    {
      "type": "Feature",
      "properties": {
        "name": "Coal Creek",
        "kind": "camp",
        "category": "camp",
        "distance_from_putin_mi": 69.44,
        "river_mi": 69.44,
        "source": "curated"
      },
      "geometry": {
        "type": "Point",
        "coordinates": [
          -110.061015,
          39.247918
        ]
      }
    },
    {
      "type": "Feature",
      "properties": {
        "name": "Poverty Rapid",
        "kind": "rapid",
        "category": "rapid",
        "grade": "II",
        "distance_from_putin_mi": 69.89,
        "river_mi": 69.89,
        "source": "curated"
      },
      "geometry": {
        "type": "Point",
        "coordinates": [
          -110.058588,
          39.241738
        ]
      }
    },
    {
      "type": "Feature",
      "properties": {
        "name": "Poverty",
        "kind": "camp",
        "category": "camp",
        "distance_from_putin_mi": 70.04,
        "river_mi": 70.04,
        "source": "curated"
      },
      "geometry": {
        "type": "Point",
        "coordinates": [
          -110.057644,
          39.239589
        ]
      }
    },
    {
      "type": "Feature",
      "properties": {
        "name": "School Section",
        "kind": "camp",
        "category": "camp",
        "distance_from_putin_mi": 72.88,
        "river_mi": 72.88,
        "source": "curated"
      },
      "geometry": {
        "type": "Point",
        "coordinates": [
          -110.077542,
          39.221262
        ]
      }
    },
    {
      "type": "Feature",
      "properties": {
        "name": "Rattlesnake Rapid",
        "kind": "rapid",
        "category": "rapid",
        "grade": "II+",
        "distance_from_putin_mi": 73.09,
        "river_mi": 73.09,
        "source": "curated"
      },
      "geometry": {
        "type": "Point",
        "coordinates": [
          -110.077738,
          39.218787
        ]
      }
    },
    {
      "type": "Feature",
      "properties": {
        "name": "Rattlesnake",
        "kind": "camp",
        "category": "camp",
        "distance_from_putin_mi": 73.44,
        "river_mi": 73.44,
        "source": "curated"
      },
      "geometry": {
        "type": "Point",
        "coordinates": [
          -110.075002,
          39.214227
        ]
      }
    },
    {
      "type": "Feature",
      "properties": {
        "name": "Nefertiti River Access",
        "kind": "boat_ramp",
        "category": "access",
        "distance_from_putin_mi": 74.76,
        "river_mi": 74.76,
        "source": "curated"
      },
      "geometry": {
        "type": "Point",
        "coordinates": [
          -110.076435,
          39.196316
        ]
      }
    },
    {
      "type": "Feature",
      "properties": {
        "name": "Nefertiti Rapid",
        "kind": "rapid",
        "category": "rapid",
        "grade": "II",
        "distance_from_putin_mi": 74.87,
        "river_mi": 74.87,
        "source": "curated"
      },
      "geometry": {
        "type": "Point",
        "coordinates": [
          -110.07821,
          39.195481
        ]
      }
    },
    {
      "type": "Feature",
      "properties": {
        "name": "Neferiti",
        "kind": "camp",
        "category": "camp",
        "distance_from_putin_mi": 74.93,
        "river_mi": 74.93,
        "source": "curated"
      },
      "geometry": {
        "type": "Point",
        "coordinates": [
          -110.077673,
          39.193906
        ]
      }
    },
    {
      "type": "Feature",
      "properties": {
        "name": "Butler 1",
        "kind": "camp",
        "category": "camp",
        "distance_from_putin_mi": 78.84,
        "river_mi": 78.84,
        "source": "curated"
      },
      "geometry": {
        "type": "Point",
        "coordinates": [
          -110.112454,
          39.159499
        ]
      }
    },
    {
      "type": "Feature",
      "properties": {
        "name": "Butler Wash Put-In / Take Out",
        "kind": "boat_ramp",
        "category": "access",
        "distance_from_putin_mi": 78.99,
        "river_mi": 78.99,
        "source": "curated"
      },
      "geometry": {
        "type": "Point",
        "coordinates": [
          -110.113693,
          39.157846
        ]
      }
    },
    {
      "type": "Feature",
      "properties": {
        "name": "Butler Rapid",
        "kind": "rapid",
        "category": "rapid",
        "grade": "II",
        "distance_from_putin_mi": 79.03,
        "river_mi": 79.03,
        "source": "curated"
      },
      "geometry": {
        "type": "Point",
        "coordinates": [
          -110.114324,
          39.1576
        ]
      }
    },
    {
      "type": "Feature",
      "properties": {
        "name": "Butler 2",
        "kind": "camp",
        "category": "camp",
        "distance_from_putin_mi": 79.3,
        "river_mi": 79.3,
        "source": "curated"
      },
      "geometry": {
        "type": "Point",
        "coordinates": [
          -110.116997,
          39.154076
        ]
      }
    },
    {
      "type": "Feature",
      "properties": {
        "name": "Sand Knolls Rapid",
        "kind": "rapid",
        "category": "rapid",
        "grade": "II",
        "distance_from_putin_mi": 79.53,
        "river_mi": 79.53,
        "source": "curated"
      },
      "geometry": {
        "type": "Point",
        "coordinates": [
          -110.114026,
          39.151517
        ]
      }
    },
    {
      "type": "Feature",
      "properties": {
        "name": "Sand Knolls 1",
        "kind": "camp",
        "category": "camp",
        "distance_from_putin_mi": 79.63,
        "river_mi": 79.63,
        "source": "curated"
      },
      "geometry": {
        "type": "Point",
        "coordinates": [
          -110.113366,
          39.150022
        ]
      }
    },
    {
      "type": "Feature",
      "properties": {
        "name": "Sand Knolls 2",
        "kind": "camp",
        "category": "camp",
        "distance_from_putin_mi": 79.85,
        "river_mi": 79.85,
        "source": "curated"
      },
      "geometry": {
        "type": "Point",
        "coordinates": [
          -110.111998,
          39.147588
        ]
      }
    },
    {
      "type": "Feature",
      "properties": {
        "name": "Stone Cabin Rapid",
        "kind": "rapid",
        "category": "rapid",
        "grade": "II",
        "distance_from_putin_mi": 80.7,
        "river_mi": 80.7,
        "source": "curated"
      },
      "geometry": {
        "type": "Point",
        "coordinates": [
          -110.101315,
          39.14045
        ]
      }
    },
    {
      "type": "Feature",
      "properties": {
        "name": "Stone Cabin",
        "kind": "camp",
        "category": "camp",
        "distance_from_putin_mi": 80.75,
        "river_mi": 80.75,
        "source": "curated"
      },
      "geometry": {
        "type": "Point",
        "coordinates": [
          -110.100307,
          39.14024
        ]
      }
    },
    {
      "type": "Feature",
      "properties": {
        "name": "Short Canyon Rapid",
        "kind": "rapid",
        "category": "rapid",
        "grade": "II",
        "distance_from_putin_mi": 81.93,
        "river_mi": 81.93,
        "source": "curated"
      },
      "geometry": {
        "type": "Point",
        "coordinates": [
          -110.11244,
          39.128536
        ]
      }
    },
    {
      "type": "Feature",
      "properties": {
        "name": "Short Canyon",
        "kind": "camp",
        "category": "camp",
        "distance_from_putin_mi": 82.04,
        "river_mi": 82.04,
        "source": "curated"
      },
      "geometry": {
        "type": "Point",
        "coordinates": [
          -110.114021,
          39.127301
        ]
      }
    },
    {
      "type": "Feature",
      "properties": {
        "name": "Swaseys Rapid",
        "kind": "rapid",
        "category": "rapid",
        "grade": "II",
        "distance_from_putin_mi": 82.93,
        "river_mi": 82.93,
        "source": "curated"
      },
      "geometry": {
        "type": "Point",
        "coordinates": [
          -110.111779,
          39.115601
        ]
      }
    },
    {
      "type": "Feature",
      "properties": {
        "name": "Swaseys Beach Campground",
        "kind": "camp",
        "category": "camp",
        "distance_from_putin_mi": 82.94,
        "river_mi": 82.94,
        "source": "curated"
      },
      "geometry": {
        "type": "Point",
        "coordinates": [
          -110.111232,
          39.116129
        ]
      }
    },
    {
      "type": "Feature",
      "properties": {
        "name": "Swasey Boat Ramp",
        "kind": "boat_ramp",
        "category": "access",
        "distance_from_putin_mi": 83.19,
        "river_mi": 83.19,
        "source": "curated"
      },
      "geometry": {
        "type": "Point",
        "coordinates": [
          -110.109088,
          39.112395
        ]
      }
    },
    {
      "type": "Feature",
      "properties": {
        "name": "Parking",
        "kind": "parking",
        "category": "parking",
        "distance_from_putin_mi": 83.19,
        "river_mi": 83.19,
        "source": "curated"
      },
      "geometry": {
        "type": "Point",
        "coordinates": [
          -110.109523,
          39.1109
        ]
      }
    }
  ]
}