{"type":"FeatureCollection","features":[{"type":"Feature","properties":{"name":"Uintah and Ouray Indian Reservation"},"geometry":{"type":"Polygon","coordinates":[[[-109.87104191357214,39.803629651779374],[-109.87280678485271,39.80165867524803],[-109.86827395388498,39.79894572455395],[-109.86577012766824,39.79645705298994],[-109.86419867901455,39.79459612497062],[-109.8626609992238,39.7918494504825],[-109.86200484788758,39.78975592159521],[-109.8618615571066,39.78616144753374],[-109.86216823099399,39.78482974400149],[-109.86337223148558,39.781863914245974],[-109.86477654018358,39.7797660885685],[-109.86685556310982,39.7780190268928],[-109.86989229716661,39.776271571228406],[-109.87136898887972,39.77563784115124],[-109.87643125431931,39.7744961088557],[-109.88161805497991,39.77450173481328],[-109.88601200480075,39.775358547145125],[-109.89013368163577,39.77691471806905],[-109.89580610703959,39.780149045940696],[-109.89677031286709,39.78014610597425],[-109.9042952003328,39.776807064336055],[-109.9080378404444,39.77615409332771],[-109.90832700727131,39.77422031735109],[-109.90933054640809,39.771494660214195],[-109.91239120581648,39.76636735450114],[-109.91512048861136,39.762534951940026],[-109.91584075590141,39.756327115874825],[-109.9170378007374,39.75249909377075],[-109.91755446953297,39.74892401169694],[-109.91899970432476,39.745447889369096],[-109.92116507507548,39.742849444702756],[-109.92365741997078,39.74097380447772],[-109.92650432362511,39.739723237197445],[-109.92976590161159,39.73873726428823],[-109.93326603228627,39.73852400834751],[-109.93648602755366,39.73887392978635],[-109.93697131469413,39.73724891308234],[-109.93878668613334,39.7341257856464],[-109.9415542450108,39.7315697527627],[-109.93892385972977,39.728621353312434],[-109.936993074992,39.724798050113414],[-109.9366983636911,39.72211584336195],[-109.93723006595393,39.71956152768955],[-109.9396675624675,39.71544279682847],[-109.94364358479581,39.712328440412584],[-109.94655955814495,39.71107718250609],[-109.94982233623904,39.710499510295946],[-109.95457691805039,39.71063232293001],[-109.95922532732826,39.712006484366235],[-109.95889779457302,39.7089915737137],[-109.95944912186808,39.70639244857501],[-109.96019397060401,39.70461405032516],[-109.96242314110505,39.70135162568101],[-109.96504908005141,39.699073590204115],[-109.97076025283128,39.69650989954176],[-109.97426524047036,39.695549466650654],[-109.9787757384528,39.69511271103297],[-109.98182204398786,39.69541656997559],[-109.98278093017706,39.69174006308197],[-109.98048660700158,39.69064600803269],[-109.97726225206424,39.688118013106596],[-109.9744867764197,39.6848601445817],[-109.9737096548557,39.68281128786044],[-109.97333780375729,39.67989293999755],[-109.97405973357722,39.67635563650294],[-109.97531604263474,39.67424615879929],[-109.97451323201066,39.671017609110564],[-109.97322596176961,39.66805182533129],[-109.97253784316669,39.66420487754733],[-109.97327623142498,39.66134116122484],[-109.97528158294404,39.65810970704031],[-109.97595639851258,39.65434521459594],[-109.9773417798649,39.65150919881856],[-109.97962043875383,39.6489508932153],[-109.98181881078851,39.64732362663354],[-109.98365396808993,39.64416074779618],[-109.98561291512371,39.642114832353656],[-109.98841790024406,39.63982545163909],[-109.9902860173655,39.63863645255594],[-109.99189598815879,39.63803942009553],[-109.99054744872107,39.63696311218461],[-109.98887881287159,39.63498216920893],[-109.9879578456991,39.632758455267535],[-109.98594507562075,39.629482806975886],[-109.98577822294526,39.62494888284387],[-109.9860618970642,39.62401210939824],[-109.98731199794344,39.62158381607488],[-109.98943322292376,39.61953341127887],[-109.99224447773165,39.61803587968739],[-109.99790159269688,39.616575943857484],[-110.00094634751036,39.616329206720316],[-110.00278534775128,39.61229008257862],[-110.00526438701381,39.60932340908978],[-110.00649025414063,39.60850709759423],[-110.00721964971271,39.60589351051258],[-110.00892176848991,39.60356889855673],[-110.0118874149969,39.60139144688437],[-110.01422782896564,39.60034247451468],[-110.01627891705127,39.597757787018956],[-110.01282346011241,39.59579697729939],[-110.01068766244788,39.59400876734434],[-110.00914456847151,39.59219533177365],[-110.00745599252973,39.58876481219134],[-110.00703131830105,39.58600972752974],[-110.0071760344931,39.584120962385605],[-110.00786785912453,39.58191587919298],[-110.01000591217039,39.57904962523735],[-110.01087349015363,39.575990813996704],[-110.01297558215906,39.573373064133015],[-110.0154500334545,39.57164378790314],[-110.01804071713475,39.57062371097215],[-110.02172226095762,39.56969432328201],[-110.02460746640527,39.569451170766456],[-110.02609936257737,39.56641816169721],[-110.02597157415664,39.565821897349096],[-110.02313978590159,39.56378513017423],[-110.0221737139412,39.56238497422606],[-110.01992806224577,39.56039033550687],[-110.0179421545005,39.55766676126716],[-110.01689548103717,39.55371095311577],[-110.01704379987125,39.55170369861771],[-110.01630570140263,39.54935325393764],[-110.01654641519507,39.54605807397226],[-110.01809438462668,39.5427664389442],[-110.01795774289346,39.5402651255663],[-110.0184305881383,39.53795508792457],[-110.02001574048592,39.534771718511415],[-110.02250946495614,39.53210961873691],[-110.02071943938414,39.53152078466776],[-110.01799173601982,39.52970865091979],[-110.01495424236414,39.52570480058463],[-110.01365337936066,39.521597317622536],[-110.01385437716779,39.51274401201898],[-110.01168975722742,39.50863346771103],[-110.01133566508467,39.50633621464869],[-110.01147492859984,39.504665103970474],[-110.01051054296359,39.50418057092326],[-110.00769194585423,39.50150054609859],[-110.00583541388757,39.497535556556585],[-110.00409018261325,39.4950209196818],[-110.00310027922815,39.49220366418991],[-110.00322053875603,39.48871976005847],[-110.00395841130873,39.48532106819001],[-110.00491657445089,39.48263696402017],[-110.00572564284141,39.481061969762884],[-110.00765344282009,39.47858484798794],[-110.01091306224714,39.47615085257093],[-110.00985497834617,39.4740466816576],[-110.00946597145348,39.471188493484846],[-110.00992780501824,39.468804764286105],[-110.01121119190424,39.46660192692029],[-110.01241855070968,39.46529134745945],[-110.00886995791733,39.46352255985836],[-110.00593935241004,39.46089012306739],[-110.0043532183748,39.45771527357576],[-110.00411301891832,39.454479967325874],[-110.0049554433996,39.45149805888726],[-110.00781122682882,39.447977724250535],[-110.01002408559134,39.44671144555997],[-110.01044482600581,39.44507976699026],[-110.0117120614157,39.44307318905489],[-110.01171558392485,39.442181422365145],[-110.00944312866449,39.437359417377564],[-110.0093965529276,39.43520359751516],[-110.01009097148311,39.4319147351155],[-110.00928576565808,39.42820969479009],[-110.00591616961265,39.426408006066204],[-110.0036547666291,39.424749972825296],[-110.00041698487564,39.42101184069329],[-109.99918855411758,39.4176930967143],[-109.99893534584415,39.412491792200235],[-110.00033850690615,39.40618013422422],[-110.00326280480826,39.40240481076662],[-110.00435711760808,39.39984441663069],[-110.00688661784231,39.39630450897421],[-110.00746212161744,39.39491318698363],[-110.00724665103955,39.39259316909341],[-110.00777781259956,39.390622761794766],[-110.0057940825237,39.38726007867274],[-110.00525950677893,39.38392794686513],[-110.0058786884401,39.38095593926922],[-110.00741640730827,39.37687685587204],[-110.00951750234385,39.37395688495589],[-110.01180013259783,39.37200149433886],[-110.01066300368598,39.37031597458788],[-110.00900231032821,39.3667692199789],[-110.00863236831796,39.36441729884861],[-110.00968341826086,39.36049716247754],[-110.01094824028642,39.35870061827383],[-110.00958147060967,39.35506070237186],[-110.00983106495778,39.35201714464393],[-110.01098651045947,39.34921713043481],[-110.01316544249883,39.34657765018063],[-110.01542647104755,39.34474088550471],[-110.01795221744501,39.34325302012798],[-110.02162650383609,39.34217608481637],[-110.02148884335645,39.34077383455633],[-110.02187872283113,39.33873222491758],[-110.02358349036764,39.33505032541741],[-110.02587132026332,39.33287794876713],[-110.03347209766298,39.32860302582599],[-110.03511577526679,39.32686233053038],[-110.03716443981249,39.322631789290405],[-110.03912677126362,39.32040082990666],[-110.0420870413187,39.31842719115894],[-110.04406864298694,39.317724330577086],[-110.04424815870628,39.31619895511154],[-110.04521523120027,39.31418622841998],[-110.04259983838578,39.31235346778973],[-110.04056395523384,39.31041337246059],[-110.03963986322192,39.309224762259994],[-110.03803735594106,39.305708476324504],[-110.03771249337757,39.3013467619911],[-110.03879194201413,39.29771190477118],[-110.04154845948766,39.29430500820841],[-110.0451928656362,39.29197665106286],[-110.06146954753116,39.28604623949589],[-110.06131787552498,39.28289958624842],[-110.06177958861713,39.28068095887591],[-110.06386587468148,39.277222440553146],[-110.0601718192098,39.27587625370773],[-110.05451841266178,39.27311708636276],[-110.05112343772836,39.26988347235352],[-110.04945496451504,39.26687821412776],[-110.04870119974211,39.26300705382853],[-110.04858041417627,39.25853913271764],[-110.04909737048148,39.254942745414695],[-110.04988774331169,39.25234281182068],[-110.0537209090456,39.252339301140374],[-110.05572525975192,39.25385396209584],[-110.05798539944719,39.25233539868098],[-110.05843101682873,39.25233494721996],[-110.05861717021348,39.25178688811348],[-110.05940835780672,39.252577304146214],[-110.06120794954217,39.2523338709857],[-110.06140702215572,39.252938355183616],[-110.06050668847695,39.25475475577564],[-110.05968888895924,39.25938975498107],[-110.05981668895218,39.26358182135544],[-110.0608486888047,39.265672155334116],[-110.06236042125349,39.26729935527756],[-110.06409588905782,39.26751655542547],[-110.06648122167765,39.268821021551794],[-110.06874542207396,39.269679621640876],[-110.06966508821165,39.26959362145807],[-110.07368328853956,39.271416421389716],[-110.0749476890599,39.27415655512393],[-110.07656962222877,39.27604255517923],[-110.07645648843209,39.27765662187327],[-110.07681942141505,39.27854935566578],[-110.07642962218912,39.280249021176935],[-110.0758700219587,39.28087635581485],[-110.07329242166384,39.281789621673916],[-110.07274008851327,39.282400421546185],[-110.07237948826975,39.28455622174849],[-110.07295102166839,39.28623622162545],[-110.07276048930119,39.287283955702165],[-110.07021642219041,39.29098775496258],[-110.06814608845049,39.29251475520531],[-110.06761022158972,39.29347722111997],[-110.06323428883914,39.2945461556659],[-110.0554146214979,39.29778415547596],[-110.0541176213396,39.298026221735036],[-110.05373722207797,39.298446155117894],[-110.05246862188945,39.29867742154276],[-110.05037788834228,39.29958322123434],[-110.04867342221301,39.30120622153876],[-110.04911842238204,39.30332462138343],[-110.04885728914729,39.30432775561069],[-110.05076488896842,39.30653495523935],[-110.05355768827755,39.3081123551765],[-110.05548882164884,39.30857842173393],[-110.05726348863745,39.308576421455875],[-110.0591512881832,39.30805342111174],[-110.06141782150728,39.310939021452015],[-110.06144022159243,39.31191142143845],[-110.06061988830098,39.314025155225565],[-110.05973688882479,39.31501775561289],[-110.05804802182811,39.315992755289095],[-110.05739048853539,39.31597642178192],[-110.05610268918178,39.31656462180927],[-110.05537188886923,39.317800155565656],[-110.05522122159014,39.32006202141222],[-110.05551502230605,39.32083342183961],[-110.05782282123786,39.32381295548902],[-110.05797202240453,39.324813821630514],[-110.0592080884182,39.32757575573765],[-110.05912968888647,39.32815195565978],[-110.05789622173492,39.329943621792864],[-110.05657308939597,39.33050415575278],[-110.05322702159219,39.32635722104664],[-110.05227562153354,39.32558055558789],[-110.0505844218846,39.32512175573404],[-110.04767942220958,39.32552095508813],[-110.04721408881949,39.32592915518433],[-110.04685608893003,39.32729395538848],[-110.04630522168861,39.32775622186117],[-110.04637662137279,39.3287565556502],[-110.04610002230147,39.328803755510606],[-110.04469302180904,39.33136835555213],[-110.04237142217376,39.334084755198504],[-110.03921768913207,39.33608555551808],[-110.03667088841061,39.33662475522164],[-110.03575728931835,39.33877042164186],[-110.03363422221345,39.339357021593706],[-110.03268868936237,39.34174415549581],[-110.03399128874392,39.34322155508414],[-110.03428562199421,39.3465142211825],[-110.0335484893556,39.34866135575369],[-110.03247562137994,39.350025621872064],[-110.03014722195681,39.3511047558189],[-110.02785302175432,39.35124495559829],[-110.02549522144439,39.349846421121946],[-110.02492228898267,39.34983062110243],[-110.02310462134548,39.35081515589565],[-110.0210258890564,39.35325295588846],[-110.02077062173136,39.35430535536653],[-110.02097802197778,39.35516402178485],[-110.02237222201845,39.35665882111441],[-110.0232148214308,39.35814362146937],[-110.0231918219085,39.358775021698655],[-110.0228572221675,39.35943135532273],[-110.02138202132774,39.360687821567],[-110.01823442125288,39.36161702126201],[-110.01804548864355,39.362477821725506],[-110.01926382224477,39.364416155515784],[-110.02055622129672,39.36561355509402],[-110.02115548838115,39.36729395521128],[-110.02303722145314,39.36936962180017],[-110.024098289181,39.373981555199656],[-110.02400502230391,39.37458502144046],[-110.02522288861307,39.37657815568176],[-110.02491962195441,39.37700955540351],[-110.01803882133197,39.37862695531778],[-110.01716728872442,39.38223395523249],[-110.0163984894668,39.38405642167371],[-110.018345421984,39.38756642119773],[-110.0207006213372,39.38973402132259],[-110.02071862240388,39.390475755636274],[-110.01912508935105,39.391538821344724],[-110.01886862203719,39.39266275562287],[-110.01836382184919,39.393328621627774],[-110.01924122125018,39.39538482119953],[-110.01869962223806,39.396143821006845],[-110.01664288886154,39.39740622179729],[-110.01739402204396,39.3993845558695],[-110.01481728829127,39.40288362156265],[-110.0128546888745,39.40700315417754],[-110.0109298886751,39.4089312218472],[-110.00860568828824,39.410053954244056],[-110.00842862150427,39.41055775464022],[-110.00946108921327,39.412153954055455],[-110.00978548936429,39.41424955457102],[-110.01043882160876,39.415622821319175],[-110.01001408829644,39.41711322150092],[-110.01094268882545,39.4185493548369],[-110.01308768898451,39.420116621910175],[-110.0151130885716,39.421122421370995],[-110.0196196215141,39.42247342193389],[-110.02202262131912,39.422823354446685],[-110.02320342151953,39.42397575441102],[-110.02247628938497,39.42532635444836],[-110.02031508869922,39.42742835458467],[-110.02039882183142,39.430559954104666],[-110.02105442149308,39.432812154817405],[-110.02069208840837,39.43339122155212],[-110.02036162125103,39.43574495411677],[-110.02143662172277,39.43789075471824],[-110.02267408887185,39.438549221762365],[-110.02315228874181,39.43930582120379],[-110.02340348926583,39.441109554652435],[-110.02284668887171,39.44344482159445],[-110.02316462185543,39.44451862160017],[-110.02305028891624,39.44559982131937],[-110.02248968915164,39.44667715408142],[-110.02083248846583,39.44815722188684],[-110.02006882133448,39.452100154299565],[-110.01585768901798,39.453783754533134],[-110.01489128915205,39.45449502105668],[-110.01482268892177,39.455334954926165],[-110.01567148836183,39.456946021686996],[-110.01970882219615,39.4585731547261],[-110.0215080885014,39.460126354198415],[-110.02203508939498,39.462476221779895],[-110.02370882196446,39.46389642185435],[-110.02454722229386,39.46678175405171],[-110.02437322196162,39.46858735416498],[-110.02071008921813,39.471066754100335],[-110.02124742196283,39.4731805540446],[-110.0227678214321,39.47392935415867],[-110.02344888862254,39.47489082140383],[-110.02399062208166,39.47721342168788],[-110.02329802214598,39.478586221882395],[-110.02003482151788,39.48132155441353],[-110.01617722166513,39.48395295454573],[-110.01545942188459,39.48508942137902],[-110.01471042124506,39.487433954294985],[-110.0147296886882,39.48857655458009],[-110.01398228936503,39.49030602153111],[-110.01405448838142,39.491218421318024],[-110.0169716224056,39.49499475477328],[-110.01664388845558,39.49611795433353],[-110.01685322182844,39.49685575455156],[-110.01839768849744,39.49793995492969],[-110.02120408853685,39.49904022184839],[-110.0229646216312,39.50343282174699],[-110.02270282231846,39.50692955444823],[-110.02480628857093,39.51066035483499],[-110.02523042204623,39.51227875436474],[-110.02480802222426,39.521184421660955],[-110.02536788936207,39.522227354093985],[-110.02534368868855,39.523446421321744],[-110.0265812891455,39.52420935416817],[-110.02763488916405,39.52443795460193],[-110.03152822222836,39.52395962129194],[-110.03323602206429,39.52407275461133],[-110.03487428899629,39.5235646215449],[-110.03895002127999,39.52476282131714],[-110.0398026217914,39.52568722193508],[-110.0395778892471,39.52654775476319],[-110.03987142140032,39.527379554322934],[-110.04294142159422,39.53005242151849],[-110.04556002140168,39.53202942128706],[-110.04702688906174,39.532645621441716],[-110.04733908934506,39.53315915472809],[-110.0461748891963,39.534264554640515],[-110.0438068888168,39.53520622107748],[-110.03974908858842,39.53522762167804],[-110.03629868925417,39.53595702123648],[-110.03493822176439,39.53584135451441],[-110.03295082181002,39.53644002134841],[-110.0307064887667,39.53765722163576],[-110.02991962153293,39.538639354953006],[-110.02891268858254,39.54115755452076],[-110.02886302248073,39.541662421881675],[-110.02961022156343,39.5425200215017],[-110.0298380893383,39.54347215411303],[-110.02736228864129,39.54803795435612],[-110.02831208858859,39.55012762198061],[-110.0279006215286,39.552167421893294],[-110.02793062168755,39.55407915495876],[-110.02860428930833,39.55512295410927],[-110.03154168884069,39.55717982181212],[-110.03199528930111,39.558743554533606],[-110.03337862182809,39.55979875436914],[-110.03418168841249,39.5602228213306],[-110.03566768890649,39.5600044218501],[-110.03658342210714,39.56050095463885],[-110.03711022206505,39.56140615458006],[-110.03672442246237,39.56313315480525],[-110.0374300223148,39.565473421560725],[-110.03751942219716,39.56722082127714],[-110.03551982145422,39.571191954743604],[-110.0348740223553,39.57324082188524],[-110.03430142149544,39.57409295472415],[-110.03232328838662,39.575477021562925],[-110.0314410885773,39.57715595459149],[-110.03036322223736,39.577597354073404],[-110.0275092887801,39.57763935494055],[-110.02383162147927,39.57820715461099],[-110.02194208888108,39.57882282174443],[-110.02136822204614,39.57975182165478],[-110.02100842240542,39.58161635429439],[-110.01982522233286,39.58347935434123],[-110.01825982213451,39.58474582129333],[-110.01834442173495,39.5852903542497],[-110.01797528904862,39.58579255485318],[-110.01890782146805,39.58812382144591],[-110.02051508878719,39.59093875423185],[-110.02122328891495,39.59156542116499],[-110.02359108829447,39.59129975432464],[-110.02661408839573,39.592918021197725],[-110.02707062165972,39.5942840214956],[-110.02871822199997,39.59628075472869],[-110.02811182133938,39.59699515461244],[-110.02773882185423,39.600315021161585],[-110.02445162196997,39.60384122110382],[-110.02380062224728,39.605697821584336],[-110.02087988901121,39.60738135461047],[-110.01782388926945,39.60856942181603],[-110.0172692885594,39.609624821343694],[-110.01737362200484,39.61178982125468],[-110.01684602235171,39.61293882125169],[-110.01599588837747,39.61379942151671],[-110.01445302238872,39.61442355401786],[-110.01208422177415,39.61621042153537],[-110.0122100221341,39.61735395410466],[-110.01002522213184,39.62315202157175],[-110.00994828926387,39.62355782147129],[-110.01046662230235,39.62406762185588],[-110.00997002131793,39.62453022123959],[-110.00822682220532,39.62524582131967],[-110.00708288919081,39.62526355434112],[-110.00430122208097,39.62459702148327],[-110.0037462224047,39.62416382126964],[-110.00236002161023,39.624250821167806],[-110.00070448867726,39.62330282198141],[-109.9984156883158,39.62392035445466],[-109.99684788867548,39.62575775497276],[-109.99668562237727,39.62666802174435],[-109.99694942180605,39.62758222113842],[-109.99857528846783,39.62910675492513],[-109.99900402172375,39.62991235441097],[-109.99885602133172,39.631317154464114],[-110.01005328846631,39.637114621643676],[-110.01083662162142,39.63948315496784],[-110.01014908879671,39.64534335472276],[-110.00845802203251,39.646855954538836],[-110.00523462214863,39.64719622119178],[-110.00070122151571,39.645740221312],[-109.99997688924397,39.64521775453033],[-109.99645828945359,39.645335621765796],[-109.99307888927594,39.648596421493664],[-109.99144122160313,39.652256821550914],[-109.98874842221656,39.65371095491042],[-109.98676182231225,39.65642342143856],[-109.98634088927666,39.658968354312194],[-109.98645228864001,39.66008975474922],[-109.98699348932101,39.66050642137819],[-109.98639808941572,39.6613745548665],[-109.9843724215691,39.66285635457299],[-109.98401802156933,39.66375942163376],[-109.983775288693,39.665289821108225],[-109.9846960888042,39.66744555434381],[-109.9849322218588,39.669276554195214],[-109.98578188945098,39.670948221227256],[-109.98596848861341,39.6732567544884],[-109.98688822209166,39.675011554513766],[-109.98636228902116,39.67695682126811],[-109.98414222247685,39.67856875443482],[-109.98369922210055,39.679207421435834],[-109.98413568936058,39.680952354520606],[-109.98477722249851,39.681803821387064],[-109.98699628850065,39.68366335478785],[-109.98748122201725,39.68454082156788],[-109.98962582200049,39.685174754465855],[-109.99326888838593,39.68543702114725],[-109.99605402188189,39.685054754130775],[-110.00233982162021,39.68297235495827],[-110.0031360885641,39.68296815464894],[-110.00442422206652,39.68385255477847],[-110.00468122201336,39.686255021454315],[-110.00428662192456,39.68749842175446],[-110.00273928874014,39.68880335432052],[-110.00025342176512,39.68913355495703],[-109.99805362181301,39.68983955445074],[-109.995644888477,39.69121382161238],[-109.99428922205549,39.692531354805055],[-109.99310588887332,39.69470162170407],[-109.99268348932104,39.697339821425864],[-109.99304308927414,39.700973621302424],[-109.9921224888666,39.702668354266656],[-109.98846962233198,39.70399322126816],[-109.98556962156118,39.704396354518735],[-109.98261848935422,39.704397954689426],[-109.97980348836754,39.70337362156357],[-109.97746048848978,39.703611154887156],[-109.97197862225806,39.70549615417587],[-109.96983602256029,39.70947022191157],[-109.96985682218859,39.71045895425945],[-109.97069662171415,39.71137275437737],[-109.97525228914051,39.71396702110425],[-109.97831568954352,39.7165042216728],[-109.98062848860728,39.72123175470511],[-109.98167322216851,39.72467922159804],[-109.98259362196312,39.725939621109575],[-109.98581688914767,39.72780222138435],[-109.99024888855332,39.729236021913835],[-109.9915128894389,39.73036755420232],[-109.99274808833988,39.73298722142281],[-109.99264908944976,39.73636422168307],[-109.99124722209143,39.73883475419073],[-109.987320822291,39.74023955426937],[-109.97083428870495,39.74228055436737],[-109.96801748908177,39.74223902146984],[-109.96540042226404,39.74168855442403],[-109.96299508940034,39.739826954912665],[-109.96200582136977,39.7384285544131],[-109.96139168927279,39.73668742168451],[-109.96115028924271,39.73476282190188],[-109.96233902150479,39.7313901542954],[-109.96223262197259,39.72710495413395],[-109.96268728871586,39.72619722146351],[-109.96234388895255,39.724903421568335],[-109.9609948884331,39.72283715456306],[-109.95834368938931,39.721297421242994],[-109.95402102225935,39.71977015433479],[-109.95279968912534,39.7186989548582],[-109.94995008887683,39.71900282128745],[-109.94781508883321,39.721894554812316],[-109.94771508890527,39.722854821458355],[-109.94866782220815,39.72476382117272],[-109.95120848953324,39.72748362165056],[-109.95307348919346,39.73021382128871],[-109.95371628874528,39.73286155438895],[-109.95358868921885,39.73425002110275],[-109.95157128848896,39.73640135469428],[-109.949265288527,39.73740215457197],[-109.948002089472,39.73719842142613],[-109.94699502205927,39.73793082112484],[-109.94496862208825,39.74251515494929],[-109.94443268852994,39.746854821203364],[-109.94490508950513,39.748539821261474],[-109.94405142261495,39.74946035487906],[-109.94248962140641,39.74968775458315],[-109.94083508886898,39.74946395499763],[-109.93799328929497,39.7487240212901],[-109.936732821533,39.747866621610335],[-109.93269528889951,39.74667602167417],[-109.93104522194311,39.74663882115185],[-109.9294788885404,39.747618621238864],[-109.92839662151586,39.74996495445223],[-109.92786682220785,39.753843221095714],[-109.9268454224736,39.7554706216016],[-109.92647622164397,39.75815842147699],[-109.9264920223396,39.76217915441401],[-109.92615722189228,39.76357662144973],[-109.92544702221822,39.76439395442958],[-109.92426348908488,39.76726655459109],[-109.92287822173803,39.76939022129829],[-109.92053048952684,39.77205435426586],[-109.91948062196892,39.77409875452557],[-109.9191488889129,39.7775558212059],[-109.92055908929343,39.78251775463201],[-109.9264878222181,39.788554154541075],[-109.92886022169886,39.79395875457575],[-109.92892522212398,39.795727821298875],[-109.9280862216414,39.79703275435565],[-109.9251010220386,39.79897695458705],[-109.9236260893157,39.79949055430636],[-109.9226092887128,39.799398754551916],[-109.92118728886649,39.798352954750754],[-109.92032902201345,39.795867821461385],[-109.91999868923195,39.79376662152518],[-109.92030448848209,39.78787602149272],[-109.9196530884483,39.78627175422632],[-109.91819688858341,39.78561555462982],[-109.91036308865479,39.78443275423882],[-109.90912302353345,39.78451995492529],[-109.89985902273536,39.78821675417491],[-109.89565488910796,39.78844602118182],[-109.89201048857419,39.7879608218457],[-109.8871328892403,39.78535462174062],[-109.88260142326419,39.783383154623415],[-109.87982148923447,39.78271922134554],[-109.87822622310085,39.78275882151642],[-109.8752856890722,39.783658554513785],[-109.87256302284653,39.786037821728534],[-109.87140382349382,39.788575021185984],[-109.87133408898784,39.78979375440928],[-109.87159688895078,39.7915703547895],[-109.87146048887847,39.78989922195489],[-109.87174888905083,39.78967695451112],[-109.87179348892323,39.78825475466986],[-109.87235482265324,39.78701895452004],[-109.87239268854333,39.788623154681126],[-109.87291308858327,39.789885954713256],[-109.87487888850846,39.79245902128863],[-109.87736642339351,39.794482354580836],[-109.87995988900784,39.79569382154448],[-109.88478242290937,39.7964378217915],[-109.8891058233702,39.7976822214237],[-109.89192648853908,39.79939535497852],[-109.89235608889295,39.800129954961754],[-109.89222262284066,39.80135342144849],[-109.8901678225625,39.80337155437646],[-109.88476242311542,39.80429182131713],[-109.8823263258924,39.80620154216443],[-109.86934275227743,39.806201882493745],[-109.87104191357214,39.803629651779374]]]}}]}