{"type":"FeatureCollection","features":[{"type":"Feature","properties":{"name":"Main Salmon \u2014 Corn Creek \u2192 Carey Creek","length_mi":80.19,"point_count":805,"segment_count":1},"geometry":{"type":"MultiLineString","coordinates":[[[-114.687745,45.369543],[-114.687994,45.369721],[-114.689089,45.369907],[-114.6901,45.369653],[-114.691721,45.369001],[-114.693434,45.368676],[-114.694228,45.368649],[-114.694945,45.368773],[-114.695678,45.369095],[-114.697186,45.370426],[-114.698121,45.371634],[-114.698937,45.373807],[-114.699114,45.37514],[-114.699135,45.376774],[-114.699382,45.377221],[-114.700692,45.378307],[-114.701602,45.378549],[-114.704626,45.378885],[-114.705661,45.379137],[-114.706401,45.379342],[-114.707158,45.379887],[-114.708261,45.383098],[-114.708266,45.383517],[-114.708835,45.385953],[-114.709135,45.386869],[-114.709412,45.387284],[-114.711741,45.388849],[-114.712614,45.38966],[-114.713553,45.391137],[-114.714478,45.393268],[-114.715118,45.394252],[-114.715944,45.395041],[-114.717177,45.395996],[-114.718597,45.396475],[-114.72068,45.396889],[-114.722695,45.3972],[-114.724531,45.397309],[-114.725642,45.397265],[-114.72745,45.396983],[-114.730035,45.396338],[-114.730938,45.395984],[-114.732367,45.395219],[-114.733061,45.395121],[-114.734983,45.395387],[-114.737097,45.39492],[-114.739251,45.394872],[-114.742755,45.394491],[-114.744668,45.394589],[-114.745687,45.394927],[-114.746776,45.395508],[-114.748073,45.395695],[-114.749747,45.395656],[-114.754625,45.39446],[-114.756932,45.393259],[-114.760149,45.392439],[-114.766919,45.391683],[-114.770415,45.390851],[-114.772852,45.390959],[-114.77492,45.390753],[-114.775716,45.390585],[-114.779312,45.39053],[-114.783148,45.390696],[-114.785331,45.390388],[-114.787168,45.389931],[-114.790131,45.389626],[-114.793434,45.389809],[-114.795318,45.390364],[-114.798188,45.391427],[-114.801694,45.393308],[-114.803438,45.393936],[-114.804456,45.394131],[-114.805198,45.394196],[-114.808277,45.393876],[-114.809241,45.393456],[-114.810245,45.393174],[-114.812698,45.392913],[-114.813524,45.393135],[-114.81564,45.393937],[-114.817624,45.395552],[-114.819215,45.396203],[-114.82089,45.396588],[-114.822295,45.397293],[-114.823593,45.397761],[-114.82675,45.399122],[-114.827176,45.399629],[-114.830287,45.401111],[-114.833331,45.403055],[-114.833841,45.403998],[-114.83482,45.404856],[-114.837325,45.40735],[-114.840725,45.409695],[-114.842896,45.410831],[-114.845901,45.412214],[-114.848241,45.413523],[-114.849492,45.413967],[-114.851269,45.414847],[-114.852898,45.41521],[-114.856457,45.415298],[-114.858497,45.415549],[-114.859315,45.415743],[-114.860166,45.416189],[-114.861943,45.417774],[-114.862854,45.418437],[-114.864593,45.419319],[-114.865026,45.419428],[-114.865504,45.419417],[-114.868034,45.418295],[-114.87022,45.417788],[-114.871045,45.417729],[-114.871895,45.417748],[-114.872535,45.417885],[-114.872898,45.418031],[-114.873524,45.418536],[-114.874358,45.418785],[-114.875557,45.419746],[-114.877404,45.42101],[-114.878726,45.421699],[-114.87997,45.422541],[-114.884229,45.424794],[-114.885775,45.425846],[-114.886472,45.426596],[-114.886968,45.427486],[-114.887277,45.428289],[-114.887481,45.430999],[-114.887407,45.431127],[-114.888206,45.433218],[-114.888973,45.434071],[-114.889815,45.434771],[-114.891044,45.435133],[-114.891794,45.435226],[-114.89422,45.436266],[-114.896784,45.436666],[-114.898099,45.437046],[-114.899606,45.437679],[-114.900085,45.437951],[-114.900619,45.438554],[-114.9012,45.439461],[-114.902006,45.440025],[-114.903088,45.441143],[-114.90523,45.442592],[-114.90973,45.445014],[-114.910467,45.445582],[-114.910939,45.446109],[-114.915176,45.448419],[-114.916815,45.448951],[-114.918129,45.449046],[-114.919233,45.448974],[-114.92097,45.448303],[-114.922737,45.447883],[-114.923463,45.447892],[-114.924522,45.448081],[-114.925256,45.448401],[-114.926246,45.449195],[-114.931341,45.453785],[-114.931697,45.454329],[-114.931841,45.455949],[-114.932083,45.456649],[-114.932431,45.457164],[-114.933616,45.458071],[-114.933881,45.458456],[-114.933895,45.458624],[-114.934484,45.459277],[-114.935358,45.459802],[-114.936494,45.460122],[-114.937747,45.460284],[-114.939638,45.460015],[-114.940395,45.459993],[-114.941292,45.460175],[-114.941996,45.460527],[-114.943389,45.46146],[-114.943993,45.462166],[-114.945391,45.464512],[-114.94649,45.465402],[-114.947318,45.465906],[-114.949545,45.466381],[-114.955811,45.466791],[-114.956585,45.466963],[-114.957226,45.467239],[-114.959718,45.468498],[-114.960186,45.469563],[-114.960218,45.470235],[-114.960351,45.470698],[-114.960631,45.471111],[-114.961173,45.4716],[-114.962024,45.472326],[-114.963078,45.472913],[-114.964384,45.473404],[-114.968062,45.475992],[-114.968358,45.476459],[-114.970227,45.478624],[-114.970524,45.479515],[-114.971596,45.481426],[-114.972745,45.483045],[-114.974249,45.484218],[-114.975254,45.484781],[-114.976199,45.485126],[-114.978288,45.486385],[-114.97915,45.487139],[-114.979677,45.487856],[-114.980253,45.48916],[-114.98119,45.492136],[-114.981702,45.492658],[-114.984094,45.493279],[-114.987463,45.493393],[-114.988677,45.4937],[-114.990217,45.4943],[-114.995823,45.496726],[-114.997294,45.49779],[-114.998162,45.498288],[-115.000453,45.499121],[-115.001876,45.499455],[-115.002497,45.499931],[-115.004067,45.500499],[-115.005757,45.501335],[-115.006346,45.501843],[-115.009807,45.503388],[-115.013573,45.505706],[-115.01448,45.506623],[-115.015565,45.507175],[-115.018382,45.507878],[-115.020531,45.507938],[-115.023235,45.507695],[-115.025877,45.507091],[-115.027516,45.507054],[-115.029563,45.506762],[-115.032316,45.506822],[-115.037991,45.508784],[-115.040259,45.509817],[-115.041205,45.510446],[-115.042099,45.511308],[-115.042814,45.512252],[-115.043333,45.51266],[-115.044511,45.513114],[-115.045446,45.51329],[-115.046097,45.513312],[-115.04673,45.513137],[-115.048473,45.512208],[-115.05086,45.510171],[-115.051663,45.509604],[-115.052402,45.509244],[-115.055035,45.50847],[-115.056604,45.508331],[-115.057717,45.508427],[-115.059536,45.508874],[-115.061357,45.509463],[-115.06196,45.509744],[-115.06336,45.509854],[-115.064274,45.510092],[-115.06477,45.510416],[-115.065766,45.511773],[-115.066879,45.513537],[-115.067774,45.516492],[-115.068321,45.517406],[-115.068785,45.517762],[-115.070365,45.518215],[-115.071347,45.518272],[-115.076574,45.516875],[-115.078043,45.516665],[-115.079909,45.517132],[-115.081536,45.517891],[-115.083119,45.519049],[-115.084033,45.51957],[-115.086218,45.520304],[-115.087402,45.520502],[-115.089727,45.520057],[-115.091013,45.520325],[-115.09154,45.520759],[-115.092061,45.521447],[-115.092787,45.522702],[-115.093355,45.523412],[-115.096215,45.524954],[-115.097045,45.525175],[-115.102281,45.527141],[-115.105328,45.528486],[-115.10691,45.529364],[-115.109264,45.530349],[-115.110574,45.530478],[-115.113125,45.530537],[-115.114372,45.530811],[-115.116379,45.531485],[-115.120286,45.533301],[-115.126036,45.536749],[-115.127035,45.537143],[-115.127781,45.537631],[-115.129766,45.538506],[-115.131827,45.539087],[-115.134353,45.540027],[-115.13659,45.540615],[-115.139475,45.541726],[-115.140616,45.542324],[-115.142552,45.542753],[-115.143671,45.543555],[-115.144995,45.54396],[-115.14882,45.545902],[-115.151601,45.547849],[-115.152284,45.548118],[-115.153914,45.549159],[-115.154835,45.549421],[-115.155872,45.549387],[-115.156785,45.549481],[-115.162309,45.550754],[-115.162736,45.550975],[-115.164312,45.552276],[-115.164525,45.552558],[-115.16597,45.553652],[-115.166314,45.554282],[-115.16637,45.555716],[-115.167826,45.557261],[-115.168348,45.558091],[-115.16916,45.559079],[-115.170356,45.559869],[-115.171904,45.561174],[-115.173629,45.562398],[-115.174516,45.563232],[-115.175346,45.563593],[-115.176605,45.564459],[-115.17724,45.564568],[-115.178063,45.564902],[-115.180258,45.565943],[-115.184475,45.567007],[-115.186705,45.567338],[-115.191588,45.56737],[-115.193319,45.566951],[-115.194116,45.566922],[-115.195564,45.567196],[-115.197785,45.567214],[-115.201509,45.567415],[-115.203787,45.567907],[-115.205344,45.568135],[-115.208319,45.568811],[-115.209921,45.568921],[-115.212471,45.569516],[-115.21378,45.569722],[-115.215041,45.569626],[-115.21582,45.569401],[-115.218805,45.568036],[-115.219183,45.567672],[-115.219578,45.565435],[-115.21992,45.564536],[-115.22064,45.563555],[-115.221508,45.562665],[-115.224187,45.560809],[-115.225569,45.559336],[-115.226986,45.558397],[-115.228683,45.557585],[-115.230408,45.557421],[-115.231298,45.557577],[-115.233035,45.558147],[-115.233578,45.558211],[-115.234041,45.558144],[-115.237464,45.556488],[-115.239221,45.555473],[-115.242017,45.552635],[-115.242513,45.551856],[-115.243465,45.550841],[-115.243801,45.550198],[-115.245935,45.547853],[-115.247058,45.546049],[-115.248249,45.544887],[-115.249186,45.543659],[-115.249206,45.543474],[-115.249656,45.542674],[-115.250345,45.541868],[-115.252431,45.540462],[-115.25314,45.539852],[-115.253863,45.539435],[-115.254541,45.53914],[-115.255801,45.538901],[-115.25845,45.538603],[-115.25989,45.538707],[-115.26296,45.539566],[-115.265814,45.539691],[-115.266434,45.539602],[-115.267976,45.539094],[-115.268467,45.538713],[-115.270821,45.535883],[-115.27179,45.535063],[-115.273984,45.533756],[-115.275195,45.533496],[-115.282053,45.533127],[-115.2852,45.533152],[-115.286152,45.533242],[-115.288883,45.534317],[-115.290148,45.534926],[-115.290985,45.535175],[-115.294407,45.535584],[-115.295247,45.535463],[-115.295541,45.535335],[-115.296687,45.534434],[-115.298273,45.532563],[-115.299951,45.531555],[-115.301069,45.531111],[-115.301939,45.530645],[-115.303014,45.529782],[-115.304365,45.528484],[-115.306168,45.527768],[-115.308215,45.526509],[-115.311753,45.524979],[-115.313977,45.52378],[-115.315834,45.522436],[-115.316496,45.5218],[-115.321603,45.518485],[-115.322193,45.51775],[-115.322314,45.512948],[-115.322737,45.510822],[-115.323116,45.509917],[-115.323201,45.509112],[-115.323823,45.507522],[-115.32524,45.504905],[-115.325414,45.503895],[-115.325234,45.501771],[-115.325569,45.500165],[-115.325836,45.499702],[-115.326694,45.498785],[-115.328082,45.497621],[-115.332783,45.494987],[-115.334073,45.494035],[-115.33431,45.493746],[-115.334198,45.490623],[-115.333959,45.488845],[-115.334223,45.48728],[-115.335069,45.48577],[-115.335474,45.485371],[-115.336314,45.485079],[-115.337489,45.484966],[-115.338478,45.485048],[-115.340494,45.484925],[-115.34226,45.484499],[-115.344869,45.484065],[-115.34663,45.484034],[-115.348105,45.48385],[-115.349378,45.483523],[-115.350162,45.483181],[-115.350399,45.482892],[-115.350511,45.482311],[-115.35003,45.481361],[-115.349446,45.480881],[-115.349203,45.480463],[-115.34909,45.4798],[-115.349212,45.478708],[-115.349592,45.478085],[-115.350122,45.477698],[-115.351169,45.477291],[-115.352774,45.477],[-115.353206,45.476825],[-115.353458,45.476591],[-115.353944,45.475643],[-115.354489,45.475309],[-115.355213,45.475034],[-115.358418,45.474851],[-115.36159,45.474419],[-115.36633,45.473021],[-115.368328,45.472703],[-115.371927,45.472492],[-115.374613,45.471364],[-115.37749,45.47089],[-115.378457,45.47089],[-115.379616,45.471004],[-115.38067,45.471305],[-115.381477,45.471725],[-115.381861,45.472207],[-115.382182,45.473433],[-115.382898,45.474913],[-115.383974,45.475974],[-115.385568,45.476874],[-115.386517,45.476821],[-115.387272,45.476514],[-115.390961,45.47442],[-115.393652,45.472218],[-115.394489,45.470141],[-115.395845,45.468869],[-115.396974,45.468055],[-115.39955,45.46683],[-115.40181,45.466016],[-115.404767,45.46542],[-115.407538,45.465129],[-115.411417,45.464366],[-115.415402,45.462737],[-115.417807,45.46216],[-115.419055,45.461753],[-115.424126,45.459711],[-115.425456,45.459034],[-115.426215,45.458471],[-115.427707,45.457801],[-115.428275,45.457406],[-115.428664,45.456954],[-115.430683,45.455612],[-115.433148,45.45347],[-115.435219,45.451355],[-115.437197,45.449057],[-115.437668,45.448195],[-115.438317,45.447536],[-115.440035,45.446265],[-115.441181,45.445108],[-115.442119,45.444063],[-115.442474,45.443219],[-115.442426,45.442096],[-115.442497,45.441518],[-115.443387,45.440313],[-115.443922,45.43981],[-115.446024,45.439023],[-115.447012,45.438284],[-115.448326,45.437555],[-115.454227,45.435615],[-115.455881,45.434809],[-115.456801,45.434249],[-115.457313,45.433807],[-115.457633,45.433393],[-115.457928,45.432755],[-115.459162,45.431074],[-115.461052,45.428081],[-115.461876,45.427055],[-115.462262,45.426319],[-115.462725,45.424751],[-115.462915,45.423761],[-115.462931,45.422994],[-115.462595,45.421995],[-115.462287,45.420541],[-115.462423,45.419643],[-115.462886,45.418756],[-115.463457,45.418105],[-115.465196,45.416776],[-115.466141,45.416297],[-115.467257,45.415994],[-115.467987,45.415603],[-115.468339,45.415298],[-115.468503,45.414905],[-115.468435,45.413585],[-115.468801,45.413051],[-115.469466,45.412444],[-115.470795,45.411769],[-115.472554,45.411057],[-115.473517,45.410776],[-115.474403,45.410647],[-115.476826,45.410547],[-115.477585,45.410124],[-115.478447,45.409232],[-115.478902,45.408458],[-115.479027,45.40782],[-115.478939,45.405991],[-115.478648,45.404873],[-115.477518,45.403086],[-115.477176,45.402202],[-115.477027,45.400611],[-115.477361,45.399967],[-115.481587,45.396859],[-115.482824,45.39628],[-115.486744,45.394859],[-115.487738,45.394683],[-115.490469,45.394538],[-115.491014,45.394346],[-115.491482,45.394022],[-115.492084,45.393339],[-115.492762,45.391825],[-115.494938,45.388536],[-115.495304,45.388069],[-115.496564,45.386938],[-115.499822,45.384745],[-115.502077,45.383705],[-115.503626,45.383831],[-115.504787,45.383781],[-115.505285,45.383618],[-115.5057,45.383174],[-115.506078,45.382468],[-115.506561,45.380268],[-115.50732,45.378145],[-115.507449,45.376736],[-115.507749,45.376189],[-115.508094,45.375932],[-115.508945,45.375688],[-115.50979,45.375564],[-115.510508,45.375578],[-115.511286,45.375937],[-115.511403,45.376186],[-115.511265,45.376856],[-115.511496,45.377356],[-115.51278,45.37829],[-115.513486,45.37869],[-115.514832,45.380119],[-115.51609,45.380821],[-115.518261,45.381628],[-115.527486,45.384563],[-115.532526,45.385272],[-115.534798,45.385145],[-115.537146,45.385274],[-115.540113,45.385222],[-115.543231,45.38497],[-115.550694,45.38479],[-115.552575,45.3849],[-115.55363,45.384775],[-115.554816,45.384807],[-115.558448,45.38516],[-115.560978,45.385617],[-115.561789,45.385941],[-115.562788,45.386621],[-115.565007,45.387448],[-115.566711,45.388234],[-115.568045,45.38863],[-115.568629,45.388898],[-115.569156,45.389367],[-115.569994,45.389674],[-115.571665,45.390494],[-115.573608,45.391095],[-115.575233,45.391476],[-115.578246,45.392572],[-115.58153,45.393302],[-115.583102,45.393927],[-115.585196,45.395039],[-115.589665,45.395091],[-115.59074,45.395318],[-115.591721,45.395647],[-115.592135,45.39591],[-115.59306,45.397047],[-115.593427,45.397351],[-115.595431,45.397901],[-115.5964,45.397933],[-115.597286,45.397686],[-115.601009,45.3952],[-115.601749,45.394884],[-115.602108,45.394832],[-115.604882,45.395041],[-115.607786,45.396111],[-115.609817,45.396632],[-115.612976,45.397018],[-115.614038,45.397507],[-115.615249,45.398211],[-115.617107,45.399553],[-115.618026,45.400678],[-115.618933,45.402043],[-115.619702,45.402665],[-115.622193,45.404034],[-115.623521,45.404424],[-115.625925,45.404869],[-115.626568,45.405255],[-115.627259,45.405794],[-115.627778,45.406517],[-115.627916,45.407241],[-115.628097,45.407589],[-115.630716,45.409015],[-115.631803,45.409866],[-115.63369,45.41188],[-115.634777,45.412734],[-115.63603,45.414148],[-115.636804,45.414649],[-115.637935,45.415091],[-115.638801,45.415584],[-115.640146,45.416525],[-115.641485,45.417713],[-115.641855,45.418192],[-115.64341,45.419348],[-115.647203,45.4214],[-115.648656,45.422466],[-115.649579,45.423021],[-115.650437,45.424122],[-115.651005,45.424251],[-115.652241,45.425349],[-115.654789,45.426783],[-115.657175,45.427925],[-115.65766,45.42828],[-115.65953,45.428962],[-115.660508,45.429193],[-115.661431,45.429748],[-115.66514,45.431013],[-115.665785,45.431398],[-115.666555,45.43347],[-115.667116,45.434081],[-115.668009,45.434535],[-115.668635,45.434601],[-115.670968,45.434045],[-115.671973,45.434107],[-115.674859,45.434642],[-115.678309,45.435037],[-115.680673,45.435595],[-115.681375,45.435916],[-115.685186,45.437007],[-115.686621,45.437754],[-115.687853,45.438585],[-115.688838,45.439345],[-115.689534,45.440149],[-115.690193,45.440585],[-115.695622,45.443034],[-115.698212,45.443078],[-115.699083,45.442949],[-115.700713,45.44308],[-115.703062,45.443585],[-115.704718,45.443554],[-115.70576,45.443406],[-115.706608,45.443541],[-115.707349,45.443484],[-115.707556,45.443667],[-115.70798,45.443818],[-115.709984,45.44368],[-115.711165,45.443827],[-115.712027,45.444177],[-115.717588,45.444528],[-115.718829,45.444877],[-115.720268,45.444878],[-115.722284,45.444524],[-115.724151,45.443928],[-115.725943,45.443076],[-115.727565,45.442675],[-115.728815,45.442545],[-115.729907,45.442649],[-115.733194,45.443762],[-115.737319,45.444375],[-115.738808,45.444796],[-115.73974,45.444869],[-115.743925,45.444676],[-115.748354,45.444285],[-115.752005,45.444329],[-115.753724,45.444502],[-115.754411,45.444772],[-115.755237,45.445502],[-115.756658,45.446199],[-115.757971,45.446538],[-115.759114,45.44706],[-115.759805,45.447599],[-115.760062,45.4482],[-115.760146,45.448987],[-115.760738,45.449699],[-115.765914,45.451544],[-115.768062,45.452131],[-115.771983,45.45459],[-115.775124,45.457481],[-115.778094,45.459548],[-115.779736,45.460476],[-115.780482,45.460685],[-115.782759,45.462213],[-115.784089,45.462602],[-115.784899,45.463281],[-115.785748,45.463583],[-115.787918,45.463741],[-115.791224,45.464902],[-115.793866,45.465629],[-115.795967,45.466811],[-115.797934,45.467052],[-115.799238,45.467605],[-115.800464,45.467901],[-115.803546,45.467817],[-115.807068,45.467932],[-115.808425,45.468158],[-115.809311,45.468079],[-115.813558,45.467074],[-115.816498,45.466262],[-115.81798,45.466149],[-115.820848,45.466361],[-115.822754,45.466397],[-115.825119,45.465939],[-115.82618,45.46594],[-115.829287,45.466438],[-115.833363,45.466631],[-115.837022,45.466001],[-115.840156,45.464766],[-115.841801,45.463934],[-115.84513,45.462904],[-115.848004,45.462635],[-115.849674,45.462385],[-115.852007,45.461824],[-115.855722,45.461325],[-115.857189,45.461159],[-115.858747,45.461299],[-115.859924,45.461176],[-115.861256,45.460819],[-115.862583,45.460193],[-115.863672,45.460031],[-115.864532,45.460116],[-115.867926,45.459557],[-115.874941,45.458935],[-115.876724,45.459078],[-115.879374,45.459983],[-115.880833,45.460083],[-115.881895,45.459871],[-115.884511,45.459747],[-115.888076,45.459],[-115.888817,45.458943],[-115.889972,45.459251],[-115.891437,45.459832],[-115.892866,45.460046],[-115.896544,45.459921],[-115.899456,45.459272],[-115.90087,45.459436],[-115.901801,45.459398],[-115.903353,45.459062],[-115.904274,45.458979],[-115.905693,45.459087],[-115.908335,45.4588],[-115.911532,45.458588],[-115.912838,45.458393],[-115.915267,45.458402],[-115.917136,45.458817],[-115.918825,45.458883],[-115.922661,45.459535],[-115.925401,45.459819],[-115.92701,45.459776],[-115.928294,45.459871],[-115.930778,45.459547],[-115.933079,45.458883],[-115.935058,45.458159],[-115.937494,45.457688],[-115.938608,45.457361],[-115.940744,45.456401],[-115.942181,45.454638],[-115.942555,45.454368],[-115.94396,45.453999],[-115.945651,45.453747]]]}}]}