{"type":"FeatureCollection","features":[{"type":"Feature","properties":{"fid":26},"geometry":{"type":"MultiPolygon","coordinates":[[[[-115.66318024739604,45.4428680659798],[-115.66052303173232,45.44183033779549],[-115.65963011261265,45.44137621220961],[-115.65960639330642,45.441358624408466],[-115.66021823357083,45.44026708131259],[-115.6608927982806,45.43906360418247],[-115.66292218233897,45.43544283784685],[-115.66449969135151,45.432628130742636],[-115.66515579388559,45.433058806826395],[-115.66535583073306,45.43332943893674],[-115.66592513534943,45.434099587279796],[-115.66841538658954,45.43511354804445],[-115.66823080884981,45.43543952278861],[-115.66617975832511,45.43906195526906],[-115.66554480392946,45.44018326579399],[-115.66535855711993,45.4404136850553],[-115.66352405807089,45.442682875109895],[-115.66334794240817,45.442900510508586],[-115.66318024739604,45.4428680659798]]],[[[-115.51474888618101,45.36708871340196],[-115.5149758567455,45.3671450390636],[-115.51853767979372,45.368509856053656],[-115.5188369990642,45.368672701465094],[-115.51894297470976,45.3687309874057],[-115.51919463085581,45.368870904279255],[-115.52101038003762,45.37022688545648],[-115.51814461117732,45.37159262500087],[-115.51476328597258,45.37141286578665],[-115.5151147940483,45.3703259202059],[-115.51477611211818,45.369832819008366],[-115.51400507822837,45.368710203998006],[-115.51379367769256,45.36835476572254],[-115.51365799615203,45.36769207824937],[-115.51367639634401,45.366977387937986],[-115.51367165721577,45.36694812599395],[-115.51474888618101,45.36708871340196]]],[[[-115.61827375676154,45.399244990772914],[-115.61953705215569,45.399242880239036],[-115.62468014610916,45.39923707027826],[-115.62596559305992,45.399236597836506],[-115.6259684901267,45.40286177113294],[-115.62725384095772,45.40286187394077],[-115.62725573909793,45.4052987718243],[-115.62669302901405,45.40493575989348],[-115.62584075867646,45.40453103212866],[-115.62468423524032,45.404194059726414],[-115.62372688267574,45.403915112027626],[-115.62137735432148,45.40286306096123],[-115.6200400727822,45.402264233739466],[-115.61953883890482,45.40202619086302],[-115.6194009196609,45.401960667210496],[-115.61827375676154,45.399244990772914]]],[[[-115.66956033074166,45.431012585156054],[-115.67049724932848,45.43051028980555],[-115.67241541566648,45.42948192180551],[-115.67311148514582,45.42963234872144],[-115.67221057732382,45.43050577919231],[-115.67129579142896,45.431817150268444],[-115.67049847373224,45.43296007510741],[-115.66983648813138,45.433909026147894],[-115.66943365211694,45.433994674031524],[-115.66901556270895,45.43399073922938],[-115.66841335639702,45.43381050394084],[-115.66780778589431,45.43355177004252],[-115.66701922138172,45.432456825024],[-115.66678314681998,45.43182025183404],[-115.66654354457417,45.431174263275096],[-115.66956033074166,45.431012585156054]]],[[[-115.50525117005779,45.3829153957564],[-115.50514978439818,45.383087620274964],[-115.50195904306916,45.38284216312484],[-115.4992733247114,45.383344283129745],[-115.4981379386339,45.382539937761486],[-115.50363001010894,45.37786771104637],[-115.50500551855683,45.37749098780674],[-115.50414744240753,45.37575426589929],[-115.50703815092325,45.376013257704955],[-115.50651634832079,45.37638726731431],[-115.50651227535928,45.37688281901133],[-115.50637800327546,45.377216903985186],[-115.50616308314036,45.37717399219443],[-115.50630714596247,45.37739207121168],[-115.50668960728794,45.37797100406137],[-115.50620244462118,45.37968867102472],[-115.50551425606179,45.38167517482584],[-115.50525117005779,45.3829153957564]]],[[[-115.48902869197124,45.39384816681747],[-115.4868269418711,45.393032250038246],[-115.48760548208345,45.39004539702381],[-115.49118212618382,45.39044213523364],[-115.49154035994607,45.39048185299865],[-115.49118384555925,45.391603960747865],[-115.49050706740063,45.39373401288308],[-115.48902869197124,45.39384816681747]]],[[[-115.46820750079004,45.412787903016074],[-115.46830380198513,45.41241559789653],[-115.4671837249967,45.413019856784665],[-115.46808751012261,45.410772830779656],[-115.46936482372676,45.41197403302989],[-115.46820750079004,45.412787903016074]]],[[[-115.45146988021054,45.41665437219325],[-115.45657710623134,45.418648000923206],[-115.45670062188795,45.42052671229163],[-115.457107508406,45.42238550529292],[-115.45200019794359,45.42039187611666],[-115.45159336801939,45.41853308368692],[-115.45146988021054,45.41665437219325]]],[[[-115.38446692011033,45.47551913027291],[-115.3836990204425,45.474797920155666],[-115.38327355317114,45.47441867724157],[-115.3826279510444,45.473034773728415],[-115.3864352582552,45.47411180727772],[-115.3890334097374,45.473473445778545],[-115.38948386724168,45.47336277381175],[-115.3902503161303,45.473845457159314],[-115.38964328586526,45.47460187822853],[-115.38923686197958,45.47489935407504],[-115.38903624661705,45.47500796697547],[-115.38665369798959,45.47629804600651],[-115.38621257398113,45.47637724485248],[-115.38568158520658,45.4763074750163],[-115.38486119068854,45.47590134713094],[-115.38446692011033,45.47551913027291]]],[[[-115.32693725702647,45.48587653207669],[-115.32715489815858,45.48563400300467],[-115.32731900958122,45.485451113107764],[-115.32858710826721,45.48403787982727],[-115.33456734582718,45.48233206291956],[-115.33437101812352,45.484363113971405],[-115.33480082515604,45.48509366321281],[-115.33449404779157,45.485633997966296],[-115.33407182613333,45.48637769522484],[-115.33343292543863,45.48824628086314],[-115.33353747316804,45.48908988781422],[-115.33362241336972,45.490148550184145],[-115.33352680028412,45.490211773035455],[-115.33278811382937,45.490363031753446],[-115.32982645277926,45.48981409713523],[-115.32731972464016,45.48639780378044],[-115.32693725702647,45.48587653207669]]],[[[-115.31070478967398,45.52665806323985],[-115.31272629281234,45.5289708729604],[-115.31325136528244,45.52897356075806],[-115.31334086892576,45.52905980998419],[-115.31447952666754,45.53015735229348],[-115.30675822293287,45.53326898693404],[-115.29993622262919,45.53601808319221],[-115.29866636773683,45.535311180869],[-115.3014357578751,45.53176136019112],[-115.30442317362439,45.5299214838],[-115.30608180230372,45.5290598219411],[-115.30675651523553,45.528709283742096],[-115.31070478967398,45.52665806323985]]],[[[-115.24742563568392,45.54683489675472],[-115.24910993911243,45.54477431708021],[-115.2505654506212,45.54228123687911],[-115.25309219412311,45.54124439502943],[-115.2557610160687,45.53939296411901],[-115.25612803086287,45.53986240403021],[-115.2535130009348,45.54300175586701],[-115.24794935978281,45.54762953327331],[-115.24742563568392,45.54683489675472]]],[[[-115.22683669313967,45.5655143747091],[-115.2268104228075,45.56652018393297],[-115.22563707572273,45.567254505023755],[-115.22602374026543,45.568299726036365],[-115.22647307307898,45.56951433573586],[-115.22609925534316,45.569752813284374],[-115.22532843435405,45.56829973295399],[-115.22495596678611,45.56759759595107],[-115.22235078059693,45.56818798709201],[-115.22186365116784,45.568299741758175],[-115.22134065919593,45.56841969291944],[-115.22112581631595,45.568299722263106],[-115.2205201487952,45.56796156098973],[-115.22106830167986,45.56708938599804],[-115.22112866307707,45.566725605862025],[-115.22029134699403,45.566336112879846],[-115.22040400920537,45.56531177591543],[-115.22101836433323,45.56480707285176],[-115.22118030991771,45.56410592991008],[-115.22454223420728,45.56182888687349],[-115.22683669313967,45.5655143747091]]]]}}]}