{
  "type": "FeatureCollection",
  "features": [
    {
      "type": "Feature",
      "properties": {
        "name": "Boundary Creek Put-in",
        "category": "access",
        "kind": "putin",
        "distance_from_putin_mi": 0.0,
        "river_mi": 0.0,
        "grade": null,
        "description": null,
        "source": "curated"
      },
      "geometry": {
        "type": "Point",
        "coordinates": [
          -115.294245,
          44.531894
        ]
      }
    },
    {
      "type": "Feature",
      "properties": {
        "name": "First Bend Rapid",
        "category": "rapid",
        "kind": "rapid",
        "distance_from_putin_mi": 0.06,
        "river_mi": 0.06,
        "grade": "II-III",
        "description": null,
        "source": "curated"
      },
      "geometry": {
        "type": "Point",
        "coordinates": [
          -115.294733,
          44.532834
        ]
      }
    },
    {
      "type": "Feature",
      "properties": {
        "name": "Murph's Hole Rapids",
        "category": "rapid",
        "kind": "rapid",
        "distance_from_putin_mi": 0.84,
        "river_mi": 0.84,
        "grade": "III-IV",
        "description": null,
        "source": "curated"
      },
      "geometry": {
        "type": "Point",
        "coordinates": [
          -115.290404,
          44.543138
        ]
      }
    },
    {
      "type": "Feature",
      "properties": {
        "name": "Teepee Hole Campsite",
        "category": "camp",
        "kind": "camp",
        "distance_from_putin_mi": 1.1,
        "river_mi": 1.1,
        "grade": null,
        "description": null,
        "source": "curated"
      },
      "geometry": {
        "type": "Point",
        "coordinates": [
          -115.294588,
          44.54521
        ]
      }
    },
    {
      "type": "Feature",
      "properties": {
        "name": "Cable Hole Campsite",
        "category": "camp",
        "kind": "camp",
        "distance_from_putin_mi": 1.68,
        "river_mi": 1.68,
        "grade": null,
        "description": null,
        "source": "curated"
      },
      "geometry": {
        "type": "Point",
        "coordinates": [
          -115.298043,
          44.552168
        ]
      }
    },
    {
      "type": "Feature",
      "properties": {
        "name": "Gardells Hole Campsite",
        "category": "camp",
        "kind": "camp",
        "distance_from_putin_mi": 2.86,
        "river_mi": 2.86,
        "grade": null,
        "description": null,
        "source": "curated"
      },
      "geometry": {
        "type": "Point",
        "coordinates": [
          -115.300822,
          44.566781
        ]
      }
    },
    {
      "type": "Feature",
      "properties": {
        "name": "Sulphur Slide Rapid",
        "category": "rapid",
        "kind": "rapid",
        "distance_from_putin_mi": 3.01,
        "river_mi": 3.01,
        "grade": "III-IV",
        "description": null,
        "source": "curated"
      },
      "geometry": {
        "type": "Point",
        "coordinates": [
          -115.300982,
          44.568611
        ]
      }
    },
    {
      "type": "Feature",
      "properties": {
        "name": "Spring Campsite",
        "category": "camp",
        "kind": "camp",
        "distance_from_putin_mi": 3.24,
        "river_mi": 3.24,
        "grade": null,
        "description": null,
        "source": "curated"
      },
      "geometry": {
        "type": "Point",
        "coordinates": [
          -115.302458,
          44.571283
        ]
      }
    },
    {
      "type": "Feature",
      "properties": {
        "name": "Ramshorn Rapids",
        "category": "rapid",
        "kind": "rapid",
        "distance_from_putin_mi": 3.9,
        "river_mi": 3.9,
        "grade": "III",
        "description": null,
        "source": "curated"
      },
      "geometry": {
        "type": "Point",
        "coordinates": [
          -115.304579,
          44.580157
        ]
      }
    },
    {
      "type": "Feature",
      "properties": {
        "name": "Hells Half Mile Rapids",
        "category": "rapid",
        "kind": "rapid",
        "distance_from_putin_mi": 4.64,
        "river_mi": 4.64,
        "grade": "III-IV",
        "description": null,
        "source": "curated"
      },
      "geometry": {
        "type": "Point",
        "coordinates": [
          -115.295233,
          44.587874
        ]
      }
    },
    {
      "type": "Feature",
      "properties": {
        "name": "Velvet Falls",
        "category": "rapid",
        "kind": "rapid",
        "distance_from_putin_mi": 5.23,
        "river_mi": 5.23,
        "grade": "IV",
        "description": null,
        "source": "curated"
      },
      "geometry": {
        "type": "Point",
        "coordinates": [
          -115.291097,
          44.595227
        ]
      }
    },
    {
      "type": "Feature",
      "properties": {
        "name": "Boy Scout Campsite",
        "category": "camp",
        "kind": "camp",
        "distance_from_putin_mi": 5.5,
        "river_mi": 5.5,
        "grade": null,
        "description": null,
        "source": "curated"
      },
      "geometry": {
        "type": "Point",
        "coordinates": [
          -115.289401,
          44.598638
        ]
      }
    },
    {
      "type": "Feature",
      "properties": {
        "name": "Big Bend Campsite",
        "category": "camp",
        "kind": "camp",
        "distance_from_putin_mi": 6.65,
        "river_mi": 6.65,
        "grade": null,
        "description": null,
        "source": "curated"
      },
      "geometry": {
        "type": "Point",
        "coordinates": [
          -115.279391,
          44.611765
        ]
      }
    },
    {
      "type": "Feature",
      "properties": {
        "name": "Trail Flat Campsite",
        "category": "camp",
        "kind": "camp",
        "distance_from_putin_mi": 7.23,
        "river_mi": 7.23,
        "grade": null,
        "description": null,
        "source": "curated"
      },
      "geometry": {
        "type": "Point",
        "coordinates": [
          -115.269094,
          44.608805
        ]
      }
    },
    {
      "type": "Feature",
      "properties": {
        "name": "The Chutes",
        "category": "rapid",
        "kind": "rapid",
        "distance_from_putin_mi": 7.86,
        "river_mi": 7.86,
        "grade": "III-III+",
        "description": null,
        "source": "curated"
      },
      "geometry": {
        "type": "Point",
        "coordinates": [
          -115.259381,
          44.608045
        ]
      }
    },
    {
      "type": "Feature",
      "properties": {
        "name": "Elkhorn Bar Campsite",
        "category": "camp",
        "kind": "camp",
        "distance_from_putin_mi": 8.75,
        "river_mi": 8.75,
        "grade": null,
        "description": null,
        "source": "curated"
      },
      "geometry": {
        "type": "Point",
        "coordinates": [
          -115.250316,
          44.616706
        ]
      }
    },
    {
      "type": "Feature",
      "properties": {
        "name": "Rapid Campsite",
        "category": "camp",
        "kind": "camp",
        "distance_from_putin_mi": 8.96,
        "river_mi": 8.96,
        "grade": null,
        "description": null,
        "source": "curated"
      },
      "geometry": {
        "type": "Point",
        "coordinates": [
          -115.247607,
          44.618688
        ]
      }
    },
    {
      "type": "Feature",
      "properties": {
        "name": "Saddle Campsite",
        "category": "camp",
        "kind": "camp",
        "distance_from_putin_mi": 9.48,
        "river_mi": 9.48,
        "grade": null,
        "description": null,
        "source": "curated"
      },
      "geometry": {
        "type": "Point",
        "coordinates": [
          -115.238299,
          44.621762
        ]
      }
    },
    {
      "type": "Feature",
      "properties": {
        "name": "Boot Campsite",
        "category": "camp",
        "kind": "camp",
        "distance_from_putin_mi": 9.61,
        "river_mi": 9.61,
        "grade": null,
        "description": null,
        "source": "curated"
      },
      "geometry": {
        "type": "Point",
        "coordinates": [
          -115.235547,
          44.621235
        ]
      }
    },
    {
      "type": "Feature",
      "properties": {
        "name": "Powerhouse Rapids",
        "category": "rapid",
        "kind": "rapid",
        "distance_from_putin_mi": 11.49,
        "river_mi": 11.49,
        "grade": "III-IV",
        "description": null,
        "source": "curated"
      },
      "geometry": {
        "type": "Point",
        "coordinates": [
          -115.220025,
          44.629282
        ]
      }
    },
    {
      "type": "Feature",
      "properties": {
        "name": "Joe Bump Campsite",
        "category": "camp",
        "kind": "camp",
        "distance_from_putin_mi": 11.97,
        "river_mi": 11.97,
        "grade": null,
        "description": null,
        "source": "curated"
      },
      "geometry": {
        "type": "Point",
        "coordinates": [
          -115.21299,
          44.625815
        ]
      }
    },
    {
      "type": "Feature",
      "properties": {
        "name": "Thimbleberry Campsite",
        "category": "camp",
        "kind": "camp",
        "distance_from_putin_mi": 12.69,
        "river_mi": 12.69,
        "grade": null,
        "description": null,
        "source": "curated"
      },
      "geometry": {
        "type": "Point",
        "coordinates": [
          -115.203838,
          44.625496
        ]
      }
    },
    {
      "type": "Feature",
      "properties": {
        "name": "Scout Campsite",
        "category": "camp",
        "kind": "camp",
        "distance_from_putin_mi": 12.99,
        "river_mi": 12.99,
        "grade": null,
        "description": null,
        "source": "curated"
      },
      "geometry": {
        "type": "Point",
        "coordinates": [
          -115.198544,
          44.624622
        ]
      }
    },
    {
      "type": "Feature",
      "properties": {
        "name": "Sheepeater Campsite",
        "category": "camp",
        "kind": "camp",
        "distance_from_putin_mi": 13.23,
        "river_mi": 13.23,
        "grade": null,
        "description": null,
        "source": "curated"
      },
      "geometry": {
        "type": "Point",
        "coordinates": [
          -115.19694,
          44.627649
        ]
      }
    },
    {
      "type": "Feature",
      "properties": {
        "name": "Fire Island Campsite",
        "category": "camp",
        "kind": "camp",
        "distance_from_putin_mi": 13.97,
        "river_mi": 13.97,
        "grade": null,
        "description": null,
        "source": "curated"
      },
      "geometry": {
        "type": "Point",
        "coordinates": [
          -115.190095,
          44.636399
        ]
      }
    },
    {
      "type": "Feature",
      "properties": {
        "name": "Lake Creek Campsite",
        "category": "camp",
        "kind": "camp",
        "distance_from_putin_mi": 14.74,
        "river_mi": 14.74,
        "grade": null,
        "description": null,
        "source": "curated"
      },
      "geometry": {
        "type": "Point",
        "coordinates": [
          -115.180267,
          44.643002
        ]
      }
    },
    {
      "type": "Feature",
      "properties": {
        "name": "John's Campsite",
        "category": "camp",
        "kind": "camp",
        "distance_from_putin_mi": 15.1,
        "river_mi": 15.1,
        "grade": null,
        "description": null,
        "source": "curated"
      },
      "geometry": {
        "type": "Point",
        "coordinates": [
          -115.177515,
          44.645418
        ]
      }
    },
    {
      "type": "Feature",
      "properties": {
        "name": "Oakie Point Campsite",
        "category": "camp",
        "kind": "camp",
        "distance_from_putin_mi": 15.61,
        "river_mi": 15.61,
        "grade": null,
        "description": null,
        "source": "curated"
      },
      "geometry": {
        "type": "Point",
        "coordinates": [
          -115.16832,
          44.647849
        ]
      }
    },
    {
      "type": "Feature",
      "properties": {
        "name": "Greyhound Rapids",
        "category": "rapid",
        "kind": "rapid",
        "distance_from_putin_mi": 15.83,
        "river_mi": 15.83,
        "grade": "II-III",
        "description": null,
        "source": "curated"
      },
      "geometry": {
        "type": "Point",
        "coordinates": [
          -115.166768,
          44.650333
        ]
      }
    },
    {
      "type": "Feature",
      "properties": {
        "name": "Greyhound Campsite",
        "category": "camp",
        "kind": "camp",
        "distance_from_putin_mi": 15.84,
        "river_mi": 15.84,
        "grade": null,
        "description": null,
        "source": "curated"
      },
      "geometry": {
        "type": "Point",
        "coordinates": [
          -115.166765,
          44.649954
        ]
      }
    },
    {
      "type": "Feature",
      "properties": {
        "name": "Dome Hole Campsite",
        "category": "camp",
        "kind": "camp",
        "distance_from_putin_mi": 15.94,
        "river_mi": 15.94,
        "grade": null,
        "description": null,
        "source": "curated"
      },
      "geometry": {
        "type": "Point",
        "coordinates": [
          -115.165611,
          44.65096
        ]
      }
    },
    {
      "type": "Feature",
      "properties": {
        "name": "Artillery Rapids",
        "category": "rapid",
        "kind": "rapid",
        "distance_from_putin_mi": 17.56,
        "river_mi": 17.56,
        "grade": "III",
        "description": null,
        "source": "curated"
      },
      "geometry": {
        "type": "Point",
        "coordinates": [
          -115.156323,
          44.670661
        ]
      }
    },
    {
      "type": "Feature",
      "properties": {
        "name": "Rapid River Campsite",
        "category": "camp",
        "kind": "camp",
        "distance_from_putin_mi": 18.26,
        "river_mi": 18.26,
        "grade": null,
        "description": null,
        "source": "curated"
      },
      "geometry": {
        "type": "Point",
        "coordinates": [
          -115.152528,
          44.680166
        ]
      }
    },
    {
      "type": "Feature",
      "properties": {
        "name": "Dolly Lake Campsite",
        "category": "camp",
        "kind": "camp",
        "distance_from_putin_mi": 19.36,
        "river_mi": 19.36,
        "grade": null,
        "description": null,
        "source": "curated"
      },
      "geometry": {
        "type": "Point",
        "coordinates": [
          -115.147214,
          44.694397
        ]
      }
    },
    {
      "type": "Feature",
      "properties": {
        "name": "Big Snag Campsite",
        "category": "camp",
        "kind": "camp",
        "distance_from_putin_mi": 19.59,
        "river_mi": 19.59,
        "grade": null,
        "description": null,
        "source": "curated"
      },
      "geometry": {
        "type": "Point",
        "coordinates": [
          -115.149507,
          44.69626
        ]
      }
    },
    {
      "type": "Feature",
      "properties": {
        "name": "Canon Creek Rapids",
        "category": "rapid",
        "kind": "rapid",
        "distance_from_putin_mi": 19.85,
        "river_mi": 19.85,
        "grade": "III",
        "description": null,
        "source": "curated"
      },
      "geometry": {
        "type": "Point",
        "coordinates": [
          -115.14942,
          44.699229
        ]
      }
    },
    {
      "type": "Feature",
      "properties": {
        "name": "Lake Creek Rapids",
        "category": "rapid",
        "kind": "rapid",
        "distance_from_putin_mi": 21.49,
        "river_mi": 21.49,
        "grade": "III",
        "description": null,
        "source": "curated"
      },
      "geometry": {
        "type": "Point",
        "coordinates": [
          -115.141992,
          44.719153
        ]
      }
    },
    {
      "type": "Feature",
      "properties": {
        "name": "Pistol Creek Rapids Stage 1",
        "category": "rapid",
        "kind": "rapid",
        "distance_from_putin_mi": 21.93,
        "river_mi": 21.93,
        "grade": "III-IV",
        "description": null,
        "source": "curated"
      },
      "geometry": {
        "type": "Point",
        "coordinates": [
          -115.148584,
          44.722402
        ]
      }
    },
    {
      "type": "Feature",
      "properties": {
        "name": "Pistol Creek Campsite",
        "category": "camp",
        "kind": "camp",
        "distance_from_putin_mi": 21.99,
        "river_mi": 21.99,
        "grade": null,
        "description": null,
        "source": "curated"
      },
      "geometry": {
        "type": "Point",
        "coordinates": [
          -115.150023,
          44.72289
        ]
      }
    },
    {
      "type": "Feature",
      "properties": {
        "name": "Pistol Creek Rapids Stage 2",
        "category": "rapid",
        "kind": "rapid",
        "distance_from_putin_mi": 22.5,
        "river_mi": 22.5,
        "grade": "III-IV",
        "description": null,
        "source": "curated"
      },
      "geometry": {
        "type": "Point",
        "coordinates": [
          -115.150936,
          44.730185
        ]
      }
    },
    {
      "type": "Feature",
      "properties": {
        "name": "Airplane Campsite",
        "category": "camp",
        "kind": "camp",
        "distance_from_putin_mi": 24.83,
        "river_mi": 24.83,
        "grade": null,
        "description": null,
        "source": "curated"
      },
      "geometry": {
        "type": "Point",
        "coordinates": [
          -115.119714,
          44.753854
        ]
      }
    },
    {
      "type": "Feature",
      "properties": {
        "name": "Indian Creek Beach Campsite",
        "category": "camp",
        "kind": "camp",
        "distance_from_putin_mi": 25.16,
        "river_mi": 25.16,
        "grade": null,
        "description": null,
        "source": "curated"
      },
      "geometry": {
        "type": "Point",
        "coordinates": [
          -115.114366,
          44.757034
        ]
      }
    },
    {
      "type": "Feature",
      "properties": {
        "name": "Indian Creek Campsite",
        "category": "camp",
        "kind": "camp",
        "distance_from_putin_mi": 26.74,
        "river_mi": 26.74,
        "grade": null,
        "description": null,
        "source": "curated"
      },
      "geometry": {
        "type": "Point",
        "coordinates": [
          -115.090885,
          44.769824
        ]
      }
    },
    {
      "type": "Feature",
      "properties": {
        "name": "Anderson Campsite",
        "category": "camp",
        "kind": "camp",
        "distance_from_putin_mi": 27.74,
        "river_mi": 27.74,
        "grade": null,
        "description": null,
        "source": "curated"
      },
      "geometry": {
        "type": "Point",
        "coordinates": [
          -115.075521,
          44.766176
        ]
      }
    },
    {
      "type": "Feature",
      "properties": {
        "name": "Pungo Creek Campsite",
        "category": "camp",
        "kind": "camp",
        "distance_from_putin_mi": 27.81,
        "river_mi": 27.81,
        "grade": null,
        "description": null,
        "source": "curated"
      },
      "geometry": {
        "type": "Point",
        "coordinates": [
          -115.074185,
          44.765288
        ]
      }
    },
    {
      "type": "Feature",
      "properties": {
        "name": "Little Soldier Campsite",
        "category": "camp",
        "kind": "camp",
        "distance_from_putin_mi": 31.28,
        "river_mi": 31.28,
        "grade": null,
        "description": null,
        "source": "curated"
      },
      "geometry": {
        "type": "Point",
        "coordinates": [
          -115.031356,
          44.735203
        ]
      }
    },
    {
      "type": "Feature",
      "properties": {
        "name": "Marble Creek Left Campsite",
        "category": "camp",
        "kind": "camp",
        "distance_from_putin_mi": 32.08,
        "river_mi": 32.08,
        "grade": null,
        "description": null,
        "source": "curated"
      },
      "geometry": {
        "type": "Point",
        "coordinates": [
          -115.021866,
          44.743754
        ]
      }
    },
    {
      "type": "Feature",
      "properties": {
        "name": "Marble Creek Rapids",
        "category": "rapid",
        "kind": "rapid",
        "distance_from_putin_mi": 32.14,
        "river_mi": 32.14,
        "grade": "III",
        "description": null,
        "source": "curated"
      },
      "geometry": {
        "type": "Point",
        "coordinates": [
          -115.020537,
          44.743816
        ]
      }
    },
    {
      "type": "Feature",
      "properties": {
        "name": "Marble Creek Right Campsite",
        "category": "camp",
        "kind": "camp",
        "distance_from_putin_mi": 32.3,
        "river_mi": 32.3,
        "grade": null,
        "description": null,
        "source": "curated"
      },
      "geometry": {
        "type": "Point",
        "coordinates": [
          -115.017612,
          44.74306
        ]
      }
    },
    {
      "type": "Feature",
      "properties": {
        "name": "Ski Jump Rapid",
        "category": "rapid",
        "kind": "rapid",
        "distance_from_putin_mi": 32.71,
        "river_mi": 32.71,
        "grade": "II-IV",
        "description": "Highly flow-dependent",
        "source": "curated"
      },
      "geometry": {
        "type": "Point",
        "coordinates": [
          -115.014542,
          44.737965
        ]
      }
    },
    {
      "type": "Feature",
      "properties": {
        "name": "Lost Oak Campsite",
        "category": "camp",
        "kind": "camp",
        "distance_from_putin_mi": 33.27,
        "river_mi": 33.27,
        "grade": null,
        "description": null,
        "source": "curated"
      },
      "geometry": {
        "type": "Point",
        "coordinates": [
          -115.017644,
          44.731046
        ]
      }
    },
    {
      "type": "Feature",
      "properties": {
        "name": "Sunflower Flat Campsite",
        "category": "camp",
        "kind": "camp",
        "distance_from_putin_mi": 33.3,
        "river_mi": 33.3,
        "grade": null,
        "description": null,
        "source": "curated"
      },
      "geometry": {
        "type": "Point",
        "coordinates": [
          -115.018959,
          44.730485
        ]
      }
    },
    {
      "type": "Feature",
      "properties": {
        "name": "Stateland Right Campsite",
        "category": "camp",
        "kind": "camp",
        "distance_from_putin_mi": 35.18,
        "river_mi": 35.18,
        "grade": null,
        "description": null,
        "source": "curated"
      },
      "geometry": {
        "type": "Point",
        "coordinates": [
          -115.005161,
          44.719566
        ]
      }
    },
    {
      "type": "Feature",
      "properties": {
        "name": "Stateland Left Campsite",
        "category": "camp",
        "kind": "camp",
        "distance_from_putin_mi": 35.24,
        "river_mi": 35.24,
        "grade": null,
        "description": null,
        "source": "curated"
      },
      "geometry": {
        "type": "Point",
        "coordinates": [
          -115.003488,
          44.720076
        ]
      }
    },
    {
      "type": "Feature",
      "properties": {
        "name": "Little Creek Campsite",
        "category": "camp",
        "kind": "camp",
        "distance_from_putin_mi": 36.25,
        "river_mi": 36.25,
        "grade": null,
        "description": null,
        "source": "curated"
      },
      "geometry": {
        "type": "Point",
        "coordinates": [
          -114.994883,
          44.727844
        ]
      }
    },
    {
      "type": "Feature",
      "properties": {
        "name": "Hood Ranch Campsite",
        "category": "camp",
        "kind": "camp",
        "distance_from_putin_mi": 36.28,
        "river_mi": 36.28,
        "grade": null,
        "description": null,
        "source": "curated"
      },
      "geometry": {
        "type": "Point",
        "coordinates": [
          -114.994556,
          44.728808
        ]
      }
    },
    {
      "type": "Feature",
      "properties": {
        "name": "Sunflower Hot Springs",
        "category": "note",
        "kind": "note",
        "distance_from_putin_mi": 36.33,
        "river_mi": 36.33,
        "grade": null,
        "description": null,
        "source": "curated"
      },
      "geometry": {
        "type": "Point",
        "coordinates": [
          -114.993607,
          44.729224
        ]
      }
    },
    {
      "type": "Feature",
      "properties": {
        "name": "Jackass Rapid",
        "category": "rapid",
        "kind": "rapid",
        "distance_from_putin_mi": 37.64,
        "river_mi": 37.64,
        "grade": "II-III",
        "description": null,
        "source": "curated"
      },
      "geometry": {
        "type": "Point",
        "coordinates": [
          -114.970599,
          44.725509
        ]
      }
    },
    {
      "type": "Feature",
      "properties": {
        "name": "Upper Jackass Flat Campsite",
        "category": "camp",
        "kind": "camp",
        "distance_from_putin_mi": 37.69,
        "river_mi": 37.69,
        "grade": null,
        "description": null,
        "source": "curated"
      },
      "geometry": {
        "type": "Point",
        "coordinates": [
          -114.970711,
          44.724704
        ]
      }
    },
    {
      "type": "Feature",
      "properties": {
        "name": "Lower Jackass Flat Campsite",
        "category": "camp",
        "kind": "camp",
        "distance_from_putin_mi": 38.14,
        "river_mi": 38.14,
        "grade": null,
        "description": null,
        "source": "curated"
      },
      "geometry": {
        "type": "Point",
        "coordinates": [
          -114.96252,
          44.722329
        ]
      }
    },
    {
      "type": "Feature",
      "properties": {
        "name": "Mahoney Campsite",
        "category": "camp",
        "kind": "camp",
        "distance_from_putin_mi": 41.87,
        "river_mi": 41.87,
        "grade": null,
        "description": null,
        "source": "curated"
      },
      "geometry": {
        "type": "Point",
        "coordinates": [
          -114.916555,
          44.750808
        ]
      }
    },
    {
      "type": "Feature",
      "properties": {
        "name": "Pine Creek Flat Campsite",
        "category": "camp",
        "kind": "camp",
        "distance_from_putin_mi": 43.33,
        "river_mi": 43.33,
        "grade": null,
        "description": null,
        "source": "curated"
      },
      "geometry": {
        "type": "Point",
        "coordinates": [
          -114.895751,
          44.760196
        ]
      }
    },
    {
      "type": "Feature",
      "properties": {
        "name": "Culver Creek Campsite",
        "category": "camp",
        "kind": "camp",
        "distance_from_putin_mi": 45.43,
        "river_mi": 45.43,
        "grade": null,
        "description": null,
        "source": "curated"
      },
      "geometry": {
        "type": "Point",
        "coordinates": [
          -114.86834,
          44.779168
        ]
      }
    },
    {
      "type": "Feature",
      "properties": {
        "name": "Cox Hot Springs",
        "category": "note",
        "kind": "note",
        "distance_from_putin_mi": 46.29,
        "river_mi": 46.29,
        "grade": null,
        "description": null,
        "source": "curated"
      },
      "geometry": {
        "type": "Point",
        "coordinates": [
          -114.857058,
          44.783572
        ]
      }
    },
    {
      "type": "Feature",
      "properties": {
        "name": "Whitie Cox Campsite",
        "category": "camp",
        "kind": "camp",
        "distance_from_putin_mi": 46.31,
        "river_mi": 46.31,
        "grade": null,
        "description": null,
        "source": "curated"
      },
      "geometry": {
        "type": "Point",
        "coordinates": [
          -114.856234,
          44.7834
        ]
      }
    },
    {
      "type": "Feature",
      "properties": {
        "name": "Rock Island Campsite",
        "category": "camp",
        "kind": "camp",
        "distance_from_putin_mi": 46.55,
        "river_mi": 46.55,
        "grade": null,
        "description": null,
        "source": "curated"
      },
      "geometry": {
        "type": "Point",
        "coordinates": [
          -114.853617,
          44.782479
        ]
      }
    },
    {
      "type": "Feature",
      "properties": {
        "name": "White Creek Rapids",
        "category": "rapid",
        "kind": "rapid",
        "distance_from_putin_mi": 47.51,
        "river_mi": 47.51,
        "grade": "II-III",
        "description": null,
        "source": "curated"
      },
      "geometry": {
        "type": "Point",
        "coordinates": [
          -114.841683,
          44.790816
        ]
      }
    },
    {
      "type": "Feature",
      "properties": {
        "name": "White Creek Campsite",
        "category": "camp",
        "kind": "camp",
        "distance_from_putin_mi": 47.67,
        "river_mi": 47.67,
        "grade": null,
        "description": null,
        "source": "curated"
      },
      "geometry": {
        "type": "Point",
        "coordinates": [
          -114.841386,
          44.792884
        ]
      }
    },
    {
      "type": "Feature",
      "properties": {
        "name": "Shelf Rapids",
        "category": "rapid",
        "kind": "rapid",
        "distance_from_putin_mi": 48.32,
        "river_mi": 48.32,
        "grade": "II-III",
        "description": null,
        "source": "curated"
      },
      "geometry": {
        "type": "Point",
        "coordinates": [
          -114.835022,
          44.800908
        ]
      }
    },
    {
      "type": "Feature",
      "properties": {
        "name": "Shelf Campsite",
        "category": "camp",
        "kind": "camp",
        "distance_from_putin_mi": 48.44,
        "river_mi": 48.44,
        "grade": null,
        "description": null,
        "source": "curated"
      },
      "geometry": {
        "type": "Point",
        "coordinates": [
          -114.833575,
          44.802202
        ]
      }
    },
    {
      "type": "Feature",
      "properties": {
        "name": "Jack Creek Rapids",
        "category": "rapid",
        "kind": "rapid",
        "distance_from_putin_mi": 49.2,
        "river_mi": 49.2,
        "grade": "II-III",
        "description": null,
        "source": "curated"
      },
      "geometry": {
        "type": "Point",
        "coordinates": [
          -114.820916,
          44.805369
        ]
      }
    },
    {
      "type": "Feature",
      "properties": {
        "name": "Loon Creek Hot Spring",
        "category": "note",
        "kind": "note",
        "distance_from_putin_mi": 49.58,
        "river_mi": 49.58,
        "grade": null,
        "description": null,
        "source": "curated"
      },
      "geometry": {
        "type": "Point",
        "coordinates": [
          -114.805678,
          44.798801
        ]
      }
    },
    {
      "type": "Feature",
      "properties": {
        "name": "Big Loon Access",
        "category": "access",
        "kind": "boat_ramp",
        "distance_from_putin_mi": 49.7,
        "river_mi": 49.7,
        "grade": null,
        "description": null,
        "source": "curated"
      },
      "geometry": {
        "type": "Point",
        "coordinates": [
          -114.812161,
          44.808201
        ]
      }
    },
    {
      "type": "Feature",
      "properties": {
        "name": "Big Loon Campsite",
        "category": "camp",
        "kind": "camp",
        "distance_from_putin_mi": 49.71,
        "river_mi": 49.71,
        "grade": null,
        "description": null,
        "source": "curated"
      },
      "geometry": {
        "type": "Point",
        "coordinates": [
          -114.811739,
          44.808197
        ]
      }
    },
    {
      "type": "Feature",
      "properties": {
        "name": "Cave Campsite",
        "category": "camp",
        "kind": "camp",
        "distance_from_putin_mi": 52.1,
        "river_mi": 52.1,
        "grade": null,
        "description": null,
        "source": "curated"
      },
      "geometry": {
        "type": "Point",
        "coordinates": [
          -114.792484,
          44.835878
        ]
      }
    },
    {
      "type": "Feature",
      "properties": {
        "name": "Hospital Hot Spring",
        "category": "note",
        "kind": "note",
        "distance_from_putin_mi": 52.15,
        "river_mi": 52.15,
        "grade": null,
        "description": null,
        "source": "curated"
      },
      "geometry": {
        "type": "Point",
        "coordinates": [
          -114.791186,
          44.83603
        ]
      }
    },
    {
      "type": "Feature",
      "properties": {
        "name": "Hospital Bar Campsite",
        "category": "camp",
        "kind": "camp",
        "distance_from_putin_mi": 52.35,
        "river_mi": 52.35,
        "grade": null,
        "description": null,
        "source": "curated"
      },
      "geometry": {
        "type": "Point",
        "coordinates": [
          -114.78948,
          44.834071
        ]
      }
    },
    {
      "type": "Feature",
      "properties": {
        "name": "Cub Creek Campsite",
        "category": "camp",
        "kind": "camp",
        "distance_from_putin_mi": 53.21,
        "river_mi": 53.21,
        "grade": null,
        "description": null,
        "source": "curated"
      },
      "geometry": {
        "type": "Point",
        "coordinates": [
          -114.779231,
          44.841012
        ]
      }
    },
    {
      "type": "Feature",
      "properties": {
        "name": "Upper Grouse Campsite",
        "category": "camp",
        "kind": "camp",
        "distance_from_putin_mi": 56.37,
        "river_mi": 56.37,
        "grade": null,
        "description": null,
        "source": "curated"
      },
      "geometry": {
        "type": "Point",
        "coordinates": [
          -114.768124,
          44.870249
        ]
      }
    },
    {
      "type": "Feature",
      "properties": {
        "name": "Lower Grouse Campsite",
        "category": "camp",
        "kind": "camp",
        "distance_from_putin_mi": 56.57,
        "river_mi": 56.57,
        "grade": null,
        "description": null,
        "source": "curated"
      },
      "geometry": {
        "type": "Point",
        "coordinates": [
          -114.768015,
          44.872262
        ]
      }
    },
    {
      "type": "Feature",
      "properties": {
        "name": "Tappan Island Campsite",
        "category": "camp",
        "kind": "camp",
        "distance_from_putin_mi": 57.09,
        "river_mi": 57.09,
        "grade": null,
        "description": null,
        "source": "curated"
      },
      "geometry": {
        "type": "Point",
        "coordinates": [
          -114.760109,
          44.874488
        ]
      }
    },
    {
      "type": "Feature",
      "properties": {
        "name": "Tiny Tappan Campsite",
        "category": "camp",
        "kind": "camp",
        "distance_from_putin_mi": 57.38,
        "river_mi": 57.38,
        "grade": null,
        "description": null,
        "source": "curated"
      },
      "geometry": {
        "type": "Point",
        "coordinates": [
          -114.754866,
          44.872832
        ]
      }
    },
    {
      "type": "Feature",
      "properties": {
        "name": "Tappan I Rapids",
        "category": "rapid",
        "kind": "rapid",
        "distance_from_putin_mi": 57.88,
        "river_mi": 57.88,
        "grade": "II-III",
        "description": null,
        "source": "curated"
      },
      "geometry": {
        "type": "Point",
        "coordinates": [
          -114.752675,
          44.87809
        ]
      }
    },
    {
      "type": "Feature",
      "properties": {
        "name": "Tappan Falls Campsite",
        "category": "camp",
        "kind": "camp",
        "distance_from_putin_mi": 58.01,
        "river_mi": 58.01,
        "grade": null,
        "description": null,
        "source": "curated"
      },
      "geometry": {
        "type": "Point",
        "coordinates": [
          -114.75051,
          44.879437
        ]
      }
    },
    {
      "type": "Feature",
      "properties": {
        "name": "Tappan Falls",
        "category": "rapid",
        "kind": "rapid",
        "distance_from_putin_mi": 58.05,
        "river_mi": 58.05,
        "grade": "III-IV",
        "description": null,
        "source": "curated"
      },
      "geometry": {
        "type": "Point",
        "coordinates": [
          -114.749578,
          44.879106
        ]
      }
    },
    {
      "type": "Feature",
      "properties": {
        "name": "Tappan II Rapids",
        "category": "rapid",
        "kind": "rapid",
        "distance_from_putin_mi": 58.48,
        "river_mi": 58.48,
        "grade": "II-III",
        "description": null,
        "source": "curated"
      },
      "geometry": {
        "type": "Point",
        "coordinates": [
          -114.740869,
          44.879574
        ]
      }
    },
    {
      "type": "Feature",
      "properties": {
        "name": "Tappan III Rapids",
        "category": "rapid",
        "kind": "rapid",
        "distance_from_putin_mi": 58.65,
        "river_mi": 58.65,
        "grade": "II-III",
        "description": null,
        "source": "curated"
      },
      "geometry": {
        "type": "Point",
        "coordinates": [
          -114.737663,
          44.878933
        ]
      }
    },
    {
      "type": "Feature",
      "properties": {
        "name": "Tappan IV Rapids",
        "category": "rapid",
        "kind": "rapid",
        "distance_from_putin_mi": 58.98,
        "river_mi": 58.98,
        "grade": "II-III",
        "description": null,
        "source": "curated"
      },
      "geometry": {
        "type": "Point",
        "coordinates": [
          -114.73208,
          44.880579
        ]
      }
    },
    {
      "type": "Feature",
      "properties": {
        "name": "Camas Creek Campsite",
        "category": "camp",
        "kind": "camp",
        "distance_from_putin_mi": 59.97,
        "river_mi": 59.97,
        "grade": null,
        "description": null,
        "source": "curated"
      },
      "geometry": {
        "type": "Point",
        "coordinates": [
          -114.722508,
          44.891668
        ]
      }
    },
    {
      "type": "Feature",
      "properties": {
        "name": "Johnny Walker Campsite",
        "category": "camp",
        "kind": "camp",
        "distance_from_putin_mi": 60.82,
        "river_mi": 60.82,
        "grade": null,
        "description": null,
        "source": "curated"
      },
      "geometry": {
        "type": "Point",
        "coordinates": [
          -114.730326,
          44.898881
        ]
      }
    },
    {
      "type": "Feature",
      "properties": {
        "name": "Pool Campsite",
        "category": "camp",
        "kind": "camp",
        "distance_from_putin_mi": 61.38,
        "river_mi": 61.38,
        "grade": null,
        "description": null,
        "source": "curated"
      },
      "geometry": {
        "type": "Point",
        "coordinates": [
          -114.728642,
          44.905017
        ]
      }
    },
    {
      "type": "Feature",
      "properties": {
        "name": "Funston Campsite",
        "category": "camp",
        "kind": "camp",
        "distance_from_putin_mi": 61.69,
        "river_mi": 61.69,
        "grade": null,
        "description": null,
        "source": "curated"
      },
      "geometry": {
        "type": "Point",
        "coordinates": [
          -114.732657,
          44.908347
        ]
      }
    },
    {
      "type": "Feature",
      "properties": {
        "name": "Broken Oar Campsite",
        "category": "camp",
        "kind": "camp",
        "distance_from_putin_mi": 61.88,
        "river_mi": 61.88,
        "grade": null,
        "description": null,
        "source": "curated"
      },
      "geometry": {
        "type": "Point",
        "coordinates": [
          -114.732126,
          44.910958
        ]
      }
    },
    {
      "type": "Feature",
      "properties": {
        "name": "Aparejo Rapids",
        "category": "rapid",
        "kind": "rapid",
        "distance_from_putin_mi": 62.68,
        "river_mi": 62.68,
        "grade": "II-III",
        "description": null,
        "source": "curated"
      },
      "geometry": {
        "type": "Point",
        "coordinates": [
          -114.730556,
          44.920731
        ]
      }
    },
    {
      "type": "Feature",
      "properties": {
        "name": "Normandy Campsite",
        "category": "camp",
        "kind": "camp",
        "distance_from_putin_mi": 63.31,
        "river_mi": 63.31,
        "grade": null,
        "description": null,
        "source": "curated"
      },
      "geometry": {
        "type": "Point",
        "coordinates": [
          -114.734459,
          44.928051
        ]
      }
    },
    {
      "type": "Feature",
      "properties": {
        "name": "Trail Campsite",
        "category": "camp",
        "kind": "camp",
        "distance_from_putin_mi": 63.62,
        "river_mi": 63.62,
        "grade": null,
        "description": null,
        "source": "curated"
      },
      "geometry": {
        "type": "Point",
        "coordinates": [
          -114.728006,
          44.928957
        ]
      }
    },
    {
      "type": "Feature",
      "properties": {
        "name": "Sheep Creek Campsite",
        "category": "camp",
        "kind": "camp",
        "distance_from_putin_mi": 64.64,
        "river_mi": 64.64,
        "grade": null,
        "description": null,
        "source": "curated"
      },
      "geometry": {
        "type": "Point",
        "coordinates": [
          -114.727993,
          44.942229
        ]
      }
    },
    {
      "type": "Feature",
      "properties": {
        "name": "Flying B Campsite",
        "category": "camp",
        "kind": "camp",
        "distance_from_putin_mi": 66.09,
        "river_mi": 66.09,
        "grade": null,
        "description": null,
        "source": "curated"
      },
      "geometry": {
        "type": "Point",
        "coordinates": [
          -114.733888,
          44.957806
        ]
      }
    },
    {
      "type": "Feature",
      "properties": {
        "name": "Flying B Airport Campsite",
        "category": "camp",
        "kind": "camp",
        "distance_from_putin_mi": 66.87,
        "river_mi": 66.87,
        "grade": null,
        "description": null,
        "source": "curated"
      },
      "geometry": {
        "type": "Point",
        "coordinates": [
          -114.729881,
          44.968688
        ]
      }
    },
    {
      "type": "Feature",
      "properties": {
        "name": "Haystack Rapids",
        "category": "rapid",
        "kind": "rapid",
        "distance_from_putin_mi": 67.38,
        "river_mi": 67.38,
        "grade": "III",
        "description": null,
        "source": "curated"
      },
      "geometry": {
        "type": "Point",
        "coordinates": [
          -114.73604,
          44.973931
        ]
      }
    },
    {
      "type": "Feature",
      "properties": {
        "name": "Bernard Creek Campsite",
        "category": "camp",
        "kind": "camp",
        "distance_from_putin_mi": 68.04,
        "river_mi": 68.04,
        "grade": null,
        "description": null,
        "source": "curated"
      },
      "geometry": {
        "type": "Point",
        "coordinates": [
          -114.734521,
          44.982778
        ]
      }
    },
    {
      "type": "Feature",
      "properties": {
        "name": "Short Creek Campsite",
        "category": "camp",
        "kind": "camp",
        "distance_from_putin_mi": 68.12,
        "river_mi": 68.12,
        "grade": null,
        "description": null,
        "source": "curated"
      },
      "geometry": {
        "type": "Point",
        "coordinates": [
          -114.733078,
          44.983666
        ]
      }
    },
    {
      "type": "Feature",
      "properties": {
        "name": "Cold Spring Creek Campsite",
        "category": "camp",
        "kind": "camp",
        "distance_from_putin_mi": 69.24,
        "river_mi": 69.24,
        "grade": null,
        "description": null,
        "source": "curated"
      },
      "geometry": {
        "type": "Point",
        "coordinates": [
          -114.728736,
          44.999556
        ]
      }
    },
    {
      "type": "Feature",
      "properties": {
        "name": "Driftwood Campsite",
        "category": "camp",
        "kind": "camp",
        "distance_from_putin_mi": 71.2,
        "river_mi": 71.2,
        "grade": null,
        "description": null,
        "source": "curated"
      },
      "geometry": {
        "type": "Point",
        "coordinates": [
          -114.725761,
          45.021077
        ]
      }
    },
    {
      "type": "Feature",
      "properties": {
        "name": "Wilson Creek Campsite",
        "category": "camp",
        "kind": "camp",
        "distance_from_putin_mi": 72.12,
        "river_mi": 72.12,
        "grade": null,
        "description": null,
        "source": "curated"
      },
      "geometry": {
        "type": "Point",
        "coordinates": [
          -114.723411,
          45.033407
        ]
      }
    },
    {
      "type": "Feature",
      "properties": {
        "name": "Grassy Flat Campsite I",
        "category": "camp",
        "kind": "camp",
        "distance_from_putin_mi": 72.28,
        "river_mi": 72.28,
        "grade": null,
        "description": null,
        "source": "curated"
      },
      "geometry": {
        "type": "Point",
        "coordinates": [
          -114.726437,
          45.034885
        ]
      }
    },
    {
      "type": "Feature",
      "properties": {
        "name": "Grassy Flat Campsite II",
        "category": "camp",
        "kind": "camp",
        "distance_from_putin_mi": 72.47,
        "river_mi": 72.47,
        "grade": null,
        "description": null,
        "source": "curated"
      },
      "geometry": {
        "type": "Point",
        "coordinates": [
          -114.72579,
          45.037821
        ]
      }
    },
    {
      "type": "Feature",
      "properties": {
        "name": "Survey Campsite",
        "category": "camp",
        "kind": "camp",
        "distance_from_putin_mi": 73.96,
        "river_mi": 73.96,
        "grade": null,
        "description": null,
        "source": "curated"
      },
      "geometry": {
        "type": "Point",
        "coordinates": [
          -114.723494,
          45.055872
        ]
      }
    },
    {
      "type": "Feature",
      "properties": {
        "name": "Wollard Campsite",
        "category": "camp",
        "kind": "camp",
        "distance_from_putin_mi": 74.09,
        "river_mi": 74.09,
        "grade": null,
        "description": null,
        "source": "curated"
      },
      "geometry": {
        "type": "Point",
        "coordinates": [
          -114.723883,
          45.057429
        ]
      }
    },
    {
      "type": "Feature",
      "properties": {
        "name": "Fly Campsite",
        "category": "camp",
        "kind": "camp",
        "distance_from_putin_mi": 74.88,
        "river_mi": 74.88,
        "grade": null,
        "description": null,
        "source": "curated"
      },
      "geometry": {
        "type": "Point",
        "coordinates": [
          -114.725705,
          45.067647
        ]
      }
    },
    {
      "type": "Feature",
      "properties": {
        "name": "Fish Campsite",
        "category": "camp",
        "kind": "camp",
        "distance_from_putin_mi": 76.72,
        "river_mi": 76.72,
        "grade": null,
        "description": null,
        "source": "curated"
      },
      "geometry": {
        "type": "Point",
        "coordinates": [
          -114.72346,
          45.089149
        ]
      }
    },
    {
      "type": "Feature",
      "properties": {
        "name": "Big Creek Campsite",
        "category": "camp",
        "kind": "camp",
        "distance_from_putin_mi": 77.34,
        "river_mi": 77.34,
        "grade": null,
        "description": null,
        "source": "curated"
      },
      "geometry": {
        "type": "Point",
        "coordinates": [
          -114.73362,
          45.094455
        ]
      }
    },
    {
      "type": "Feature",
      "properties": {
        "name": "Last Chance Campsite",
        "category": "camp",
        "kind": "camp",
        "distance_from_putin_mi": 77.49,
        "river_mi": 77.49,
        "grade": null,
        "description": null,
        "source": "curated"
      },
      "geometry": {
        "type": "Point",
        "coordinates": [
          -114.731525,
          45.096305
        ]
      }
    },
    {
      "type": "Feature",
      "properties": {
        "name": "Pine Bluff Campsite",
        "category": "camp",
        "kind": "camp",
        "distance_from_putin_mi": 78.04,
        "river_mi": 78.04,
        "grade": null,
        "description": null,
        "source": "curated"
      },
      "geometry": {
        "type": "Point",
        "coordinates": [
          -114.730916,
          45.103872
        ]
      }
    },
    {
      "type": "Feature",
      "properties": {
        "name": "Cutthroat Cove Rapids",
        "category": "rapid",
        "kind": "rapid",
        "distance_from_putin_mi": 78.1,
        "river_mi": 78.1,
        "grade": "II",
        "description": null,
        "source": "curated"
      },
      "geometry": {
        "type": "Point",
        "coordinates": [
          -114.730679,
          45.104829
        ]
      }
    },
    {
      "type": "Feature",
      "properties": {
        "name": "Cutthroat Cove Campsite",
        "category": "camp",
        "kind": "camp",
        "distance_from_putin_mi": 78.21,
        "river_mi": 78.21,
        "grade": null,
        "description": null,
        "source": "curated"
      },
      "geometry": {
        "type": "Point",
        "coordinates": [
          -114.73142,
          45.106337
        ]
      }
    },
    {
      "type": "Feature",
      "properties": {
        "name": "Big Pine Campsite",
        "category": "camp",
        "kind": "camp",
        "distance_from_putin_mi": 78.54,
        "river_mi": 78.54,
        "grade": null,
        "description": null,
        "source": "curated"
      },
      "geometry": {
        "type": "Point",
        "coordinates": [
          -114.726413,
          45.109092
        ]
      }
    },
    {
      "type": "Feature",
      "properties": {
        "name": "Big Pine Rapids",
        "category": "rapid",
        "kind": "rapid",
        "distance_from_putin_mi": 78.62,
        "river_mi": 78.62,
        "grade": "II-III",
        "description": null,
        "source": "curated"
      },
      "geometry": {
        "type": "Point",
        "coordinates": [
          -114.725934,
          45.110175
        ]
      }
    },
    {
      "type": "Feature",
      "properties": {
        "name": "Elk Bar Campsite",
        "category": "camp",
        "kind": "camp",
        "distance_from_putin_mi": 78.9,
        "river_mi": 78.9,
        "grade": null,
        "description": null,
        "source": "curated"
      },
      "geometry": {
        "type": "Point",
        "coordinates": [
          -114.726339,
          45.114219
        ]
      }
    },
    {
      "type": "Feature",
      "properties": {
        "name": "Love Bar Campsite",
        "category": "camp",
        "kind": "camp",
        "distance_from_putin_mi": 79.02,
        "river_mi": 79.02,
        "grade": null,
        "description": null,
        "source": "curated"
      },
      "geometry": {
        "type": "Point",
        "coordinates": [
          -114.725976,
          45.116044
        ]
      }
    },
    {
      "type": "Feature",
      "properties": {
        "name": "Veil Cave Rapids",
        "category": "rapid",
        "kind": "rapid",
        "distance_from_putin_mi": 79.68,
        "river_mi": 79.68,
        "grade": "II",
        "description": null,
        "source": "curated"
      },
      "geometry": {
        "type": "Point",
        "coordinates": [
          -114.722908,
          45.124589
        ]
      }
    },
    {
      "type": "Feature",
      "properties": {
        "name": "Veil Falls",
        "category": "hazard",
        "kind": "hazard",
        "distance_from_putin_mi": 79.87,
        "river_mi": 79.87,
        "grade": null,
        "description": null,
        "source": "curated"
      },
      "geometry": {
        "type": "Point",
        "coordinates": [
          -114.724313,
          45.127551
        ]
      }
    },
    {
      "type": "Feature",
      "properties": {
        "name": "Porcupine Rapids",
        "category": "rapid",
        "kind": "rapid",
        "distance_from_putin_mi": 80.12,
        "river_mi": 80.12,
        "grade": "II",
        "description": null,
        "source": "curated"
      },
      "geometry": {
        "type": "Point",
        "coordinates": [
          -114.726849,
          45.129274
        ]
      }
    },
    {
      "type": "Feature",
      "properties": {
        "name": "Redside Campsite",
        "category": "camp",
        "kind": "camp",
        "distance_from_putin_mi": 81.57,
        "river_mi": 81.57,
        "grade": null,
        "description": null,
        "source": "curated"
      },
      "geometry": {
        "type": "Point",
        "coordinates": [
          -114.731405,
          45.149517
        ]
      }
    },
    {
      "type": "Feature",
      "properties": {
        "name": "Redside Rapids",
        "category": "rapid",
        "kind": "rapid",
        "distance_from_putin_mi": 81.72,
        "river_mi": 81.72,
        "grade": "III-IV",
        "description": null,
        "source": "curated"
      },
      "geometry": {
        "type": "Point",
        "coordinates": [
          -114.73191,
          45.151596
        ]
      }
    },
    {
      "type": "Feature",
      "properties": {
        "name": "Golden Creek Falls",
        "category": "hazard",
        "kind": "hazard",
        "distance_from_putin_mi": 81.78,
        "river_mi": 81.78,
        "grade": null,
        "description": null,
        "source": "curated"
      },
      "geometry": {
        "type": "Point",
        "coordinates": [
          -114.734827,
          45.152468
        ]
      }
    },
    {
      "type": "Feature",
      "properties": {
        "name": "Weber Rapids",
        "category": "rapid",
        "kind": "rapid",
        "distance_from_putin_mi": 82.14,
        "river_mi": 82.14,
        "grade": "III-IV",
        "description": null,
        "source": "curated"
      },
      "geometry": {
        "type": "Point",
        "coordinates": [
          -114.727478,
          45.156465
        ]
      }
    },
    {
      "type": "Feature",
      "properties": {
        "name": "Mist Falls Rapids",
        "category": "rapid",
        "kind": "rapid",
        "distance_from_putin_mi": 82.48,
        "river_mi": 82.48,
        "grade": "II",
        "description": null,
        "source": "curated"
      },
      "geometry": {
        "type": "Point",
        "coordinates": [
          -114.723474,
          45.160332
        ]
      }
    },
    {
      "type": "Feature",
      "properties": {
        "name": "Papoose Campsite",
        "category": "camp",
        "kind": "camp",
        "distance_from_putin_mi": 83.52,
        "river_mi": 83.52,
        "grade": null,
        "description": null,
        "source": "curated"
      },
      "geometry": {
        "type": "Point",
        "coordinates": [
          -114.720938,
          45.174981
        ]
      }
    },
    {
      "type": "Feature",
      "properties": {
        "name": "Ship Island Campsite",
        "category": "camp",
        "kind": "camp",
        "distance_from_putin_mi": 83.64,
        "river_mi": 83.64,
        "grade": null,
        "description": null,
        "source": "curated"
      },
      "geometry": {
        "type": "Point",
        "coordinates": [
          -114.721899,
          45.176304
        ]
      }
    },
    {
      "type": "Feature",
      "properties": {
        "name": "Lightning Strike Campsite",
        "category": "camp",
        "kind": "camp",
        "distance_from_putin_mi": 84.17,
        "river_mi": 84.17,
        "grade": null,
        "description": null,
        "source": "curated"
      },
      "geometry": {
        "type": "Point",
        "coordinates": [
          -114.719514,
          45.183375
        ]
      }
    },
    {
      "type": "Feature",
      "properties": {
        "name": "Parrot Placer Campsite",
        "category": "camp",
        "kind": "camp",
        "distance_from_putin_mi": 85.51,
        "river_mi": 85.51,
        "grade": null,
        "description": null,
        "source": "curated"
      },
      "geometry": {
        "type": "Point",
        "coordinates": [
          -114.697528,
          45.190714
        ]
      }
    },
    {
      "type": "Feature",
      "properties": {
        "name": "Nugget Creek Falls",
        "category": "hazard",
        "kind": "hazard",
        "distance_from_putin_mi": 87.02,
        "river_mi": 87.02,
        "grade": null,
        "description": null,
        "source": "curated"
      },
      "geometry": {
        "type": "Point",
        "coordinates": [
          -114.687052,
          45.210547
        ]
      }
    },
    {
      "type": "Feature",
      "properties": {
        "name": "Parrot's Cabin Campsite",
        "category": "camp",
        "kind": "camp",
        "distance_from_putin_mi": 87.05,
        "river_mi": 87.05,
        "grade": null,
        "description": null,
        "source": "curated"
      },
      "geometry": {
        "type": "Point",
        "coordinates": [
          -114.684613,
          45.2104
        ]
      }
    },
    {
      "type": "Feature",
      "properties": {
        "name": "Cliffside Rapids",
        "category": "rapid",
        "kind": "rapid",
        "distance_from_putin_mi": 87.74,
        "river_mi": 87.74,
        "grade": "III",
        "description": null,
        "source": "curated"
      },
      "geometry": {
        "type": "Point",
        "coordinates": [
          -114.683801,
          45.219994
        ]
      }
    },
    {
      "type": "Feature",
      "properties": {
        "name": "Cradle Creek Campsite",
        "category": "camp",
        "kind": "camp",
        "distance_from_putin_mi": 87.77,
        "river_mi": 87.77,
        "grade": null,
        "description": null,
        "source": "curated"
      },
      "geometry": {
        "type": "Point",
        "coordinates": [
          -114.683176,
          45.219877
        ]
      }
    },
    {
      "type": "Feature",
      "properties": {
        "name": "Lower Cliffside Rapids",
        "category": "rapid",
        "kind": "rapid",
        "distance_from_putin_mi": 87.99,
        "river_mi": 87.99,
        "grade": "III",
        "description": null,
        "source": "curated"
      },
      "geometry": {
        "type": "Point",
        "coordinates": [
          -114.681226,
          45.222226
        ]
      }
    },
    {
      "type": "Feature",
      "properties": {
        "name": "Tumble Creek Campsite",
        "category": "camp",
        "kind": "camp",
        "distance_from_putin_mi": 88.03,
        "river_mi": 88.03,
        "grade": null,
        "description": null,
        "source": "curated"
      },
      "geometry": {
        "type": "Point",
        "coordinates": [
          -114.681011,
          45.222934
        ]
      }
    },
    {
      "type": "Feature",
      "properties": {
        "name": "Ouzel Campsite",
        "category": "camp",
        "kind": "camp",
        "distance_from_putin_mi": 88.96,
        "river_mi": 88.96,
        "grade": null,
        "description": null,
        "source": "curated"
      },
      "geometry": {
        "type": "Point",
        "coordinates": [
          -114.673721,
          45.23496
        ]
      }
    },
    {
      "type": "Feature",
      "properties": {
        "name": "Cradle Creek Campsite",
        "category": "camp",
        "kind": "camp",
        "distance_from_putin_mi": 89.0,
        "river_mi": 89.0,
        "grade": null,
        "description": null,
        "source": "curated"
      },
      "geometry": {
        "type": "Point",
        "coordinates": [
          -114.672643,
          45.234246
        ]
      }
    },
    {
      "type": "Feature",
      "properties": {
        "name": "Ouzel Rapids",
        "category": "rapid",
        "kind": "rapid",
        "distance_from_putin_mi": 89.3,
        "river_mi": 89.3,
        "grade": "II-III",
        "description": null,
        "source": "curated"
      },
      "geometry": {
        "type": "Point",
        "coordinates": [
          -114.666832,
          45.235559
        ]
      }
    },
    {
      "type": "Feature",
      "properties": {
        "name": "Stoddard Campsite",
        "category": "camp",
        "kind": "camp",
        "distance_from_putin_mi": 89.37,
        "river_mi": 89.37,
        "grade": null,
        "description": null,
        "source": "curated"
      },
      "geometry": {
        "type": "Point",
        "coordinates": [
          -114.665894,
          45.236304
        ]
      }
    },
    {
      "type": "Feature",
      "properties": {
        "name": "Otter Bar Campsite",
        "category": "camp",
        "kind": "camp",
        "distance_from_putin_mi": 89.6,
        "river_mi": 89.6,
        "grade": null,
        "description": null,
        "source": "curated"
      },
      "geometry": {
        "type": "Point",
        "coordinates": [
          -114.662372,
          45.238349
        ]
      }
    },
    {
      "type": "Feature",
      "properties": {
        "name": "Rubber Rapids",
        "category": "rapid",
        "kind": "rapid",
        "distance_from_putin_mi": 90.49,
        "river_mi": 90.49,
        "grade": "III-IV",
        "description": null,
        "source": "curated"
      },
      "geometry": {
        "type": "Point",
        "coordinates": [
          -114.657349,
          45.250174
        ]
      }
    },
    {
      "type": "Feature",
      "properties": {
        "name": "Hancock Rapids",
        "category": "rapid",
        "kind": "rapid",
        "distance_from_putin_mi": 91.46,
        "river_mi": 91.46,
        "grade": "III",
        "description": null,
        "source": "curated"
      },
      "geometry": {
        "type": "Point",
        "coordinates": [
          -114.645371,
          45.259915
        ]
      }
    },
    {
      "type": "Feature",
      "properties": {
        "name": "Solitude Campsite",
        "category": "camp",
        "kind": "camp",
        "distance_from_putin_mi": 92.15,
        "river_mi": 92.15,
        "grade": null,
        "description": null,
        "source": "curated"
      },
      "geometry": {
        "type": "Point",
        "coordinates": [
          -114.635384,
          45.26575
        ]
      }
    },
    {
      "type": "Feature",
      "properties": {
        "name": "Devils Tooth Rapids",
        "category": "rapid",
        "kind": "rapid",
        "distance_from_putin_mi": 92.85,
        "river_mi": 92.85,
        "grade": "III-IV",
        "description": null,
        "source": "curated"
      },
      "geometry": {
        "type": "Point",
        "coordinates": [
          -114.625656,
          45.272912
        ]
      }
    },
    {
      "type": "Feature",
      "properties": {
        "name": "House Of Rocks Rapids",
        "category": "rapid",
        "kind": "rapid",
        "distance_from_putin_mi": 93.05,
        "river_mi": 93.05,
        "grade": "III-IV",
        "description": null,
        "source": "curated"
      },
      "geometry": {
        "type": "Point",
        "coordinates": [
          -114.623226,
          45.27503
        ]
      }
    },
    {
      "type": "Feature",
      "properties": {
        "name": "Confluence Takeout",
        "category": "note",
        "kind": "note",
        "distance_from_putin_mi": 95.45,
        "river_mi": 95.45,
        "grade": null,
        "description": "Alternate exit at the MFS / Main Salmon confluence. Most parties continue ~3 river miles to Cache Bar (the official take-out).",
        "source": "curated"
      },
      "geometry": {
        "type": "Point",
        "coordinates": [
          -114.595609,
          45.299068
        ]
      }
    },
    {
      "type": "Feature",
      "properties": {
        "name": "Cramer Creek Rapids",
        "category": "rapid",
        "kind": "rapid",
        "distance_from_putin_mi": 97.39,
        "river_mi": 97.39,
        "grade": "III-IV",
        "description": null,
        "source": "curated"
      },
      "geometry": {
        "type": "Point",
        "coordinates": [
          -114.626667,
          45.309778
        ]
      }
    },
    {
      "type": "Feature",
      "properties": {
        "name": "Cache Bar Boat Ramp",
        "category": "access",
        "kind": "takeout",
        "distance_from_putin_mi": 98.21,
        "river_mi": 98.21,
        "grade": null,
        "description": null,
        "source": "curated"
      },
      "geometry": {
        "type": "Point",
        "coordinates": [
          -114.636713,
          45.31856
        ]
      }
    }
  ]
}