{"type":"FeatureCollection","features":[{"type":"Feature","properties":{},"geometry":{"type":"MultiPolygon","coordinates":[[[[-115.30594080273674,44.54948099624655],[-115.30705765926486,44.54948046105625],[-115.3050533894069,44.55539367804085],[-115.30568205829051,44.55671803413453],[-115.30087343586341,44.556722050122886],[-115.30087899194346,44.54948331497767],[-115.30594080273674,44.54948099624655]]],[[[-115.0133869438579,44.71766618903165],[-115.01262960478456,44.716994890917995],[-115.01258040944636,44.71473412802932],[-115.01167600538123,44.713860857747186],[-115.01949444933742,44.71186282101228],[-115.0200516985627,44.712510845091245],[-115.01623436705162,44.71678275598991],[-115.01744639110095,44.72246282805971],[-115.0157167793445,44.72269699190088],[-115.01516655943632,44.71979109394137],[-115.0133869438579,44.71766618903165]]],[[[-115.14672893001165,44.732302521964044],[-115.14740697209992,44.73125330997829],[-115.15013086795891,44.73073679698543],[-115.15188503965527,44.73073699482217],[-115.1518945653905,44.73435757808237],[-115.14679978013811,44.73435450797625],[-115.14680952775724,44.73797345072941],[-115.14171260541279,44.73796888127285],[-115.14173224168658,44.74520709979797],[-115.13663554122597,44.74520114129827],[-115.1366309175972,44.7435634621109],[-115.137849006173,44.742437660242594],[-115.13858635683293,44.7412478077416],[-115.1408847045722,44.73649177099704],[-115.14325771309137,44.73415180403447],[-115.14672893001165,44.732302521964044]]],[[[-114.80760879722101,44.804155237048974],[-114.80588151120283,44.80445178396148],[-114.8061865188862,44.803322119747975],[-114.80742027138562,44.803110298990916],[-114.80760879722101,44.804155237048974]]],[[[-114.81256475503281,44.80655640383477],[-114.81256481791488,44.80727450388947],[-114.81003089687383,44.80727759370333],[-114.81002955568908,44.806374060187636],[-114.81256475503281,44.80655640383477]]],[[[-114.76701920533733,44.8727297060865],[-114.76609554857903,44.873623669135085],[-114.76484086623182,44.87295943423979],[-114.76572520822171,44.872073540237096],[-114.76701920533733,44.8727297060865]]],[[[-114.73376395799814,44.97147541091321],[-114.73244148698296,44.97062398187623],[-114.7313302413321,44.968019984311844],[-114.73141639425944,44.96711678391692],[-114.73297602679783,44.96407127307694],[-114.7328687850209,44.96308507629452],[-114.73316825369223,44.962380401102045],[-114.73523246184088,44.96115378101026],[-114.73538484485917,44.96051346889779],[-114.7345387657105,44.955930235830344],[-114.73610161331932,44.953941784782394],[-114.73616498227608,44.95117729711054],[-114.73886037009956,44.951185395876585],[-114.7388316913841,44.95840518470538],[-114.74386053939634,44.95840922181872],[-114.74392855713474,44.96564912190378],[-114.73884176239676,44.96565563983315],[-114.73885261224876,44.972891901061686],[-114.73652323580129,44.97289204595688],[-114.73638885861456,44.97222568301593],[-114.73376395799814,44.97147541091321]]]]}}]}